{"type":"FeatureCollection","features":[{"type":"Feature","properties":{"NAME":"Duchy of Milan","OHM_NAME":"Duchy of Milan","ADMIN_LEVEL":4,"OHM_RELATION_ID":2800654,"START_DATE":"1500","END_DATE":"1512","BORROWED_FROM":{"year":1500,"file":"data/italy_fiefs_1500.geojson","sourceRef":"OpenHistoricalMap relation 2800654"}},"geometry":{"type":"Polygon","coordinates":[[[7.861,45.91],[7.868,45.906],[7.865,45.882],[7.874,45.855],[7.863,45.839],[7.873,45.827],[7.862,45.82],[7.862,45.791],[7.886,45.759],[7.931,45.742],[7.927,45.737],[7.938,45.725],[7.953,45.72],[7.999,45.719],[8.014,45.733],[8.06,45.74],[8.065,45.724],[8.076,45.719],[8.082,45.738],[8.096,45.738],[8.115,45.753],[8.182,45.751],[8.188,45.729],[8.253,45.693],[8.301,45.655],[8.328,45.647],[8.295,45.64],[8.258,45.604],[8.276,45.563],[8.297,45.553],[8.292,45.541],[8.278,45.533],[8.278,45.519],[8.221,45.476],[8.218,45.454],[8.203,45.446],[8.186,45.451],[8.169,45.436],[8.162,45.426],[8.168,45.412],[8.145,45.407],[8.124,45.375],[8.017,45.401],[8.008,45.385],[8.024,45.362],[8.021,45.33],[8.05,45.317],[8.018,45.284],[7.98,45.262],[7.988,45.24],[8.004,45.217],[8.042,45.205],[8.045,45.199],[8.07,45.2],[8.094,45.249],[8.128,45.257],[8.527,45.244],[8.551,45.168],[8.557,45.167],[8.554,45.161],[8.554,45.16],[8.568,45.155],[8.58,45.153],[8.581,45.151],[8.583,45.15],[8.592,45.131],[8.614,45.127],[8.608,45.108],[8.646,45.075],[8.637,45.067],[8.647,45.056],[8.647,45.055],[8.646,45.054],[8.64,45.046],[8.641,45.044],[8.563,44.933],[8.562,44.846],[8.577,44.723],[8.603,44.643],[8.618,44.651],[8.663,44.656],[8.675,44.64],[8.672,44.621],[8.685,44.611],[8.673,44.597],[8.694,44.582],[8.725,44.579],[8.749,44.55],[8.765,44.53],[8.772,44.489],[8.786,44.488],[8.8,44.502],[8.795,44.523],[8.802,44.533],[8.828,44.546],[8.822,44.548],[8.826,44.559],[8.818,44.571],[8.804,44.58],[8.807,44.597],[8.794,44.618],[8.82,44.64],[8.789,44.664],[8.781,44.683],[8.763,44.691],[8.771,44.716],[8.788,44.714],[8.793,44.723],[8.76,44.746],[8.722,44.793],[8.731,44.805],[8.744,44.807],[8.759,44.8],[8.766,44.785],[8.798,44.783],[8.83,44.804],[8.847,44.798],[8.847,44.761],[8.825,44.731],[8.827,44.716],[8.846,44.695],[8.872,44.705],[8.898,44.698],[8.944,44.708],[8.948,44.701],[8.988,44.715],[9.004,44.709],[9.019,44.716],[9.021,44.729],[9.004,44.743],[9.008,44.75],[9.029,44.75],[9.078,44.722],[9.128,44.728],[9.166,44.693],[9.203,44.686],[9.239,44.687],[9.232,44.702],[9.236,44.715],[9.26,44.68],[9.366,44.69],[9.399,44.655],[9.403,44.643],[9.404,44.642],[9.404,44.641],[9.406,44.634],[9.398,44.616],[9.397,44.613],[9.421,44.593],[9.423,44.575],[9.409,44.56],[9.48,44.563],[9.493,44.556],[9.49,44.55],[9.505,44.529],[9.496,44.483],[9.469,44.481],[9.471,44.469],[9.458,44.442],[9.439,44.429],[9.442,44.419],[9.452,44.421],[9.464,44.425],[9.466,44.423],[9.472,44.424],[9.479,44.409],[9.495,44.424],[9.541,44.426],[9.558,44.439],[9.585,44.429],[9.606,44.435],[9.638,44.415],[9.655,44.412],[9.675,44.364],[9.689,44.365],[9.718,44.383],[9.745,44.381],[9.744,44.389],[9.76,44.39],[9.754,44.392],[9.756,44.407],[9.817,44.452],[9.819,44.466],[9.924,44.473],[9.971,44.465],[9.981,44.445],[10.001,44.444],[10.007,44.431],[9.99,44.404],[10.021,44.383],[10.099,44.346],[10.143,44.354],[10.15,44.368],[10.22,44.406],[10.263,44.451],[10.324,44.479],[10.344,44.526],[10.363,44.543],[10.383,44.545],[10.402,44.564],[10.398,44.608],[10.416,44.632],[10.414,44.668],[10.417,44.672],[10.417,44.675],[10.448,44.719],[10.427,44.74],[10.428,44.741],[10.426,44.742],[10.435,44.754],[10.432,44.761],[10.43,44.766],[10.475,44.768],[10.485,44.784],[10.489,44.786],[10.49,44.787],[10.494,44.788],[10.531,44.806],[10.534,44.816],[10.53,44.817],[10.538,44.831],[10.584,44.843],[10.567,44.847],[10.583,44.877],[10.498,44.882],[10.483,44.854],[10.48,44.854],[10.479,44.853],[10.466,44.855],[10.47,44.876],[10.472,44.877],[10.462,44.887],[10.463,44.896],[10.49,44.905],[10.491,44.905],[10.491,44.911],[10.503,44.917],[10.486,44.924],[10.477,44.936],[10.467,44.938],[10.472,44.944],[10.471,44.945],[10.473,44.945],[10.474,44.947],[10.484,44.947],[10.497,44.949],[10.507,44.972],[10.523,44.972],[10.526,44.973],[10.531,44.981],[10.55,44.988],[10.561,44.994],[10.595,45.004],[10.567,45],[10.556,45.007],[10.511,44.983],[10.458,44.981],[10.464,45.015],[10.511,45.018],[10.52,45.04],[10.534,45.045],[10.535,45.047],[10.531,45.051],[10.538,45.06],[10.533,45.075],[10.498,45.075],[10.492,45.082],[10.491,45.082],[10.495,45.068],[10.493,45.064],[10.494,45.057],[10.489,45.057],[10.488,45.056],[10.464,45.058],[10.459,45.056],[10.445,45.046],[10.431,45.045],[10.42,45.041],[10.415,45.044],[10.412,45.044],[10.412,45.046],[10.415,45.074],[10.411,45.087],[10.417,45.088],[10.417,45.092],[10.463,45.094],[10.458,45.12],[10.459,45.12],[10.459,45.123],[10.492,45.132],[10.479,45.145],[10.447,45.146],[10.421,45.14],[10.42,45.137],[10.422,45.132],[10.418,45.131],[10.418,45.13],[10.416,45.13],[10.39,45.143],[10.389,45.143],[10.378,45.139],[10.356,45.165],[10.313,45.188],[10.313,45.19],[10.309,45.192],[10.312,45.197],[10.312,45.199],[10.321,45.209],[10.284,45.228],[10.267,45.251],[10.251,45.253],[10.246,45.244],[10.227,45.24],[10.217,45.231],[10.222,45.229],[10.153,45.24],[10.126,45.247],[10.077,45.278],[10.008,45.295],[9.911,45.338],[9.886,45.371],[9.891,45.463],[9.877,45.475],[9.853,45.532],[9.768,45.515],[9.771,45.504],[9.756,45.5],[9.75,45.483],[9.73,45.478],[9.764,45.454],[9.771,45.437],[9.768,45.412],[9.749,45.405],[9.745,45.384],[9.767,45.377],[9.77,45.363],[9.791,45.355],[9.78,45.353],[9.787,45.346],[9.759,45.343],[9.735,45.33],[9.729,45.314],[9.737,45.302],[9.73,45.287],[9.734,45.271],[9.697,45.256],[9.686,45.265],[9.663,45.255],[9.683,45.266],[9.673,45.274],[9.651,45.275],[9.662,45.281],[9.659,45.292],[9.639,45.268],[9.625,45.298],[9.606,45.286],[9.603,45.296],[9.612,45.303],[9.59,45.355],[9.56,45.374],[9.568,45.415],[9.585,45.423],[9.579,45.439],[9.642,45.457],[9.662,45.437],[9.682,45.441],[9.69,45.459],[9.699,45.46],[9.724,45.495],[9.695,45.507],[9.69,45.549],[9.673,45.564],[9.632,45.558],[9.597,45.57],[9.56,45.596],[9.539,45.582],[9.515,45.626],[9.497,45.631],[9.486,45.667],[9.451,45.684],[9.459,45.702],[9.447,45.731],[9.457,45.745],[9.446,45.761],[9.468,45.767],[9.45,45.783],[9.475,45.783],[9.484,45.793],[9.495,45.793],[9.493,45.807],[9.473,45.825],[9.475,45.841],[9.467,45.849],[9.51,45.876],[9.54,45.946],[9.53,45.961],[9.503,45.97],[9.491,46.012],[9.553,46.015],[9.626,46.052],[9.75,46.062],[9.889,46.045],[9.927,46.063],[10.097,46.091],[10.097,46.057],[10.17,46.057],[10.183,46.08],[10.154,46.135],[10.161,46.158],[10.178,46.173],[10.291,46.221],[10.318,46.277],[10.331,46.288],[10.367,46.293],[10.446,46.348],[10.471,46.355],[10.498,46.335],[10.513,46.335],[10.52,46.356],[10.54,46.355],[10.541,46.363],[10.567,46.378],[10.608,46.379],[10.633,46.402],[10.618,46.417],[10.622,46.448],[10.601,46.469],[10.578,46.473],[10.546,46.493],[10.477,46.496],[10.458,46.511],[10.453,46.53],[10.419,46.551],[10.4,46.545],[10.355,46.555],[10.338,46.543],[10.325,46.552],[10.296,46.55],[10.287,46.57],[10.272,46.576],[10.246,46.575],[10.242,46.591],[10.256,46.608],[10.24,46.635],[10.215,46.617],[10.188,46.626],[10.132,46.606],[10.102,46.61],[10.101,46.583],[10.083,46.575],[10.085,46.567],[10.068,46.55],[10.044,46.538],[10.054,46.523],[10.043,46.507],[10.043,46.478],[10.054,46.465],[10.042,46.443],[10.08,46.421],[10.143,46.428],[10.149,46.413],[10.165,46.409],[10.164,46.391],[10.129,46.379],[10.129,46.361],[10.108,46.351],[10.106,46.342],[10.116,46.316],[10.153,46.294],[10.172,46.267],[10.148,46.251],[10.151,46.24],[10.145,46.231],[10.109,46.258],[10.069,46.261],[10.059,46.253],[10.051,46.267],[10.035,46.275],[9.997,46.284],[9.992,46.296],[10.001,46.302],[10,46.313],[9.98,46.323],[9.995,46.349],[9.964,46.364],[9.953,46.379],[9.924,46.367],[9.907,46.381],[9.868,46.362],[9.833,46.361],[9.779,46.335],[9.737,46.351],[9.723,46.341],[9.718,46.322],[9.726,46.313],[9.71,46.292],[9.679,46.302],[9.632,46.286],[9.553,46.304],[9.518,46.327],[9.498,46.363],[9.465,46.374],[9.467,46.398],[9.454,46.421],[9.464,46.474],[9.463,46.481],[9.45,46.48],[9.461,46.485],[9.461,46.505],[9.434,46.498],[9.414,46.468],[9.391,46.473],[9.368,46.494],[9.373,46.504],[9.364,46.509],[9.321,46.505],[9.282,46.496],[9.278,46.462],[9.247,46.447],[9.248,46.433],[9.281,46.411],[9.276,46.395],[9.284,46.386],[9.277,46.372],[9.281,46.36],[9.298,46.352],[9.293,46.338],[9.3,46.327],[9.282,46.309],[9.285,46.297],[9.259,46.278],[9.249,46.234],[9.225,46.23],[9.214,46.211],[9.202,46.208],[9.194,46.178],[9.184,46.171],[9.161,46.171],[9.1,46.127],[9.079,46.121],[9.064,46.134],[9.053,46.122],[9.006,46.129],[8.984,46.114],[8.927,46.142],[8.936,46.209],[8.9,46.308],[8.885,46.305],[8.872,46.32],[8.848,46.327],[8.862,46.35],[8.852,46.35],[8.832,46.367],[8.829,46.378],[8.81,46.388],[8.744,46.406],[8.736,46.429],[8.705,46.445],[8.711,46.458],[8.703,46.474],[8.582,46.499],[8.558,46.491],[8.557,46.478],[8.539,46.467],[8.524,46.475],[8.462,46.451],[8.45,46.462],[8.434,46.464],[8.367,46.452],[8.326,46.427],[8.304,46.423],[8.29,46.409],[8.316,46.398],[8.313,46.377],[8.284,46.364],[8.264,46.365],[8.266,46.352],[8.224,46.334],[8.222,46.323],[8.199,46.302],[8.16,46.296],[8.141,46.302],[8.086,46.267],[8.085,46.256],[8.107,46.25],[8.115,46.236],[8.139,46.226],[8.153,46.191],[8.165,46.183],[8.151,46.165],[8.154,46.146],[8.115,46.13],[8.11,46.113],[8.036,46.101],[8.022,46.07],[8.034,46.044],[8.016,46.033],[8.013,46.016],[8.001,46.012],[7.989,45.996],[7.909,45.997],[7.88,45.975],[7.869,45.937],[7.877,45.926],[7.861,45.91]]]}}],"metadata":{"generatedBy":"scripts/build-fief-flat.ts","input":"data/borrowed_italy_1492.geojson","year":1492,"minOverlapAreaM2":1000,"externalInputs":["data/italy_fiefs_flat_1492.geojson"],"externalRemovals":[{"cutName":"Duchy of Milan","externalName":"Duchy of Modena and Reggio","overlapKm2":1.95},{"cutName":"Duchy of Milan","externalName":"March of Montferrat","overlapKm2":278.22},{"cutName":"Duchy of Milan","externalName":"Margraviate of Mantua","overlapKm2":5.93},{"cutName":"Duchy of Milan","externalName":"Republic of Genoa","overlapKm2":40.47}],"borrowedFrom":[{"name":"Duchy of Milan","year":1500,"file":"data/italy_fiefs_1500.geojson","sourceRef":"OpenHistoricalMap relation 2800654","reason":"1492 年・1500 年ともスフォルツァ家支配下のミラノ公国で領域はほぼ同一。1499 年のフランスによる征服は支配者の交代であり領域の変化ではない。"}],"source":"OpenHistoricalMap","sourceUrl":"https://www.openhistoricalmap.org/","license":"CC0-1.0","borderPrecision":"史料に基づく復元（概略。測量された境界ではない）"}}