{"type":"FeatureCollection","metadata":{"borrowedFromYear":1715,"borrowedFromFile":"data/europe_1715.geojson","source":"aourednik/historical-basemaps","sourceCommit":"62d8f1a03a71f2d3ff17f2d166f7553f256bce68","license":"GPL-3.0","targetYear":1700,"reason":"1700 source geometry is demonstrably erroneous; adjacent 1715 mainland component is used without coordinate edits (#404)"},"features":[{"type":"Feature","properties":{"NAME":"Austrian Empire","ABBREVN":"Austrian Emp","SUBJECTO":"Austrian Empire","BORDERPRECISION":3,"PARTOF":"Austrian Empire"},"geometry":{"type":"MultiPolygon","coordinates":[[[[22.343,44.986],[22.41,44.75],[22.296,44.692],[22.199,44.564],[22.133,44.511],[21.947,44.619],[21.859,44.681],[21.592,44.708],[21.583,44.793],[21.478,44.793],[21.367,44.809],[21.364,44.82],[21.33,44.82],[21.149,44.739],[21.015,44.72],[20.922,44.671],[20.769,44.66],[20.633,44.757],[20.643,44.813],[20.571,44.847],[20.525,44.83],[20.405,44.855],[20.334,44.915],[20.288,44.971],[20.319,44.999],[20.241,45.155],[20.196,45.181],[20.024,45.173],[19.872,45.264],[19.853,45.236],[19.587,45.21],[19.544,45.253],[19.419,45.224],[19.424,45.193],[19.408,45.168],[19.348,45.173],[19.308,45.188],[19.278,45.178],[19.243,45.183],[19.213,45.203],[19.188,45.208],[19.167,45.203],[19.182,45.173],[19.137,45.132],[19.102,45.132],[19.102,45.062],[19.122,45.032],[19.107,44.997],[19.122,44.926],[19.082,44.911],[19.042,44.926],[19.017,44.896],[19.052,44.856],[18.931,44.841],[18.841,44.851],[18.776,44.906],[18.801,44.952],[18.781,44.992],[18.725,44.997],[18.715,45.047],[18.585,45.092],[18.54,45.052],[18.494,45.057],[18.394,45.102],[18.329,45.102],[18.258,45.122],[18.208,45.092],[18.148,45.072],[18.088,45.092],[18.037,45.122],[17.987,45.122],[17.932,45.082],[17.857,45.047],[17.666,45.117],[17.515,45.107],[17.43,45.132],[17.354,45.137],[17.284,45.178],[17.244,45.142],[17.194,45.132],[17.169,45.157],[16.933,45.238],[16.892,45.243],[16.832,45.188],[16.606,45.218],[16.511,45.208],[16.4,45.092],[16.345,45.002],[16.254,45.012],[16.139,45.072],[16.023,45.208],[15.883,45.223],[15.828,45.203],[15.787,45.122],[15.767,45.047],[15.787,44.987],[15.802,44.856],[15.747,44.826],[15.757,44.786],[15.818,44.751],[15.858,44.71],[15.958,44.68],[16.039,44.6],[16.144,44.434],[16.154,44.379],[16.224,44.329],[16.189,44.304],[16.184,44.258],[15.548,44.229],[15.286,44.329],[14.989,44.54],[14.907,44.723],[14.946,44.927],[14.815,45.078],[14.525,45.266],[14.354,45.323],[14.076,45.276],[13.99,45.42],[14.219,45.477],[14.076,45.678],[13.565,45.727],[13.438,45.638],[13.368,45.694],[13.606,46.132],[13.621,46.421],[13.725,46.646],[13.709,46.839],[13.581,46.839],[13.516,47],[13.292,47.064],[12.698,46.951],[12.407,46.964],[12.393,47.048],[12.473,47.064],[12.473,47.224],[12.778,47.289],[13.035,47.208],[13.276,47.224],[13.854,47.192],[13.805,47.289],[13.902,47.401],[13.805,47.449],[13.805,47.497],[13.757,47.513],[13.677,47.465],[13.516,47.529],[13.565,47.786],[13.42,47.834],[13.388,47.947],[13.253,48.069],[13.677,48.332],[13.947,48.655],[13.745,48.94],[13.652,48.956],[13.578,49.037],[13.48,48.999],[13.397,49.09],[13.203,49.166],[12.945,49.398],[12.861,49.366],[12.646,49.485],[12.536,49.563],[12.52,49.668],[12.448,49.706],[12.484,49.889],[12.214,50.009],[12.128,50.152],[12.085,50.152],[12.084,50.262],[12.152,50.242],[12.177,50.192],[12.202,50.24],[12.462,50.398],[12.594,50.384],[12.784,50.474],[12.982,50.474],[13.018,50.556],[13.189,50.561],[13.233,50.664],[13.394,50.691],[13.473,50.659],[13.524,50.757],[13.855,50.767],[13.911,50.844],[14.146,50.865],[14.389,50.947],[14.262,51.045],[14.458,51.077],[14.596,51.023],[14.61,50.898],[14.765,50.865],[14.829,50.917],[14.997,50.917],[15.008,50.985],[14.981,51.018],[15.009,51.056],[15.267,51.023],[15.342,51.287],[15.258,51.622],[14.867,51.594],[14.867,51.761],[15.174,51.789],[15.23,52.208],[15.765,52.265],[16.095,52.124],[16.506,52.004],[16.506,52.178],[16.855,51.917],[16.855,51.655],[17.204,51.611],[17.291,51.786],[17.553,51.655],[17.64,51.437],[18.14,50.988],[18.646,50.645],[18.769,50.177],[18.796,49.713],[18.896,49.713],[18.927,49.622],[19.108,49.592],[19.138,49.713],[19.381,49.803],[19.562,49.713],[19.562,49.531],[19.713,49.531],[19.895,49.471],[20.016,49.803],[20.349,49.743],[20.53,49.803],[20.681,49.652],[20.893,49.743],[20.803,49.834],[20.893,49.834],[20.984,49.743],[21.135,49.834],[21.287,49.773],[21.317,49.864],[21.771,49.743],[21.771,49.592],[23.889,49.259],[24.161,48.987],[24.342,48.351],[24.736,48.23],[24.887,47.897],[24.796,47.807],[25.246,47.686],[25.685,47.619],[26.292,47.214],[26.191,46.809],[25.853,46.674],[25.651,46.404],[25.448,46.302],[25.516,45.796],[24.942,45.965],[24.402,45.897],[24.065,46.1],[23.795,46.066],[23.558,45.897],[23.255,46.066],[23.018,45.864],[22.478,45.729],[22.343,44.986]]]]}}]}
