{"type":"FeatureCollection","features":[{"type":"Feature","properties":{"NAME":"Electorate of Saxony","SUBJECTO":"Holy Roman Empire","PARTOF":"Holy Roman Empire","BORROWED_FROM":{"year":1700,"file":"data/hre_1700.geojson","sourceRef":"Roller territories_manual: id=albertinischesSachsennach1635"}},"geometry":{"type":"MultiPolygon","coordinates":[[[[10.395,51.134],[10.449,51.095],[10.53,51.093],[10.625,51.063],[10.698,51.099],[10.748,51.1],[10.754,51.109],[10.742,51.113],[10.746,51.131],[10.764,51.137],[10.783,51.139],[10.786,51.125],[10.787,51.125],[10.791,51.126],[10.814,51.119],[10.816,51.109],[10.808,51.101],[10.81,51.098],[10.804,51.097],[10.793,51.086],[10.799,51.072],[10.839,51.07],[10.831,51.073],[10.838,51.095],[10.88,51.098],[10.884,51.084],[10.91,51.089],[10.934,51.096],[10.95,51.104],[10.948,51.116],[10.957,51.119],[10.951,51.125],[10.97,51.124],[10.973,51.116],[10.999,51.129],[11.02,51.133],[11.051,51.128],[11.064,51.13],[11.061,51.15],[11.086,51.151],[11.085,51.169],[11.115,51.174],[11.115,51.185],[11.128,51.18],[11.122,51.172],[11.157,51.163],[11.174,51.128],[11.175,51.115],[11.197,51.114],[11.266,51.15],[11.305,51.134],[11.332,51.133],[11.371,51.154],[11.358,51.169],[11.363,51.174],[11.447,51.188],[11.463,51.186],[11.452,51.159],[11.458,51.126],[11.425,51.103],[11.478,51.08],[11.487,51.086],[11.492,51.106],[11.509,51.107],[11.524,51.083],[11.537,51.078],[11.575,51.089],[11.591,51.082],[11.586,51.065],[11.551,51.047],[11.563,51.016],[11.537,51.006],[11.495,51.017],[11.478,50.996],[11.602,50.953],[11.646,50.953],[11.74,50.96],[11.78,50.988],[11.829,51.004],[11.866,51.001],[11.875,50.985],[11.91,50.987],[11.907,51.006],[11.912,51.018],[11.924,51.022],[11.939,51.019],[11.95,50.988],[11.96,50.983],[11.988,51.009],[12.047,51.026],[12.06,51.049],[12.102,51.051],[12.117,51.076],[12.179,51.079],[12.187,51.086],[12.192,51.153],[12.226,51.157],[12.238,51.136],[12.273,51.119],[12.344,51.123],[12.356,51.134],[12.358,51.126],[12.377,51.122],[12.48,51.123],[12.486,51.097],[12.52,51.088],[12.557,51.032],[12.526,51.025],[12.52,51.016],[12.535,51.008],[12.528,51.007],[12.536,50.997],[12.564,50.982],[12.637,50.985],[12.674,50.956],[12.668,50.938],[12.65,50.934],[12.625,50.935],[12.615,50.949],[12.548,50.95],[12.44,50.88],[12.417,50.873],[12.404,50.88],[12.383,50.867],[12.31,50.863],[12.312,50.82],[12.29,50.808],[12.127,50.827],[12.109,50.852],[12.091,50.858],[12.064,50.844],[12.045,50.845],[11.966,50.881],[11.871,50.896],[11.787,50.827],[11.715,50.814],[11.699,50.807],[11.693,50.789],[11.559,50.754],[11.554,50.732],[11.589,50.732],[11.587,50.713],[11.538,50.702],[11.509,50.718],[11.497,50.716],[11.473,50.706],[11.472,50.684],[11.497,50.664],[11.492,50.608],[11.521,50.576],[11.533,50.568],[11.562,50.583],[11.582,50.583],[11.601,50.561],[11.63,50.577],[11.662,50.582],[11.661,50.597],[11.694,50.604],[11.731,50.581],[11.747,50.58],[11.81,50.637],[11.88,50.664],[11.9,50.653],[11.95,50.657],[11.976,50.669],[11.978,50.683],[12.015,50.695],[12.017,50.706],[12.05,50.711],[12.073,50.727],[12.091,50.719],[12.118,50.735],[12.152,50.724],[12.172,50.706],[12.201,50.706],[12.201,50.714],[12.208,50.735],[12.227,50.731],[12.248,50.723],[12.252,50.69],[12.269,50.682],[12.317,50.679],[12.354,50.685],[12.368,50.669],[12.324,50.631],[12.253,50.631],[12.231,50.611],[12.13,50.624],[12.118,50.618],[12.146,50.588],[12.157,50.558],[12.091,50.543],[12.075,50.547],[12.072,50.572],[12.032,50.6],[12.021,50.642],[11.999,50.639],[11.993,50.603],[11.959,50.594],[11.947,50.56],[11.93,50.547],[11.932,50.534],[11.969,50.503],[11.97,50.489],[11.944,50.465],[11.895,50.445],[11.948,50.394],[12.022,50.359],[12.047,50.339],[12.116,50.309],[12.207,50.298],[12.235,50.279],[12.285,50.265],[12.324,50.234],[12.338,50.183],[12.431,50.185],[12.415,50.24],[12.421,50.268],[12.437,50.287],[12.471,50.304],[12.52,50.311],[12.523,50.354],[12.61,50.376],[12.646,50.395],[12.81,50.396],[12.958,50.435],[13.069,50.489],[13.077,50.501],[13.164,50.55],[13.178,50.572],[13.252,50.577],[13.354,50.659],[13.425,50.668],[13.429,50.695],[13.441,50.705],[13.514,50.713],[13.597,50.709],[13.641,50.741],[13.702,50.77],[13.799,50.78],[13.86,50.777],[13.926,50.792],[13.942,50.803],[13.955,50.839],[13.989,50.855],[14.096,50.851],[14.107,50.861],[14.258,50.889],[14.323,50.924],[14.38,50.915],[14.387,50.952],[14.364,50.969],[14.306,50.988],[14.292,51.012],[14.461,51.014],[14.519,50.969],[14.542,50.936],[14.587,50.9],[14.616,50.889],[14.608,50.862],[14.697,50.849],[14.802,50.848],[14.845,50.882],[14.924,50.877],[14.988,50.925],[14.982,50.946],[15.032,50.968],[15.04,50.994],[15.029,51.011],[15.04,51.024],[15.064,51.033],[15.088,51.029],[15.109,51.043],[15.131,51.026],[15.235,51.035],[15.238,51.015],[15.263,51.006],[15.252,50.984],[15.256,50.967],[15.302,50.958],[15.352,51.013],[15.374,51.018],[15.363,51.057],[15.379,51.101],[15.366,51.111],[15.281,51.089],[15.268,51.098],[15.27,51.118],[15.292,51.144],[15.291,51.166],[15.304,51.188],[15.374,51.235],[15.415,51.278],[15.413,51.35],[15.431,51.377],[15.43,51.39],[15.418,51.457],[15.384,51.479],[15.409,51.496],[15.41,51.538],[15.383,51.546],[15.347,51.53],[15.333,51.507],[15.286,51.494],[15.232,51.499],[15.204,51.527],[15.165,51.529],[15.142,51.494],[15.139,51.474],[14.918,51.462],[14.853,51.445],[14.816,51.459],[14.742,51.435],[14.722,51.435],[14.719,51.456],[14.734,51.496],[14.749,51.514],[14.746,51.546],[14.846,51.554],[14.898,51.575],[14.947,51.609],[14.968,51.602],[15.021,51.605],[15.036,51.584],[15.052,51.58],[15.139,51.579],[15.165,51.586],[15.194,51.612],[15.226,51.613],[15.233,51.634],[15.304,51.649],[15.309,51.68],[15.248,51.822],[15.246,51.852],[15.213,51.856],[15.209,51.86],[15.199,51.857],[15.173,51.858],[15.18,51.869],[15.167,51.871],[15.158,51.883],[15.105,51.862],[15.069,51.866],[15.05,51.847],[15.051,51.837],[15,51.832],[15.003,51.819],[14.995,51.814],[14.997,51.808],[15.019,51.805],[15.024,51.797],[15.012,51.788],[15.005,51.788],[15.008,51.78],[15.002,51.764],[14.991,51.761],[14.993,51.76],[14.989,51.744],[14.935,51.745],[14.956,51.755],[14.943,51.775],[14.922,51.781],[14.937,51.8],[14.951,51.805],[14.954,51.813],[14.949,51.826],[14.944,51.832],[14.909,51.839],[14.917,51.845],[14.89,51.871],[14.92,51.877],[14.921,51.878],[14.923,51.878],[14.934,51.88],[14.959,51.873],[14.962,51.872],[14.972,51.885],[14.932,51.896],[14.964,51.929],[14.943,51.931],[14.95,51.944],[14.935,51.951],[14.937,51.963],[14.918,51.967],[14.919,51.981],[14.905,51.992],[14.907,52.03],[14.886,52.032],[14.873,52.049],[14.881,52.055],[14.845,52.077],[14.799,52.078],[14.79,52.083],[14.806,52.091],[14.789,52.097],[14.757,52.09],[14.699,52.098],[14.687,52.106],[14.68,52.141],[14.705,52.173],[14.687,52.198],[14.709,52.212],[14.713,52.23],[14.691,52.256],[14.678,52.241],[14.688,52.227],[14.703,52.237],[14.708,52.225],[14.704,52.214],[14.679,52.228],[14.667,52.245],[14.657,52.242],[14.617,52.26],[14.547,52.239],[14.558,52.225],[14.539,52.221],[14.423,52.234],[14.421,52.218],[14.396,52.211],[14.378,52.194],[14.362,52.168],[14.371,52.151],[14.313,52.141],[14.295,52.147],[14.281,52.141],[14.247,52.132],[14.242,52.125],[14.231,52.128],[14.204,52.121],[14.209,52.108],[14.202,52.102],[14.224,52.096],[14.206,52.086],[14.194,52.058],[14.166,52.058],[14.127,52.085],[14.118,52.071],[14.096,52.06],[13.96,52.036],[13.89,52.046],[13.872,52.042],[13.856,52.025],[13.854,52.024],[13.868,51.994],[13.858,51.989],[13.834,51.993],[13.808,52.007],[13.714,51.986],[13.719,51.953],[13.691,51.942],[13.67,51.942],[13.631,52.048],[13.604,52.048],[13.577,52.021],[13.577,51.978],[13.544,51.95],[13.517,51.948],[13.506,51.929],[13.483,51.916],[13.426,51.903],[13.408,51.885],[13.346,51.874],[13.331,51.862],[13.391,51.788],[13.384,51.781],[13.382,51.757],[13.362,51.761],[13.35,51.747],[13.277,51.76],[13.244,51.757],[13.223,51.763],[13.192,51.794],[13.189,51.753],[13.127,51.757],[13.108,51.802],[13.081,51.812],[13.086,51.858],[13.058,51.922],[12.992,51.958],[12.968,51.967],[12.965,51.957],[12.934,51.962],[12.931,51.972],[12.951,51.974],[12.825,52.022],[12.734,52.095],[12.73,52.115],[12.699,52.163],[12.724,52.166],[12.719,52.201],[12.713,52.217],[12.709,52.221],[12.623,52.24],[12.571,52.268],[12.576,52.26],[12.568,52.252],[12.536,52.247],[12.52,52.222],[12.542,52.199],[12.52,52.191],[12.495,52.199],[12.506,52.184],[12.491,52.172],[12.443,52.179],[12.435,52.196],[12.398,52.195],[12.347,52.211],[12.334,52.222],[12.31,52.225],[12.307,52.223],[12.214,52.199],[12.194,52.179],[12.229,52.14],[12.255,52.136],[12.273,52.123],[12.28,52.103],[12.294,52.091],[12.352,52.076],[12.426,52.079],[12.493,52.033],[12.498,52.013],[12.492,51.957],[12.463,51.922],[12.431,51.899],[12.454,51.876],[12.462,51.863],[12.458,51.855],[12.424,51.836],[12.341,51.817],[12.341,51.766],[12.325,51.74],[12.239,51.732],[12.207,51.761],[12.176,51.768],[12.166,51.763],[12.171,51.748],[12.161,51.724],[12.144,51.724],[12.069,51.69],[11.994,51.681],[11.962,51.689],[11.927,51.68],[11.947,51.659],[11.94,51.638],[11.948,51.625],[12.049,51.634],[12.093,51.624],[12.135,51.625],[12.137,51.602],[12.088,51.573],[12.062,51.568],[12.042,51.551],[12.07,51.505],[12.126,51.5],[12.181,51.463],[12.208,51.475],[12.222,51.467],[12.319,51.469],[12.311,51.481],[12.315,51.488],[12.344,51.491],[12.344,51.476],[12.362,51.446],[12.36,51.435],[12.324,51.42],[12.316,51.408],[12.33,51.362],[12.326,51.353],[12.28,51.342],[12.328,51.285],[12.315,51.274],[12.269,51.253],[12.232,51.247],[12.209,51.228],[12.203,51.237],[12.181,51.237],[12.17,51.234],[12.164,51.219],[12.123,51.219],[12.082,51.238],[12.011,51.243],[11.999,51.28],[11.978,51.296],[11.915,51.234],[11.859,51.214],[11.873,51.186],[11.899,51.169],[11.889,51.14],[11.856,51.125],[11.792,51.128],[11.781,51.132],[11.767,51.165],[11.773,51.194],[11.767,51.206],[11.697,51.21],[11.69,51.218],[11.687,51.264],[11.678,51.27],[11.619,51.28],[11.59,51.292],[11.561,51.272],[11.529,51.272],[11.501,51.284],[11.383,51.306],[11.389,51.32],[11.478,51.361],[11.496,51.419],[11.453,51.439],[11.474,51.467],[11.47,51.481],[11.426,51.518],[11.407,51.524],[11.355,51.521],[11.316,51.541],[11.3,51.541],[11.161,51.513],[11.179,51.499],[11.222,51.492],[11.128,51.452],[11.132,51.432],[11.123,51.408],[11.139,51.385],[11.163,51.381],[11.298,51.398],[11.327,51.408],[11.338,51.422],[11.35,51.415],[11.381,51.372],[11.38,51.361],[11.369,51.34],[11.369,51.31],[11.356,51.307],[11.339,51.28],[11.316,51.278],[11.261,51.256],[11.184,51.29],[11.13,51.297],[10.989,51.29],[10.983,51.285],[11.001,51.268],[10.941,51.241],[10.927,51.221],[10.967,51.192],[10.952,51.184],[10.916,51.182],[10.804,51.199],[10.727,51.219],[10.722,51.211],[10.695,51.207],[10.633,51.228],[10.596,51.209],[10.597,51.186],[10.585,51.18],[10.577,51.19],[10.55,51.189],[10.474,51.159],[10.422,51.155],[10.399,51.146],[10.395,51.134]],[[12.562,51.42],[12.569,51.431],[12.611,51.437],[12.638,51.467],[12.769,51.449],[12.913,51.441],[12.921,51.424],[12.898,51.416],[12.86,51.375],[12.822,51.365],[12.834,51.347],[12.887,51.344],[12.882,51.327],[12.856,51.312],[12.842,51.311],[12.786,51.335],[12.768,51.336],[12.741,51.323],[12.727,51.326],[12.721,51.333],[12.689,51.336],[12.687,51.357],[12.666,51.378],[12.574,51.387],[12.566,51.394],[12.562,51.42]],[[12.652,51.998],[12.655,52.012],[12.73,51.989],[12.714,51.974],[12.672,51.983],[12.662,51.999],[12.652,51.998]],[[13.704,51.903],[13.715,51.906],[13.737,51.907],[13.728,51.891],[13.704,51.903]],[[13.785,51.901],[13.786,51.916],[13.818,51.929],[13.835,51.912],[13.835,51.898],[13.785,51.901]],[[13.792,51.867],[13.825,51.878],[13.833,51.862],[13.827,51.857],[13.843,51.849],[13.84,51.836],[13.807,51.84],[13.792,51.867]],[[13.813,51.512],[13.827,51.546],[13.849,51.571],[13.923,51.589],[13.952,51.635],[14.009,51.66],[14.02,51.672],[14.02,51.688],[14.056,51.727],[14.038,51.79],[14.041,51.815],[14.054,51.825],[14.073,51.827],[14.084,51.875],[14.134,51.871],[14.153,51.864],[14.213,51.872],[14.218,51.875],[14.225,51.889],[14.223,51.904],[14.319,51.935],[14.38,51.932],[14.428,51.941],[14.452,51.963],[14.47,51.969],[14.494,51.955],[14.542,51.957],[14.531,51.951],[14.528,51.939],[14.552,51.938],[14.603,51.923],[14.563,51.893],[14.585,51.888],[14.593,51.877],[14.548,51.851],[14.542,51.824],[14.563,51.814],[14.556,51.793],[14.51,51.784],[14.51,51.78],[14.556,51.748],[14.575,51.75],[14.552,51.736],[14.511,51.74],[14.512,51.722],[14.537,51.711],[14.533,51.692],[14.583,51.68],[14.583,51.667],[14.566,51.666],[14.559,51.651],[14.486,51.651],[14.484,51.65],[14.479,51.643],[14.467,51.643],[14.462,51.641],[14.46,51.643],[14.35,51.642],[14.337,51.633],[14.338,51.626],[14.307,51.616],[14.274,51.613],[14.278,51.613],[14.283,51.603],[14.321,51.606],[14.332,51.581],[14.301,51.577],[14.309,51.545],[14.268,51.538],[14.266,51.577],[14.227,51.581],[14.235,51.61],[14.223,51.609],[14.208,51.613],[14.197,51.608],[14.188,51.59],[14.157,51.592],[14.136,51.572],[14.154,51.56],[14.184,51.574],[14.204,51.562],[14.194,51.543],[14.162,51.523],[14.139,51.525],[14.1,51.558],[14.096,51.571],[14.084,51.572],[14.069,51.612],[14.086,51.615],[14.085,51.622],[14.099,51.629],[14.1,51.634],[14.096,51.637],[14.054,51.642],[14.019,51.628],[13.972,51.557],[13.897,51.541],[13.888,51.498],[13.879,51.492],[13.826,51.481],[13.831,51.498],[13.813,51.512]],[[13.883,51.861],[13.906,51.863],[13.911,51.84],[13.89,51.839],[13.883,51.861]],[[13.892,51.814],[13.905,51.823],[13.919,51.819],[13.901,51.808],[13.892,51.814]],[[13.97,51.827],[13.972,51.836],[14.001,51.829],[13.986,51.822],[13.97,51.827]],[[13.983,51.098],[13.996,51.12],[14.011,51.12],[14.047,51.116],[14.06,51.104],[14.083,51.099],[14.093,51.105],[14.085,51.124],[14.135,51.125],[14.173,51.141],[14.215,51.127],[14.209,51.119],[14.214,51.111],[14.23,51.106],[14.298,51.124],[14.201,51.16],[14.234,51.17],[14.311,51.156],[14.33,51.144],[14.326,51.109],[14.274,51.088],[14.249,51.06],[14.212,51.054],[14.143,51.066],[14.114,51.059],[14.108,51.043],[14.054,51.035],[14.017,51.048],[14,51.045],[13.984,51.06],[13.997,51.079],[13.983,51.098]],[[13.998,51.736],[14.01,51.741],[14.029,51.737],[14.034,51.723],[14.015,51.717],[13.998,51.736]],[[14.327,51.052],[14.332,51.063],[14.383,51.13],[14.403,51.132],[14.42,51.121],[14.418,51.097],[14.44,51.079],[14.417,51.067],[14.412,51.052],[14.359,51.038],[14.334,51.045],[14.327,51.052]],[[14.367,52.12],[14.383,52.123],[14.416,52.115],[14.432,52.101],[14.418,52.093],[14.401,52.095],[14.367,52.12]],[[14.619,51.912],[14.662,51.919],[14.668,51.899],[14.629,51.892],[14.619,51.912]],[[14.682,51.981],[14.687,51.997],[14.715,51.997],[14.702,51.979],[14.682,51.981]]],[[[10.428,51.218],[10.449,51.203],[10.465,51.202],[10.477,51.205],[10.48,51.215],[10.445,51.23],[10.428,51.218]]],[[[10.708,51.345],[10.717,51.339],[10.746,51.333],[10.768,51.333],[10.792,51.346],[10.752,51.364],[10.708,51.355],[10.708,51.345]]],[[[10.857,51.334],[10.902,51.324],[10.917,51.311],[10.938,51.311],[10.991,51.32],[10.987,51.331],[10.967,51.345],[10.94,51.345],[10.902,51.359],[10.874,51.351],[10.857,51.334]]],[[[10.998,51.086],[10.999,51.074],[11.018,51.059],[11.028,51.057],[11.028,51.059],[11.02,51.06],[11.023,51.066],[11.041,51.065],[11.044,51.08],[11.081,51.074],[11.085,51.065],[11.091,51.068],[11.083,51.087],[10.998,51.086]]],[[[11.374,51.043],[11.38,51.034],[11.412,51.031],[11.456,51.044],[11.458,51.056],[11.442,51.073],[11.408,51.077],[11.379,51.061],[11.374,51.043]]],[[[11.742,51.977],[11.812,51.912],[11.853,51.909],[11.878,51.931],[11.908,51.927],[11.931,51.943],[11.92,51.965],[11.926,51.99],[11.965,51.999],[12.031,52.032],[12.024,52.049],[12.014,52.053],[11.91,52.071],[11.899,52.096],[11.879,52.091],[11.875,52.101],[11.888,52.112],[11.875,52.127],[11.853,52.134],[11.824,52.106],[11.77,52.074],[11.769,52.062],[11.788,52.06],[11.786,52.054],[11.751,52.033],[11.757,52.014],[11.78,52.021],[11.812,52.007],[11.8,51.997],[11.746,51.985],[11.742,51.977]]],[[[12.145,51.39],[12.152,51.375],[12.169,51.372],[12.18,51.35],[12.221,51.357],[12.247,51.376],[12.233,51.397],[12.196,51.392],[12.164,51.4],[12.145,51.39]]],[[[12.333,52.34],[12.342,52.337],[12.34,52.311],[12.368,52.304],[12.458,52.318],[12.472,52.332],[12.427,52.342],[12.424,52.351],[12.43,52.357],[12.418,52.359],[12.4,52.346],[12.341,52.344],[12.333,52.34]]],[[[12.456,52.263],[12.464,52.254],[12.458,52.242],[12.475,52.228],[12.496,52.231],[12.519,52.258],[12.54,52.254],[12.52,52.262],[12.456,52.263]]],[[[13.169,51.856],[13.181,51.842],[13.212,51.822],[13.228,51.838],[13.221,51.858],[13.232,51.869],[13.231,51.886],[13.218,51.891],[13.216,51.877],[13.169,51.869],[13.169,51.856]]]]}}],"metadata":{"generatedBy":"scripts/build-fief-flat.ts","input":"data/borrowed_hre_1715.geojson","year":1715,"minOverlapAreaM2":1000,"externalInputs":["data/hre_fiefs_flat_1715.geojson"],"externalRemovals":[{"cutName":"Electorate of Saxony","externalName":"Electorate of Brandenburg","overlapKm2":941.02},{"cutName":"Electorate of Saxony","externalName":"Electorate of Mainz","overlapKm2":46.14}],"borrowedFrom":[{"name":"Electorate of Saxony","year":1700,"file":"data/hre_1700.geojson","sourceRef":"Roller territories_manual: id=albertinischesSachsennach1635","reason":"1700 年・1715 年ともアウグスト強王（フリードリヒ・アウグスト 1 世）のザクセン選帝侯領で、領域は 1635 年のプラハ条約（ラウジッツ獲得）以降 1815 年まで安定している。1697 年のポーランド王位兼任は同君連合であり選帝侯領の領域を変えず、大北方戦争のスウェーデン占領（1706〜1707）も占領であって割譲ではない。"}],"source":"Territories of the Holy Roman Empire (Roller, ETH Zürich)","sourceUrl":"https://doi.org/10.3929/ethz-b-000472583","license":"CC BY-NC-SA 4.0","borderPrecision":"史料に基づく復元（概略。測量された境界ではない）"}}