{"type":"FeatureCollection","features":[{"type":"Feature","properties":{"NAME":"Archduchy of Austria","SUBJECTO":"Holy Roman Empire","PARTOF":"Holy Roman Empire","BORROWED_FROM":{"year":1500,"file":"data/hre_1500.geojson","sourceRef":"Roller territories_manual: id=Österreich"}},"geometry":{"type":"MultiPolygon","coordinates":[[[[13.253,47.985],[13.255,47.982],[13.379,47.983],[13.357,47.954],[13.307,47.964],[13.278,47.949],[13.279,47.941],[13.287,47.927],[13.28,47.923],[13.283,47.895],[13.271,47.891],[13.296,47.858],[13.29,47.824],[13.391,47.794],[13.451,47.804],[13.53,47.793],[13.536,47.776],[13.514,47.772],[13.465,47.786],[13.436,47.739],[13.55,47.714],[13.485,47.641],[13.522,47.62],[13.506,47.583],[13.48,47.569],[13.478,47.526],[13.59,47.466],[13.588,47.461],[13.61,47.465],[13.639,47.485],[13.638,47.53],[13.608,47.587],[13.606,47.629],[13.628,47.663],[13.653,47.67],[13.774,47.682],[13.862,47.678],[13.89,47.661],[13.917,47.601],[14.106,47.595],[14.195,47.569],[14.25,47.576],[14.319,47.619],[14.448,47.647],[14.482,47.676],[14.548,47.696],[14.626,47.767],[14.658,47.78],[14.66,47.822],[14.72,47.911],[14.716,47.928],[14.667,47.931],[14.653,47.943],[14.652,47.987],[14.678,48.013],[14.712,48.063],[14.752,48.077],[14.76,48.071],[14.747,48.043],[14.748,48.014],[14.759,48.002],[14.793,47.988],[14.808,47.964],[14.804,47.951],[14.749,47.906],[14.741,47.867],[14.748,47.859],[14.784,47.864],[14.847,47.89],[14.862,47.886],[14.882,47.865],[14.873,47.84],[14.85,47.83],[14.787,47.824],[14.744,47.781],[14.828,47.77],[14.89,47.798],[14.967,47.779],[14.994,47.798],[15.066,47.783],[15.1,47.803],[15.15,47.812],[15.191,47.803],[15.226,47.82],[15.247,47.816],[15.277,47.792],[15.3,47.789],[15.332,47.772],[15.376,47.77],[15.401,47.74],[15.511,47.716],[15.662,47.62],[15.718,47.616],[15.742,47.606],[15.782,47.558],[15.804,47.547],[15.897,47.531],[15.925,47.52],[15.959,47.49],[15.986,47.488],[16.052,47.504],[16.072,47.5],[16.088,47.491],[16.109,47.441],[16.126,47.425],[16.166,47.409],[16.24,47.422],[16.272,47.443],[16.279,47.48],[16.305,47.517],[16.312,47.562],[16.343,47.611],[16.318,47.704],[16.297,47.74],[16.305,47.769],[16.284,47.785],[16.284,47.796],[16.34,47.78],[16.35,47.79],[16.368,47.845],[16.398,47.869],[16.456,47.89],[16.478,47.891],[16.498,47.881],[16.532,47.844],[16.572,47.83],[16.641,47.883],[16.679,47.88],[16.684,47.908],[16.814,47.907],[16.827,47.927],[16.86,47.892],[16.889,47.881],[16.927,47.892],[16.937,47.905],[16.93,47.941],[16.971,47.934],[16.96,47.964],[16.912,48.001],[16.866,48.083],[16.867,48.093],[16.881,48.098],[16.845,48.135],[16.84,48.173],[16.786,48.239],[16.798,48.261],[16.789,48.299],[16.801,48.3],[16.788,48.35],[16.837,48.349],[16.865,48.395],[16.9,48.485],[16.938,48.523],[16.935,48.573],[16.908,48.609],[16.905,48.699],[16.89,48.724],[16.873,48.73],[16.822,48.72],[16.785,48.725],[16.764,48.738],[16.665,48.76],[16.638,48.782],[16.606,48.781],[16.558,48.804],[16.556,48.804],[16.551,48.796],[16.513,48.8],[16.478,48.793],[16.423,48.741],[16.402,48.738],[16.395,48.739],[16.384,48.731],[16.178,48.743],[16.083,48.746],[16.073,48.752],[15.995,48.779],[15.951,48.804],[15.96,48.821],[15.933,48.82],[15.93,48.834],[15.851,48.858],[15.837,48.877],[15.784,48.874],[15.752,48.852],[15.69,48.856],[15.621,48.894],[15.52,48.913],[15.474,48.947],[15.35,48.984],[15.301,48.98],[15.291,49.005],[15.271,48.989],[15.167,48.96],[15.16,48.963],[15.162,48.995],[15.138,49.011],[15.041,49.022],[15.01,49.01],[14.982,48.982],[14.979,48.967],[14.997,48.912],[14.968,48.884],[14.946,48.882],[14.919,48.891],[14.877,48.872],[14.862,48.815],[14.821,48.78],[14.805,48.729],[14.746,48.682],[14.74,48.659],[14.689,48.623],[14.705,48.586],[14.628,48.595],[14.49,48.626],[14.462,48.652],[14.429,48.635],[14.412,48.596],[14.166,48.602],[14.144,48.615],[14.058,48.612],[14.035,48.623],[14.061,48.67],[14.053,48.684],[14.01,48.709],[13.965,48.722],[13.918,48.76],[13.867,48.775],[13.85,48.772],[13.825,48.748],[13.815,48.732],[13.802,48.711],[13.801,48.71],[13.833,48.692],[13.814,48.683],[13.824,48.618],[13.802,48.574],[13.755,48.564],[13.744,48.528],[13.727,48.509],[13.861,48.427],[13.859,48.45],[13.911,48.454],[13.941,48.404],[13.956,48.417],[14,48.414],[14.029,48.378],[14.022,48.343],[14.071,48.318],[14.124,48.31],[14.19,48.331],[14.217,48.312],[14.268,48.306],[14.323,48.321],[14.337,48.296],[14.011,48.192],[13.881,48.131],[13.879,48.089],[13.837,48.064],[13.844,48.052],[13.792,48.003],[13.812,47.988],[13.815,47.954],[13.786,47.896],[13.792,47.822],[13.64,47.72],[13.603,47.732],[13.529,47.798],[13.536,47.84],[13.502,47.843],[13.476,47.872],[13.387,47.907],[13.395,47.922],[13.363,47.946],[13.381,47.986],[13.336,47.987],[13.359,48.018],[13.393,48.022],[13.381,48.033],[13.409,48.045],[13.383,48.051],[13.404,48.085],[13.416,48.09],[13.4,48.091],[13.369,48.083],[13.342,48.051],[13.291,48.034],[13.253,47.985]]],[[[13.477,48.109],[13.609,48.123],[13.612,48.171],[13.598,48.179],[13.609,48.188],[13.577,48.2],[13.596,48.213],[13.573,48.246],[13.552,48.234],[13.552,48.221],[13.536,48.201],[13.514,48.201],[13.51,48.213],[13.488,48.204],[13.48,48.188],[13.477,48.109]]],[[[13.486,48.503],[13.496,48.463],[13.597,48.304],[13.604,48.288],[13.602,48.263],[13.59,48.256],[13.616,48.264],[13.633,48.305],[13.65,48.296],[13.721,48.319],[13.71,48.325],[13.73,48.364],[13.686,48.407],[13.702,48.42],[13.686,48.447],[13.697,48.473],[13.696,48.472],[13.665,48.502],[13.623,48.475],[13.603,48.472],[13.579,48.475],[13.547,48.515],[13.519,48.535],[13.498,48.539],[13.486,48.503]]]]}},{"type":"Feature","properties":{"NAME":"Archbishopric of Mainz","SUBJECTO":"Holy Roman Empire","PARTOF":"Holy Roman Empire","BORROWED_FROM":{"year":1500,"file":"data/hre_1500.geojson","sourceRef":"Roller territories_manual: id=Kurmainz"}},"geometry":{"type":"MultiPolygon","coordinates":[[[[7.582,50.329],[7.586,50.309],[7.623,50.281],[7.651,50.316],[7.676,50.323],[7.714,50.313],[7.727,50.317],[7.725,50.333],[7.717,50.338],[7.674,50.343],[7.582,50.329]]],[[[7.689,49.996],[7.736,49.981],[7.824,49.974],[7.832,49.965],[7.814,49.938],[7.854,49.923],[7.892,49.916],[7.901,49.918],[7.903,49.932],[7.931,49.931],[7.949,49.927],[7.948,49.913],[7.96,49.911],[8.01,49.926],[8.036,49.942],[8.038,49.972],[8.017,49.975],[8.02,49.981],[8.091,50.004],[8.149,49.964],[8.137,49.939],[8.153,49.9],[8.169,49.899],[8.189,49.859],[8.234,49.865],[8.242,49.887],[8.293,49.878],[8.298,49.896],[8.318,49.908],[8.324,49.92],[8.313,49.985],[8.423,50.004],[8.469,50.027],[8.57,50.011],[8.592,50.025],[8.571,50.043],[8.523,50.067],[8.527,50.077],[8.55,50.084],[8.621,50.072],[8.616,50.093],[8.564,50.106],[8.566,50.114],[8.585,50.117],[8.595,50.131],[8.576,50.146],[8.581,50.156],[8.592,50.155],[8.601,50.182],[8.612,50.182],[8.647,50.17],[8.698,50.175],[8.747,50.165],[8.762,50.181],[8.76,50.21],[8.749,50.224],[8.723,50.215],[8.726,50.198],[8.702,50.198],[8.693,50.206],[8.669,50.202],[8.659,50.192],[8.634,50.202],[8.608,50.228],[8.557,50.225],[8.535,50.248],[8.524,50.244],[8.524,50.232],[8.509,50.221],[8.489,50.224],[8.475,50.243],[8.46,50.244],[8.448,50.236],[8.377,50.23],[8.302,50.179],[8.327,50.166],[8.304,50.136],[8.353,50.132],[8.373,50.142],[8.406,50.142],[8.417,50.14],[8.425,50.127],[8.402,50.098],[8.417,50.067],[8.357,50.029],[8.299,50.022],[8.28,50.037],[8.241,50.047],[8.171,50.042],[8.181,50.075],[8.156,50.084],[8.14,50.073],[8.11,50.099],[8.054,50.096],[8.042,50.078],[8.03,50.076],[8.014,50.078],[8.013,50.105],[7.995,50.113],[7.894,50.113],[7.833,50.105],[7.819,50.086],[7.74,50.068],[7.73,50.048],[7.77,50.023],[7.692,50.007],[7.689,49.996]],[[7.852,49.95],[7.881,49.952],[7.889,49.951],[7.879,49.939],[7.852,49.95]],[[8.469,50.139],[8.483,50.16],[8.515,50.165],[8.552,50.156],[8.529,50.112],[8.508,50.113],[8.471,50.125],[8.469,50.139]]],[[[7.727,50.292],[7.746,50.283],[7.761,50.292],[7.752,50.303],[7.731,50.303],[7.727,50.292]]],[[[8.37,49.687],[8.385,49.643],[8.402,49.636],[8.433,49.649],[8.528,49.646],[8.56,49.657],[8.633,49.646],[8.655,49.663],[8.714,49.669],[8.731,49.683],[8.723,49.714],[8.657,49.72],[8.666,49.733],[8.67,49.764],[8.637,49.772],[8.615,49.754],[8.565,49.744],[8.559,49.736],[8.568,49.713],[8.555,49.707],[8.508,49.708],[8.509,49.725],[8.503,49.727],[8.457,49.714],[8.42,49.718],[8.381,49.708],[8.37,49.687]]],[[[8.404,49.986],[8.42,49.976],[8.458,49.981],[8.45,49.998],[8.404,49.986]]],[[[8.454,49.741],[8.545,49.745],[8.57,49.753],[8.575,49.772],[8.558,49.815],[8.496,49.795],[8.482,49.762],[8.454,49.741]]],[[[8.524,49.579],[8.556,49.56],[8.546,49.534],[8.569,49.53],[8.62,49.566],[8.625,49.575],[8.611,49.608],[8.614,49.617],[8.574,49.632],[8.572,49.63],[8.562,49.604],[8.594,49.593],[8.524,49.579]]],[[[8.606,50.242],[8.625,50.237],[8.63,50.268],[8.606,50.268],[8.606,50.242]]],[[[8.626,50.367],[8.652,50.351],[8.66,50.361],[8.689,50.357],[8.705,50.363],[8.754,50.408],[8.754,50.426],[8.791,50.445],[8.792,50.458],[8.771,50.47],[8.737,50.468],[8.719,50.455],[8.715,50.441],[8.657,50.406],[8.666,50.392],[8.636,50.379],[8.626,50.367]]],[[[8.722,50.295],[8.724,50.284],[8.75,50.287],[8.78,50.328],[8.741,50.326],[8.722,50.295]]],[[[8.734,49.582],[8.74,49.555],[8.762,49.545],[8.802,49.543],[8.82,49.552],[8.823,49.562],[8.812,49.571],[8.809,49.588],[8.769,49.589],[8.767,49.583],[8.734,49.582]]],[[[8.752,49.24],[8.753,49.225],[8.78,49.218],[8.799,49.223],[8.813,49.241],[8.796,49.254],[8.752,49.24]]],[[[8.764,50.106],[8.786,50.092],[8.789,50.075],[8.832,50.093],[8.827,50.104],[8.815,50.101],[8.802,50.123],[8.79,50.13],[8.764,50.106]]],[[[8.769,49.674],[8.802,49.672],[8.828,49.659],[8.85,49.686],[8.921,49.667],[8.921,49.685],[8.908,49.692],[8.819,49.726],[8.776,49.699],[8.769,49.674]]],[[[8.801,50.862],[8.817,50.842],[8.818,50.82],[8.845,50.82],[8.839,50.865],[8.826,50.87],[8.827,50.897],[8.807,50.901],[8.801,50.862]]],[[[8.817,49.627],[8.835,49.608],[8.849,49.634],[8.829,49.644],[8.817,49.627]]],[[[8.819,50.123],[8.839,50.12],[8.874,50.133],[8.883,50.128],[8.866,50.123],[8.873,50.104],[8.866,50.095],[8.824,50.066],[8.827,50.039],[8.873,50.038],[8.9,50.063],[8.921,50.063],[8.936,50.061],[8.955,50.037],[9.009,50.032],[9.019,49.971],[9.015,49.958],[8.979,49.932],[8.982,49.924],[9.037,49.877],[9.054,49.886],[9.063,49.88],[9.078,49.859],[9.071,49.835],[9.076,49.826],[9.119,49.823],[9.103,49.788],[9.113,49.77],[9.164,49.764],[9.181,49.754],[9.205,49.715],[9.206,49.708],[9.196,49.704],[9.164,49.7],[9.112,49.731],[9.088,49.701],[9.11,49.693],[9.129,49.677],[9.123,49.66],[9.138,49.649],[9.138,49.613],[9.159,49.615],[9.163,49.609],[9.163,49.581],[9.095,49.575],[9.086,49.53],[9.089,49.521],[9.11,49.511],[9.127,49.515],[9.167,49.506],[9.192,49.513],[9.22,49.501],[9.188,49.466],[9.187,49.453],[9.214,49.447],[9.249,49.487],[9.288,49.504],[9.376,49.497],[9.449,49.508],[9.476,49.52],[9.468,49.54],[9.477,49.553],[9.471,49.561],[9.456,49.567],[9.439,49.561],[9.437,49.565],[9.411,49.559],[9.409,49.569],[9.407,49.587],[9.404,49.587],[9.38,49.602],[9.401,49.626],[9.401,49.629],[9.406,49.631],[9.427,49.655],[9.417,49.657],[9.418,49.672],[9.402,49.681],[9.358,49.682],[9.345,49.72],[9.345,49.746],[9.307,49.748],[9.282,49.769],[9.25,49.762],[9.221,49.775],[9.221,49.786],[9.234,49.796],[9.282,49.798],[9.308,49.823],[9.276,49.844],[9.251,49.83],[9.235,49.832],[9.216,49.857],[9.244,49.879],[9.25,49.896],[9.267,49.904],[9.281,49.899],[9.296,49.863],[9.337,49.853],[9.36,49.861],[9.367,49.891],[9.406,49.896],[9.42,49.909],[9.441,49.907],[9.452,49.876],[9.469,49.876],[9.473,49.881],[9.447,49.903],[9.473,49.926],[9.466,49.94],[9.478,50.01],[9.55,49.999],[9.628,50.043],[9.652,50.07],[9.654,50.075],[9.603,50.069],[9.597,50.106],[9.59,50.108],[9.541,50.142],[9.491,50.129],[9.407,50.123],[9.38,50.172],[9.364,50.187],[9.34,50.185],[9.33,50.171],[9.285,50.168],[9.237,50.15],[9.228,50.123],[9.214,50.12],[9.151,50.135],[9.145,50.14],[9.159,50.16],[9.122,50.17],[8.924,50.148],[8.878,50.158],[8.825,50.143],[8.819,50.123]],[[9.172,49.898],[9.177,49.913],[9.206,49.906],[9.212,49.892],[9.172,49.898]],[[9.241,49.931],[9.246,49.948],[9.269,49.941],[9.268,49.925],[9.241,49.931]],[[9.248,49.595],[9.261,49.646],[9.294,49.655],[9.351,49.634],[9.331,49.61],[9.293,49.615],[9.338,49.542],[9.309,49.533],[9.275,49.568],[9.248,49.595]]],[[[8.832,49.52],[8.853,49.518],[8.873,49.538],[8.907,49.529],[8.894,49.55],[8.866,49.567],[8.832,49.546],[8.832,49.52]]],[[[8.833,49.492],[8.84,49.474],[8.881,49.437],[8.903,49.442],[8.913,49.46],[8.949,49.459],[8.946,49.489],[8.924,49.516],[8.894,49.503],[8.9,49.486],[8.883,49.483],[8.865,49.506],[8.833,49.492]]],[[[8.85,49.604],[8.872,49.599],[8.873,49.611],[8.865,49.62],[8.85,49.604]]],[[[8.858,50.891],[8.907,50.874],[8.917,50.877],[8.934,50.889],[8.938,50.911],[8.92,50.913],[8.902,50.911],[8.877,50.921],[8.862,50.91],[8.858,50.891]]],[[[8.875,50.828],[8.889,50.807],[8.91,50.805],[8.893,50.787],[8.898,50.778],[8.958,50.778],[8.968,50.785],[8.971,50.823],[8.99,50.829],[9.012,50.826],[9.041,50.84],[9.108,50.848],[9.125,50.863],[9.162,50.861],[9.157,50.89],[9.136,50.922],[9.059,50.933],[9.081,50.903],[9.066,50.885],[9.04,50.883],[9.03,50.897],[9.011,50.899],[9.009,50.92],[9,50.927],[8.985,50.927],[8.967,50.915],[8.961,50.899],[8.987,50.887],[8.989,50.879],[8.957,50.857],[8.934,50.865],[8.904,50.859],[8.897,50.84],[8.875,50.828]]],[[[9.096,51.304],[9.16,51.288],[9.149,51.267],[9.18,51.263],[9.185,51.277],[9.212,51.285],[9.222,51.339],[9.197,51.339],[9.196,51.328],[9.113,51.323],[9.099,51.315],[9.096,51.304]]],[[[9.181,50.811],[9.244,50.811],[9.228,50.842],[9.191,50.836],[9.181,50.811]]],[[[9.184,49.338],[9.208,49.314],[9.197,49.287],[9.236,49.298],[9.235,49.256],[9.3,49.279],[9.304,49.284],[9.282,49.309],[9.281,49.323],[9.307,49.374],[9.227,49.374],[9.226,49.342],[9.184,49.338]]],[[[9.188,51.241],[9.209,51.233],[9.233,51.236],[9.238,51.243],[9.235,51.27],[9.224,51.273],[9.206,51.267],[9.189,51.253],[9.188,51.241]]],[[[9.209,51.138],[9.214,51.132],[9.244,51.128],[9.287,51.137],[9.308,51.181],[9.307,51.191],[9.266,51.186],[9.26,51.169],[9.209,51.15],[9.209,51.138]]],[[[9.243,50.258],[9.249,50.234],[9.325,50.231],[9.366,50.21],[9.407,50.215],[9.423,50.184],[9.466,50.172],[9.498,50.179],[9.502,50.195],[9.541,50.211],[9.571,50.216],[9.576,50.232],[9.582,50.23],[9.584,50.258],[9.498,50.283],[9.467,50.31],[9.419,50.328],[9.407,50.342],[9.39,50.322],[9.399,50.314],[9.449,50.284],[9.43,50.281],[9.425,50.274],[9.403,50.276],[9.376,50.271],[9.397,50.262],[9.382,50.239],[9.351,50.243],[9.337,50.275],[9.337,50.28],[9.315,50.282],[9.287,50.263],[9.243,50.258]]],[[[9.306,49.442],[9.324,49.416],[9.336,49.412],[9.378,49.423],[9.404,49.418],[9.431,49.402],[9.458,49.429],[9.463,49.449],[9.43,49.451],[9.417,49.467],[9.403,49.47],[9.366,49.47],[9.326,49.465],[9.306,49.442]]],[[[9.33,49.77],[9.351,49.747],[9.377,49.754],[9.357,49.774],[9.33,49.77]]],[[[9.34,49.258],[9.373,49.251],[9.382,49.293],[9.372,49.3],[9.358,49.3],[9.354,49.273],[9.34,49.258]]],[[[9.378,49.781],[9.396,49.758],[9.432,49.768],[9.43,49.795],[9.378,49.781]]],[[[9.381,49.726],[9.384,49.709],[9.41,49.708],[9.443,49.694],[9.458,49.67],[9.491,49.666],[9.53,49.642],[9.601,49.629],[9.614,49.617],[9.62,49.603],[9.658,49.621],[9.617,49.69],[9.641,49.699],[9.644,49.708],[9.638,49.708],[9.621,49.695],[9.588,49.719],[9.534,49.716],[9.504,49.735],[9.485,49.721],[9.456,49.718],[9.413,49.736],[9.388,49.736],[9.381,49.726]]],[[[9.487,49.451],[9.532,49.423],[9.533,49.376],[9.57,49.362],[9.568,49.323],[9.579,49.322],[9.585,49.335],[9.645,49.317],[9.654,49.343],[9.704,49.359],[9.683,49.361],[9.684,49.37],[9.683,49.371],[9.684,49.371],[9.686,49.389],[9.71,49.42],[9.715,49.447],[9.667,49.45],[9.647,49.432],[9.641,49.406],[9.613,49.391],[9.584,49.441],[9.56,49.447],[9.575,49.48],[9.548,49.505],[9.523,49.486],[9.493,49.479],[9.487,49.451]]],[[[9.676,49.693],[9.732,49.688],[9.724,49.689],[9.715,49.691],[9.712,49.702],[9.685,49.707],[9.677,49.707],[9.676,49.693]]],[[[9.688,49.537],[9.708,49.531],[9.766,49.536],[9.757,49.566],[9.735,49.561],[9.752,49.547],[9.726,49.537],[9.688,49.539],[9.688,49.537]]],[[[9.901,51.43],[9.949,51.431],[9.978,51.406],[9.916,51.353],[9.937,51.323],[9.957,51.325],[9.999,51.284],[10.033,51.3],[10.061,51.296],[10.067,51.287],[10.053,51.274],[10.102,51.231],[10.1,51.222],[10.112,51.213],[10.178,51.208],[10.204,51.181],[10.238,51.178],[10.236,51.172],[10.285,51.175],[10.322,51.152],[10.35,51.154],[10.372,51.123],[10.423,51.147],[10.426,51.155],[10.416,51.153],[10.305,51.193],[10.293,51.201],[10.294,51.229],[10.318,51.227],[10.332,51.201],[10.355,51.19],[10.396,51.207],[10.447,51.213],[10.512,51.244],[10.481,51.255],[10.42,51.244],[10.326,51.262],[10.31,51.256],[10.329,51.266],[10.35,51.261],[10.405,51.272],[10.432,51.298],[10.446,51.304],[10.483,51.302],[10.511,51.322],[10.493,51.339],[10.438,51.339],[10.435,51.352],[10.44,51.361],[10.516,51.358],[10.52,51.367],[10.517,51.375],[10.504,51.384],[10.466,51.456],[10.427,51.462],[10.467,51.486],[10.471,51.496],[10.467,51.498],[10.461,51.526],[10.438,51.542],[10.375,51.539],[10.364,51.556],[10.376,51.589],[10.435,51.591],[10.45,51.586],[10.427,51.608],[10.358,51.6],[10.349,51.619],[10.312,51.63],[10.301,51.66],[10.245,51.66],[10.222,51.696],[10.198,51.695],[10.158,51.72],[10.155,51.74],[10.106,51.742],[10.101,51.722],[10.135,51.71],[10.134,51.702],[10.077,51.703],[10.07,51.676],[10.088,51.667],[10.076,51.663],[10.079,51.65],[10.11,51.645],[10.116,51.633],[10.094,51.624],[10.091,51.608],[10.096,51.595],[10.134,51.583],[10.118,51.558],[10.135,51.538],[10.134,51.528],[10.102,51.533],[10.085,51.527],[10.08,51.516],[10.034,51.529],[10.007,51.504],[9.95,51.486],[9.901,51.43]]],[[[10.722,51.174],[10.726,51.163],[10.752,51.142],[10.788,51.14],[10.787,51.153],[10.763,51.185],[10.751,51.185],[10.722,51.174]]],[[[10.756,50.892],[10.763,50.871],[10.786,50.868],[10.819,50.889],[10.821,50.921],[10.839,50.919],[10.838,50.937],[10.817,50.947],[10.798,50.945],[10.794,50.919],[10.756,50.892]]],[[[10.766,51.033],[10.767,51.021],[10.79,51.021],[10.79,51.001],[10.798,50.995],[10.809,51],[10.889,50.995],[10.913,51.012],[10.87,51.028],[10.87,51.037],[10.795,51.04],[10.766,51.033]]],[[[10.815,51.124],[10.838,51.095],[10.91,51.089],[10.95,51.101],[10.951,51.114],[10.94,51.114],[10.937,51.134],[10.816,51.135],[10.815,51.124]]],[[[10.843,51.059],[10.869,51.053],[10.869,51.058],[10.844,51.068],[10.843,51.059]]],[[[10.937,50.945],[10.943,50.937],[11.002,50.932],[11,50.926],[11.023,50.929],[11,50.948],[10.94,50.947],[10.937,50.945]]],[[[10.968,51.079],[10.988,51.036],[11.025,51.031],[11.02,51.06],[11.044,51.08],[11.085,51.065],[11.128,51.082],[11.133,51.058],[11.174,51.069],[11.159,51.077],[11.01,51.107],[11.002,51.075],[10.993,51.061],[10.985,51.062],[10.973,51.086],[10.968,51.079]]],[[[10.983,50.882],[10.999,50.881],[11.007,50.895],[11.021,50.895],[11.035,50.906],[11.049,50.896],[11.055,50.896],[11.055,50.91],[10.983,50.904],[10.983,50.882]]],[[[11.028,51.154],[11.061,51.148],[11.061,51.15],[11.08,51.149],[11.114,51.182],[11.112,51.189],[11.088,51.212],[11.06,51.209],[11.059,51.195],[11.035,51.184],[11.028,51.154]]],[[[11.061,50.887],[11.068,50.882],[11.08,50.855],[11.147,50.833],[11.195,50.828],[11.221,50.839],[11.216,50.857],[11.204,50.869],[11.201,50.87],[11.176,50.867],[11.121,50.899],[11.061,50.887]]],[[[11.108,51.035],[11.151,51.004],[11.188,51.022],[11.155,51.037],[11.108,51.035]]],[[[11.121,50.913],[11.176,50.896],[11.191,50.91],[11.153,50.919],[11.121,50.913]]],[[[11.17,50.94],[11.188,50.948],[11.172,50.956],[11.17,50.94]]],[[[11.178,51.076],[11.184,51.065],[11.219,51.076],[11.221,51.094],[11.197,51.094],[11.178,51.076]]],[[[11.18,51.067],[11.206,51.036],[11.195,51.021],[11.237,51.007],[11.226,50.997],[11.237,50.988],[11.268,50.99],[11.254,51.017],[11.214,51.027],[11.219,51.043],[11.209,51.053],[11.184,51.065],[11.18,51.067]]],[[[11.189,51.127],[11.2,51.114],[11.216,51.114],[11.217,51.139],[11.191,51.14],[11.189,51.127]]],[[[11.221,50.95],[11.253,50.889],[11.25,50.884],[11.272,50.877],[11.281,50.904],[11.258,50.926],[11.267,50.943],[11.234,50.956],[11.221,50.95]]],[[[11.439,50.976],[11.459,50.936],[11.465,50.93],[11.545,50.928],[11.542,50.947],[11.517,50.946],[11.504,50.956],[11.519,50.972],[11.487,51.001],[11.439,50.976]]]]}},{"type":"Feature","properties":{"NAME":"Electorate of the Palatinate","SUBJECTO":"Holy Roman Empire","PARTOF":"Holy Roman Empire","BORROWED_FROM":{"year":1500,"file":"data/hre_1500.geojson","sourceRef":"Roller territories_manual: id=Kurpfalz"}},"geometry":{"type":"MultiPolygon","coordinates":[[[[7.655,50.041],[7.684,50.013],[7.724,50.009],[7.793,50.036],[7.774,50.078],[7.816,50.11],[7.823,50.126],[7.816,50.138],[7.796,50.145],[7.758,50.144],[7.735,50.131],[7.703,50.142],[7.684,50.119],[7.7,50.11],[7.703,50.086],[7.658,50.057],[7.655,50.041]]],[[[7.867,49.665],[7.868,49.651],[7.881,49.639],[8.007,49.703],[8.044,49.7],[8.054,49.71],[8.075,49.71],[8.092,49.695],[8.09,49.692],[8.116,49.687],[8.084,49.679],[8.083,49.677],[8.11,49.672],[8.101,49.642],[8.139,49.629],[8.162,49.655],[8.191,49.658],[8.203,49.653],[8.207,49.653],[8.209,49.65],[8.234,49.639],[8.255,49.609],[8.269,49.616],[8.28,49.636],[8.282,49.662],[8.26,49.696],[8.265,49.705],[8.314,49.699],[8.337,49.722],[8.327,49.723],[8.203,49.713],[8.197,49.722],[8.216,49.73],[8.259,49.732],[8.253,49.749],[8.28,49.757],[8.364,49.747],[8.397,49.701],[8.445,49.673],[8.399,49.664],[8.413,49.639],[8.508,49.625],[8.512,49.62],[8.573,49.634],[8.562,49.604],[8.594,49.593],[8.495,49.573],[8.446,49.59],[8.424,49.581],[8.423,49.553],[8.432,49.542],[8.448,49.492],[8.488,49.472],[8.488,49.453],[8.506,49.453],[8.493,49.417],[8.534,49.416],[8.54,49.403],[8.534,49.391],[8.519,49.378],[8.494,49.373],[8.479,49.356],[8.49,49.323],[8.509,49.3],[8.6,49.274],[8.683,49.278],[8.754,49.292],[8.762,49.282],[8.813,49.269],[8.824,49.25],[8.821,49.224],[8.785,49.204],[8.806,49.199],[8.86,49.204],[8.87,49.192],[8.869,49.185],[8.82,49.168],[8.818,49.152],[8.825,49.135],[8.875,49.097],[8.893,49.061],[8.933,49.059],[8.94,49.067],[8.963,49.098],[8.955,49.132],[8.975,49.147],[8.889,49.15],[8.892,49.185],[8.935,49.184],[8.979,49.167],[9.008,49.173],[8.998,49.191],[8.928,49.206],[8.886,49.233],[8.857,49.299],[8.931,49.29],[8.986,49.264],[9.035,49.275],[9.022,49.287],[9.028,49.293],[9.195,49.284],[9.206,49.287],[9.196,49.299],[9.199,49.323],[9.281,49.314],[9.301,49.343],[9.283,49.361],[9.241,49.368],[9.207,49.384],[9.186,49.38],[9.183,49.391],[9.152,49.389],[9.081,49.411],[9.074,49.439],[9.05,49.443],[9.032,49.478],[9.021,49.48],[8.952,49.464],[8.914,49.472],[8.896,49.457],[8.878,49.421],[8.834,49.398],[8.779,49.391],[8.773,49.398],[8.783,49.43],[8.815,49.463],[8.781,49.524],[8.846,49.515],[8.853,49.56],[8.843,49.592],[8.852,49.603],[8.873,49.584],[8.885,49.588],[8.874,49.609],[8.843,49.635],[8.798,49.639],[8.732,49.696],[8.667,49.68],[8.671,49.674],[8.662,49.664],[8.626,49.664],[8.617,49.667],[8.62,49.683],[8.61,49.69],[8.576,49.697],[8.569,49.72],[8.541,49.716],[8.546,49.681],[8.54,49.675],[8.486,49.677],[8.488,49.706],[8.438,49.709],[8.422,49.719],[8.396,49.778],[8.336,49.783],[8.335,49.784],[8.276,49.787],[8.251,49.781],[8.248,49.778],[8.245,49.779],[8.243,49.779],[8.241,49.781],[8.226,49.787],[8.234,49.787],[8.227,49.794],[8.168,49.795],[8.166,49.814],[8.127,49.818],[8.114,49.81],[8.113,49.792],[8.102,49.783],[8.094,49.787],[8.096,49.814],[8.057,49.824],[8.055,49.824],[8.05,49.801],[8.045,49.803],[8.068,49.791],[8.048,49.753],[8.004,49.743],[7.986,49.728],[7.966,49.739],[7.988,49.753],[7.923,49.759],[7.911,49.753],[7.908,49.711],[7.9,49.702],[7.908,49.686],[7.87,49.668],[7.867,49.665]],[[8.154,49.773],[8.217,49.777],[8.233,49.763],[8.185,49.752],[8.155,49.76],[8.154,49.773]],[[8.548,49.464],[8.556,49.507],[8.596,49.508],[8.617,49.492],[8.618,49.459],[8.548,49.464]],[[8.591,49.613],[8.619,49.619],[8.642,49.603],[8.676,49.603],[8.683,49.595],[8.677,49.586],[8.629,49.587],[8.612,49.606],[8.591,49.613]],[[8.668,49.561],[8.675,49.568],[8.715,49.563],[8.722,49.545],[8.685,49.549],[8.668,49.561]],[[8.695,49.603],[8.704,49.613],[8.717,49.612],[8.766,49.594],[8.777,49.584],[8.775,49.577],[8.758,49.571],[8.695,49.603]]],[[[7.874,49.099],[7.901,49.08],[7.947,49.065],[7.973,49.09],[7.947,49.107],[7.911,49.113],[7.874,49.099]]],[[[7.901,49.154],[7.959,49.151],[7.962,49.134],[7.985,49.124],[8.071,49.105],[8.086,49.104],[8.102,49.12],[8.141,49.131],[8.153,49.125],[8.154,49.105],[8.193,49.094],[8.248,49.1],[8.271,49.095],[8.282,49.097],[8.284,49.114],[8.254,49.12],[8.245,49.13],[8.244,49.152],[8.258,49.164],[8.255,49.194],[8.276,49.208],[8.286,49.203],[8.284,49.174],[8.32,49.172],[8.336,49.16],[8.324,49.138],[8.341,49.124],[8.347,49.104],[8.339,49.087],[8.312,49.087],[8.321,49.079],[8.301,49.067],[8.304,49.044],[8.263,49.006],[8.262,48.993],[8.297,48.984],[8.327,48.966],[8.349,48.966],[8.372,48.975],[8.379,48.989],[8.374,49.003],[8.348,48.999],[8.35,49.009],[8.367,49.063],[8.399,49.079],[8.406,49.11],[8.402,49.152],[8.423,49.16],[8.437,49.205],[8.431,49.228],[8.41,49.248],[8.397,49.249],[8.364,49.217],[8.337,49.23],[8.32,49.265],[8.254,49.264],[8.234,49.251],[8.249,49.223],[8.24,49.215],[8.214,49.219],[8.196,49.208],[8.208,49.194],[8.194,49.169],[8.146,49.179],[8.067,49.166],[8.036,49.146],[8.013,49.152],[8.001,49.174],[7.929,49.181],[7.915,49.178],[7.901,49.154]]],[[[7.907,49.281],[7.949,49.244],[7.981,49.232],[8.001,49.203],[8.061,49.212],[8.042,49.223],[8.018,49.268],[7.989,49.294],[7.944,49.294],[7.907,49.281]]],[[[7.98,49.97],[7.988,49.961],[8.021,49.961],[8.032,49.946],[8.034,49.925],[8.07,49.904],[8.14,49.908],[8.128,49.945],[8.139,49.963],[8.133,49.973],[8.088,49.98],[8.066,50.002],[8,49.984],[7.98,49.97]]],[[[8.071,49.19],[8.155,49.203],[8.156,49.217],[8.108,49.217],[8.073,49.203],[8.071,49.19]]],[[[8.145,48.914],[8.148,48.899],[8.206,48.88],[8.242,48.881],[8.244,48.904],[8.263,48.924],[8.249,48.94],[8.232,48.945],[8.207,48.944],[8.163,48.926],[8.145,48.914]]],[[[8.195,49.842],[8.208,49.807],[8.244,49.803],[8.224,49.822],[8.271,49.805],[8.284,49.811],[8.29,49.824],[8.304,49.83],[8.316,49.824],[8.33,49.83],[8.331,49.816],[8.34,49.812],[8.381,49.817],[8.385,49.823],[8.375,49.854],[8.346,49.883],[8.337,49.884],[8.278,49.861],[8.246,49.873],[8.231,49.863],[8.269,49.845],[8.276,49.834],[8.279,49.833],[8.261,49.823],[8.235,49.829],[8.237,49.838],[8.22,49.845],[8.195,49.842]]],[[[8.379,49.288],[8.396,49.265],[8.437,49.278],[8.432,49.293],[8.379,49.288]]],[[[8.523,49.071],[8.544,49.039],[8.582,49.029],[8.621,49.063],[8.585,49.065],[8.574,49.08],[8.55,49.091],[8.523,49.071]]],[[[8.634,49.07],[8.644,49.064],[8.664,49.065],[8.717,49.094],[8.708,49.108],[8.672,49.121],[8.658,49.107],[8.636,49.105],[8.634,49.07]]],[[[8.684,49.011],[8.718,49.006],[8.719,48.996],[8.732,48.988],[8.749,48.99],[8.749,49.011],[8.785,49.054],[8.759,49.067],[8.731,49.065],[8.732,49.053],[8.684,49.011]]],[[[8.82,49.747],[8.855,49.75],[8.876,49.737],[8.905,49.734],[8.88,49.768],[8.918,49.772],[8.921,49.797],[8.885,49.792],[8.839,49.802],[8.827,49.794],[8.82,49.747]]],[[[8.976,49.247],[8.977,49.223],[9.038,49.203],[9.04,49.218],[9.089,49.222],[9.087,49.237],[9.072,49.242],[8.976,49.247]]],[[[9.051,49.102],[9.086,49.094],[9.113,49.109],[9.091,49.125],[9.061,49.128],[9.051,49.102]]],[[[9.051,49.275],[9.064,49.257],[9.093,49.26],[9.086,49.272],[9.051,49.275]]],[[[9.485,49.37],[9.526,49.369],[9.591,49.349],[9.607,49.365],[9.604,49.386],[9.674,49.384],[9.692,49.394],[9.68,49.425],[9.588,49.424],[9.526,49.453],[9.507,49.448],[9.509,49.434],[9.544,49.42],[9.529,49.406],[9.51,49.406],[9.512,49.391],[9.485,49.381],[9.485,49.37]]]]}},{"type":"Feature","properties":{"NAME":"Archbishopric of Trier","SUBJECTO":"Holy Roman Empire","PARTOF":"Holy Roman Empire","BORROWED_FROM":{"year":1500,"file":"data/hre_1500.geojson","sourceRef":"Roller territories_manual: id=Kurtrier"}},"geometry":{"type":"MultiPolygon","coordinates":[[[[6.221,50.28],[6.276,50.274],[6.293,50.29],[6.372,50.297],[6.398,50.32],[6.367,50.387],[6.369,50.405],[6.365,50.408],[6.276,50.358],[6.265,50.325],[6.279,50.306],[6.266,50.312],[6.25,50.286],[6.221,50.28]]],[[[6.377,49.54],[6.395,49.524],[6.398,49.536],[6.378,49.54],[6.377,49.54]]],[[[6.384,49.563],[6.422,49.549],[6.4,49.543],[6.413,49.537],[6.404,49.514],[6.406,49.512],[6.439,49.51],[6.449,49.496],[6.466,49.499],[6.51,49.521],[6.518,49.546],[6.545,49.567],[6.559,49.576],[6.578,49.561],[6.595,49.563],[6.597,49.547],[6.627,49.543],[6.602,49.518],[6.606,49.517],[6.6,49.508],[6.595,49.509],[6.587,49.495],[6.562,49.496],[6.607,49.467],[6.609,49.464],[6.627,49.454],[6.649,49.408],[6.682,49.414],[6.688,49.417],[6.674,49.431],[6.667,49.431],[6.668,49.436],[6.659,49.445],[6.68,49.45],[6.716,49.467],[6.777,49.448],[6.84,49.465],[6.85,49.481],[6.89,49.479],[6.901,49.495],[6.837,49.524],[6.82,49.523],[6.803,49.503],[6.792,49.504],[6.784,49.555],[6.85,49.541],[6.856,49.555],[6.84,49.581],[6.893,49.575],[6.9,49.598],[6.978,49.632],[6.976,49.652],[6.981,49.656],[6.973,49.664],[7.068,49.704],[7.065,49.709],[6.975,49.681],[6.977,49.683],[6.973,49.681],[6.954,49.689],[6.974,49.715],[6.978,49.715],[6.902,49.732],[6.898,49.745],[7.023,49.779],[7.052,49.768],[7.093,49.73],[7.124,49.729],[7.153,49.743],[7.168,49.782],[7.173,49.784],[7.152,49.79],[7.206,49.824],[7.224,49.807],[7.246,49.817],[7.229,49.835],[7.227,49.835],[7.228,49.836],[7.211,49.854],[7.163,49.857],[7.108,49.919],[7.057,49.942],[6.961,49.959],[6.963,49.972],[6.988,49.989],[6.992,50.019],[6.982,50.043],[7.019,50.047],[7.02,50.061],[7.056,50.061],[7.076,50.073],[7.093,50.071],[7.125,50.043],[7.124,50.027],[7.14,49.978],[7.163,49.978],[7.165,49.99],[7.241,49.953],[7.265,49.955],[7.268,49.957],[7.271,49.96],[7.276,49.972],[7.276,49.977],[7.253,49.984],[7.273,50.018],[7.27,50.025],[7.241,50.044],[7.263,50.039],[7.249,50.062],[7.203,50.105],[7.193,50.131],[7.154,50.146],[7.149,50.163],[7.159,50.167],[7.196,50.143],[7.229,50.135],[7.238,50.111],[7.284,50.111],[7.353,50.146],[7.375,50.2],[7.461,50.229],[7.465,50.214],[7.434,50.2],[7.451,50.136],[7.476,50.134],[7.486,50.172],[7.495,50.171],[7.531,50.154],[7.531,50.144],[7.511,50.132],[7.533,50.083],[7.552,50.075],[7.587,50.08],[7.601,50.068],[7.6,50.05],[7.608,50.044],[7.657,50.027],[7.674,50.031],[7.689,50.052],[7.709,50.055],[7.738,50.082],[7.704,50.118],[7.684,50.124],[7.558,50.097],[7.55,50.105],[7.549,50.126],[7.56,50.138],[7.599,50.151],[7.684,50.159],[7.687,50.208],[7.628,50.225],[7.619,50.263],[7.607,50.271],[7.549,50.273],[7.547,50.291],[7.658,50.334],[7.695,50.36],[7.846,50.369],[7.864,50.389],[7.845,50.398],[7.845,50.406],[7.906,50.428],[7.942,50.419],[8.025,50.43],[8.034,50.448],[7.97,50.451],[8.006,50.482],[7.961,50.522],[7.953,50.552],[7.93,50.567],[7.938,50.588],[7.957,50.592],[7.924,50.618],[7.899,50.625],[7.881,50.639],[7.792,50.61],[7.794,50.604],[7.768,50.578],[7.773,50.549],[7.76,50.543],[7.713,50.545],[7.684,50.574],[7.599,50.532],[7.531,50.54],[7.513,50.536],[7.494,50.497],[7.454,50.466],[7.451,50.431],[7.47,50.412],[7.489,50.4],[7.49,50.384],[7.487,50.371],[7.451,50.364],[7.425,50.368],[7.418,50.392],[7.396,50.387],[7.345,50.431],[7.285,50.436],[7.228,50.412],[7.189,50.365],[7.163,50.384],[7.136,50.384],[7.153,50.361],[7.132,50.341],[7.079,50.323],[7.039,50.285],[7.047,50.232],[7.006,50.217],[6.997,50.219],[6.984,50.273],[6.9,50.275],[6.901,50.286],[6.914,50.292],[6.911,50.319],[6.917,50.327],[6.917,50.33],[6.854,50.327],[6.83,50.363],[6.8,50.363],[6.811,50.381],[6.828,50.402],[6.812,50.4],[6.808,50.422],[6.799,50.429],[6.765,50.428],[6.753,50.412],[6.746,50.399],[6.751,50.382],[6.786,50.362],[6.813,50.335],[6.844,50.321],[6.811,50.269],[6.793,50.253],[6.773,50.253],[6.772,50.267],[6.76,50.277],[6.721,50.285],[6.721,50.293],[6.781,50.315],[6.77,50.335],[6.753,50.342],[6.711,50.342],[6.662,50.37],[6.64,50.374],[6.626,50.366],[6.611,50.304],[6.642,50.295],[6.657,50.321],[6.674,50.317],[6.66,50.291],[6.702,50.273],[6.704,50.243],[6.75,50.242],[6.747,50.233],[6.729,50.229],[6.739,50.218],[6.725,50.207],[6.721,50.156],[6.688,50.151],[6.659,50.132],[6.656,50.123],[6.676,50.107],[6.675,50.106],[6.718,50.098],[6.756,50.118],[6.775,50.116],[6.787,50.104],[6.785,50.093],[6.784,50.092],[6.808,50.066],[6.761,50.062],[6.758,50.048],[6.756,50.048],[6.758,50.031],[6.67,49.997],[6.675,49.96],[6.71,49.941],[6.72,49.941],[6.751,49.945],[6.754,49.965],[6.802,49.969],[6.802,49.992],[6.839,49.978],[6.845,49.959],[6.826,49.932],[6.835,49.924],[6.802,49.894],[6.792,49.892],[6.788,49.891],[6.787,49.892],[6.723,49.882],[6.69,49.857],[6.646,49.859],[6.62,49.884],[6.606,49.877],[6.604,49.895],[6.603,49.896],[6.603,49.899],[6.543,49.904],[6.553,49.885],[6.522,49.866],[6.504,49.851],[6.497,49.837],[6.498,49.835],[6.527,49.842],[6.536,49.836],[6.544,49.842],[6.558,49.836],[6.586,49.682],[6.526,49.669],[6.519,49.661],[6.524,49.643],[6.507,49.632],[6.488,49.627],[6.499,49.618],[6.512,49.608],[6.521,49.609],[6.52,49.601],[6.519,49.598],[6.485,49.579],[6.47,49.555],[6.461,49.557],[6.44,49.547],[6.443,49.562],[6.45,49.56],[6.454,49.566],[6.453,49.566],[6.455,49.568],[6.469,49.589],[6.408,49.585],[6.403,49.58],[6.406,49.568],[6.391,49.569],[6.384,49.563]],[[6.595,49.508],[6.661,49.494],[6.654,49.48],[6.585,49.491],[6.595,49.508]],[[6.559,49.646],[6.586,49.68],[6.609,49.661],[6.61,49.661],[6.616,49.655],[6.665,49.614],[6.645,49.611],[6.642,49.608],[6.636,49.609],[6.625,49.607],[6.62,49.612],[6.612,49.613],[6.595,49.632],[6.572,49.643],[6.559,49.646]],[[6.588,49.8],[6.588,49.812],[6.615,49.815],[6.615,49.802],[6.605,49.796],[6.588,49.8]],[[6.591,49.836],[6.615,49.847],[6.62,49.833],[6.609,49.826],[6.591,49.836]],[[6.636,49.687],[6.645,49.731],[6.658,49.732],[6.672,49.713],[6.712,49.721],[6.722,49.696],[6.714,49.687],[6.636,49.687]],[[6.691,50.322],[6.732,50.323],[6.734,50.316],[6.693,50.3],[6.691,50.322]],[[6.704,49.619],[6.705,49.654],[6.721,49.659],[6.742,49.646],[6.777,49.652],[6.784,49.634],[6.746,49.619],[6.71,49.616],[6.704,49.619]],[[6.784,49.576],[6.794,49.598],[6.793,49.623],[6.812,49.621],[6.822,49.594],[6.794,49.574],[6.784,49.576]],[[6.812,50.119],[6.866,50.123],[6.898,50.103],[6.905,50.078],[6.885,50.083],[6.844,50.038],[6.854,50.026],[6.84,50.028],[6.819,50.039],[6.812,50.119]],[[6.991,49.902],[7.043,49.914],[7.069,49.9],[7.08,49.89],[7.073,49.878],[7.083,49.863],[7.083,49.838],[7.076,49.832],[7.032,49.834],[7.025,49.855],[6.992,49.87],[6.997,49.886],[6.991,49.902]],[[7.21,50.19],[7.217,50.2],[7.227,50.195],[7.227,50.181],[7.21,50.19]],[[7.264,50.36],[7.285,50.363],[7.314,50.356],[7.311,50.348],[7.27,50.342],[7.264,50.36]],[[7.33,50.212],[7.337,50.227],[7.358,50.243],[7.371,50.243],[7.365,50.21],[7.33,50.212]],[[7.347,50.4],[7.361,50.408],[7.382,50.397],[7.36,50.381],[7.347,50.4]],[[7.465,50.335],[7.497,50.346],[7.554,50.326],[7.503,50.306],[7.469,50.317],[7.465,50.335]],[[7.566,50.447],[7.567,50.455],[7.607,50.462],[7.616,50.479],[7.661,50.498],[7.679,50.514],[7.705,50.507],[7.7,50.498],[7.708,50.461],[7.702,50.456],[7.664,50.469],[7.665,50.454],[7.587,50.431],[7.566,50.447]],[[7.631,50.365],[7.649,50.385],[7.67,50.377],[7.659,50.35],[7.631,50.365]]],[[[6.389,50.091],[6.397,50.069],[6.416,50.06],[6.421,50.06],[6.445,50.051],[6.448,50.09],[6.433,50.121],[6.457,50.165],[6.432,50.183],[6.411,50.171],[6.417,50.162],[6.404,50.155],[6.429,50.104],[6.389,50.091]]],[[[6.558,49.914],[6.604,49.91],[6.605,49.924],[6.62,49.947],[6.619,49.95],[6.56,49.943],[6.56,49.938],[6.563,49.918],[6.558,49.914]]],[[[6.729,49.4],[6.733,49.4],[6.767,49.404],[6.77,49.412],[6.759,49.423],[6.745,49.42],[6.729,49.4]]],[[[6.924,49.49],[6.94,49.497],[6.981,49.476],[7.048,49.495],[7.059,49.502],[7.051,49.523],[7.041,49.526],[7.023,49.52],[7.017,49.508],[6.937,49.499],[6.925,49.493],[6.924,49.49]]],[[[7.057,50.548],[7.094,50.529],[7.091,50.504],[7.148,50.513],[7.071,50.567],[7.062,50.549],[7.057,50.548]]],[[[7.071,49.355],[7.101,49.344],[7.112,49.347],[7.113,49.366],[7.073,49.376],[7.071,49.355]]],[[[7.077,50.433],[7.082,50.431],[7.099,50.399],[7.13,50.388],[7.179,50.417],[7.168,50.421],[7.127,50.42],[7.117,50.445],[7.118,50.446],[7.077,50.433]]],[[[7.114,49.535],[7.116,49.532],[7.146,49.529],[7.136,49.54],[7.114,49.535]]],[[[7.126,49.46],[7.138,49.457],[7.204,49.456],[7.21,49.506],[7.246,49.522],[7.244,49.539],[7.187,49.538],[7.159,49.514],[7.151,49.523],[7.136,49.502],[7.126,49.46]]],[[[7.23,50.509],[7.262,50.527],[7.252,50.532],[7.236,50.529],[7.23,50.509]]],[[[7.307,50.517],[7.352,50.468],[7.387,50.458],[7.336,50.518],[7.307,50.517]]],[[[7.325,50.555],[7.355,50.514],[7.395,50.518],[7.389,50.525],[7.342,50.536],[7.333,50.556],[7.325,50.555]]],[[[7.439,50.711],[7.441,50.699],[7.465,50.684],[7.471,50.67],[7.475,50.668],[7.473,50.664],[7.477,50.654],[7.513,50.653],[7.508,50.686],[7.53,50.708],[7.516,50.735],[7.474,50.722],[7.439,50.711]]],[[[8.036,50.401],[8.055,50.384],[8.117,50.377],[8.16,50.354],[8.233,50.335],[8.26,50.374],[8.228,50.385],[8.224,50.4],[8.245,50.405],[8.278,50.4],[8.292,50.42],[8.22,50.441],[8.198,50.459],[8.18,50.458],[8.167,50.42],[8.117,50.419],[8.092,50.439],[8.048,50.442],[8.036,50.401]],[[8.15,50.413],[8.172,50.421],[8.178,50.409],[8.162,50.407],[8.15,50.413]]]]}}],"metadata":{"generatedBy":"scripts/build-fief-flat.ts","input":"data/borrowed_hre_1492.geojson","year":1492,"minOverlapAreaM2":1000,"externalInputs":["data/hre_fiefs_flat_1492.geojson"],"externalRemovals":[{"cutName":"Archduchy of Austria","externalName":"County of Schaunberg","overlapKm2":2260.13},{"cutName":"Archduchy of Austria","externalName":"Moravia","overlapKm2":311.73},{"cutName":"Archduchy of Austria","externalName":"Prince-Archbishopric of Salzburg","overlapKm2":367.9},{"cutName":"Archduchy of Austria","externalName":"Prince-Bishopric of Passau","overlapKm2":76.85},{"cutName":"Archbishopric of Mainz","externalName":"County of Castell","overlapKm2":0.25},{"cutName":"Archbishopric of Mainz","externalName":"County of Hohenlohe","overlapKm2":46.3},{"cutName":"Archbishopric of Mainz","externalName":"County of Hohnstein","overlapKm2":47.13},{"cutName":"Archbishopric of Mainz","externalName":"Erfurt Territory","overlapKm2":447.23},{"cutName":"Archbishopric of Mainz","externalName":"Prince-Bishopric of Worms","overlapKm2":17.18},{"cutName":"Archbishopric of Mainz","externalName":"Prince-Bishopric of Würzburg","overlapKm2":201.99},{"cutName":"Archbishopric of Mainz","externalName":"Princely Abbey of Fulda","overlapKm2":15.73},{"cutName":"Electorate of the Palatinate","externalName":"County of Falkenstein","overlapKm2":15.4},{"cutName":"Electorate of the Palatinate","externalName":"County of Leiningen","overlapKm2":26.84},{"cutName":"Electorate of the Palatinate","externalName":"Prince-Bishopric of Worms","overlapKm2":59.28},{"cutName":"Archbishopric of Trier","externalName":"County of Leiningen","overlapKm2":8.13},{"cutName":"Archbishopric of Trier","externalName":"County of Sponheim","overlapKm2":58.25},{"cutName":"Archbishopric of Trier","externalName":"Duchy of Berg","overlapKm2":5.31},{"cutName":"Archbishopric of Trier","externalName":"Duchy of Lorraine","overlapKm2":56.41},{"cutName":"Archbishopric of Trier","externalName":"Duchy of Luxembourg","overlapKm2":360.89},{"cutName":"Archbishopric of Trier","externalName":"Electorate of Cologne","overlapKm2":299.47},{"cutName":"Archduchy of Austria","externalName":"County of Schaunberg","overlapKm2":0.08},{"cutName":"Archduchy of Austria","externalName":"Moravia","overlapKm2":0.07},{"cutName":"Archduchy of Austria","externalName":"Prince-Archbishopric of Salzburg","overlapKm2":0.09},{"cutName":"Archduchy of Austria","externalName":"Prince-Bishopric of Passau","overlapKm2":0.15},{"cutName":"Archbishopric of Mainz","externalName":"County of Hohenlohe","overlapKm2":0},{"cutName":"Archbishopric of Mainz","externalName":"County of Hohnstein","overlapKm2":0.03},{"cutName":"Archbishopric of Mainz","externalName":"Erfurt Territory","overlapKm2":0.29},{"cutName":"Archbishopric of Mainz","externalName":"Prince-Bishopric of Worms","overlapKm2":0.1},{"cutName":"Archbishopric of Mainz","externalName":"Prince-Bishopric of Würzburg","overlapKm2":0.19},{"cutName":"Archbishopric of Mainz","externalName":"Princely Abbey of Fulda","overlapKm2":0.07},{"cutName":"Electorate of the Palatinate","externalName":"County of Falkenstein","overlapKm2":0.02},{"cutName":"Electorate of the Palatinate","externalName":"County of Leiningen","overlapKm2":0.2},{"cutName":"Electorate of the Palatinate","externalName":"Prince-Bishopric of Worms","overlapKm2":0.03},{"cutName":"Archbishopric of Trier","externalName":"County of Sponheim","overlapKm2":5.52},{"cutName":"Archbishopric of Trier","externalName":"Duchy of Berg","overlapKm2":0.05},{"cutName":"Archbishopric of Trier","externalName":"Duchy of Lorraine","overlapKm2":0.23},{"cutName":"Archbishopric of Trier","externalName":"Duchy of Luxembourg","overlapKm2":0.56},{"cutName":"Archbishopric of Trier","externalName":"Electorate of Cologne","overlapKm2":0.31}],"borrowedFrom":[{"name":"Archduchy of Austria","year":1500,"file":"data/hre_1500.geojson","sourceRef":"Roller territories_manual: id=Österreich","reason":"1490 年のチロル継承・1493 年の世襲領統合を経たハプスブルク家の世襲領で、1492 年と 1500 年で上・下オーストリアの領域に有意な変動が無い。1453 年の大公位昇格は称号の変更であって領域の断絶ではない。"},{"name":"Archbishopric of Mainz","year":1500,"file":"data/hre_1500.geojson","sourceRef":"Roller territories_manual: id=Kurmainz","reason":"1492 年・1500 年とも同一のマインツ大司教領であり、帝国改革期の 8 年間に地図縮尺上有意な領域割譲や政体の断絶を確認できない。"},{"name":"Electorate of the Palatinate","year":1500,"file":"data/hre_1500.geojson","sourceRef":"Roller territories_manual: id=Kurpfalz","reason":"1492 年・1500 年ともヴィッテルスバッハ家の同一選帝侯領で、領域を変えるランツフート継承戦争（1504 年）より前の隣接スナップショットである。"},{"name":"Archbishopric of Trier","year":1500,"file":"data/hre_1500.geojson","sourceRef":"Roller territories_manual: id=Kurtrier","reason":"1492 年・1500 年とも同一のトリーア大司教領であり、8 年間に地図縮尺上有意な領域割譲や政体の断絶を確認できない。"}],"source":"Territories of the Holy Roman Empire (Roller, ETH Zürich)","sourceUrl":"https://doi.org/10.3929/ethz-b-000472583","license":"CC BY-NC-SA 4.0","borderPrecision":"史料に基づく復元（概略。測量された境界ではない）"}}