{"type":"FeatureCollection","features":[{"type":"Feature","properties":{"NAME":"Electorate of Saxony","SUBJECTO":"Holy Roman Empire","PARTOF":"Holy Roman Empire","BORROWED_FROM":{"year":1700,"file":"data/hre_1700.geojson","sourceRef":"Roller territories_manual: id=albertinischesSachsennach1635"}},"geometry":{"type":"MultiPolygon","coordinates":[[[[10.48,51.215],[10.477,51.205],[10.465,51.202],[10.449,51.203],[10.428,51.218],[10.445,51.23],[10.48,51.215]]],[[[11.458,51.056],[11.456,51.044],[11.412,51.031],[11.38,51.034],[11.374,51.043],[11.379,51.061],[11.408,51.077],[11.442,51.073],[11.458,51.056]]],[[[11.083,51.087],[11.092,51.066],[11.053,51.053],[11.018,51.059],[10.999,51.074],[10.998,51.086],[11.083,51.087]]],[[[10.987,51.331],[10.991,51.32],[10.938,51.311],[10.917,51.311],[10.902,51.324],[10.857,51.334],[10.874,51.351],[10.902,51.359],[10.94,51.345],[10.967,51.345],[10.987,51.331]]],[[[10.792,51.346],[10.768,51.333],[10.746,51.333],[10.717,51.339],[10.708,51.345],[10.708,51.355],[10.752,51.364],[10.792,51.346]]],[[[12.201,50.714],[12.201,50.706],[12.172,50.706],[12.152,50.724],[12.118,50.735],[12.091,50.719],[12.073,50.727],[12.05,50.711],[12.017,50.706],[12.015,50.695],[11.978,50.683],[11.976,50.669],[11.95,50.657],[11.9,50.653],[11.88,50.664],[11.81,50.637],[11.747,50.58],[11.731,50.581],[11.694,50.604],[11.661,50.597],[11.662,50.582],[11.63,50.577],[11.601,50.561],[11.582,50.583],[11.562,50.583],[11.533,50.568],[11.521,50.576],[11.492,50.608],[11.497,50.664],[11.472,50.684],[11.473,50.706],[11.497,50.716],[11.509,50.718],[11.538,50.702],[11.587,50.713],[11.589,50.732],[11.554,50.732],[11.559,50.754],[11.693,50.789],[11.699,50.807],[11.715,50.814],[11.787,50.827],[11.871,50.896],[11.966,50.881],[12.045,50.845],[12.064,50.844],[12.091,50.858],[12.109,50.852],[12.127,50.827],[12.29,50.808],[12.312,50.82],[12.31,50.863],[12.383,50.867],[12.404,50.88],[12.417,50.873],[12.44,50.88],[12.548,50.95],[12.615,50.949],[12.625,50.935],[12.65,50.934],[12.668,50.938],[12.674,50.956],[12.637,50.985],[12.564,50.982],[12.536,50.997],[12.528,51.007],[12.535,51.008],[12.52,51.016],[12.526,51.025],[12.557,51.032],[12.52,51.088],[12.486,51.097],[12.48,51.123],[12.377,51.122],[12.358,51.126],[12.356,51.134],[12.344,51.123],[12.273,51.119],[12.238,51.136],[12.226,51.157],[12.192,51.153],[12.187,51.086],[12.179,51.079],[12.117,51.076],[12.102,51.051],[12.06,51.049],[12.047,51.026],[11.988,51.009],[11.96,50.983],[11.95,50.988],[11.939,51.019],[11.924,51.022],[11.912,51.018],[11.907,51.006],[11.91,50.987],[11.875,50.985],[11.866,51.001],[11.829,51.004],[11.78,50.988],[11.74,50.96],[11.646,50.953],[11.602,50.953],[11.478,50.996],[11.495,51.017],[11.537,51.006],[11.563,51.016],[11.551,51.047],[11.586,51.065],[11.591,51.082],[11.575,51.089],[11.537,51.078],[11.524,51.083],[11.509,51.107],[11.492,51.106],[11.487,51.086],[11.478,51.08],[11.425,51.103],[11.458,51.126],[11.452,51.159],[11.463,51.186],[11.447,51.188],[11.363,51.174],[11.358,51.169],[11.371,51.154],[11.332,51.133],[11.305,51.134],[11.266,51.15],[11.197,51.114],[11.171,51.115],[11.162,51.151],[11.124,51.162],[11.118,51.153],[11.125,51.146],[11.118,51.141],[11.051,51.128],[11.02,51.133],[10.999,51.129],[10.878,51.068],[10.799,51.072],[10.793,51.086],[10.816,51.109],[10.814,51.119],[10.791,51.126],[10.76,51.118],[10.748,51.1],[10.698,51.099],[10.625,51.063],[10.53,51.093],[10.449,51.095],[10.395,51.134],[10.399,51.146],[10.422,51.155],[10.474,51.159],[10.55,51.189],[10.577,51.19],[10.585,51.18],[10.597,51.186],[10.596,51.209],[10.633,51.228],[10.695,51.207],[10.722,51.211],[10.727,51.219],[10.804,51.199],[10.916,51.182],[10.952,51.184],[10.967,51.192],[10.927,51.221],[10.941,51.241],[11.001,51.268],[10.983,51.285],[10.989,51.29],[11.13,51.297],[11.184,51.29],[11.261,51.256],[11.316,51.278],[11.339,51.28],[11.356,51.307],[11.369,51.31],[11.369,51.34],[11.38,51.361],[11.381,51.372],[11.35,51.415],[11.338,51.422],[11.327,51.408],[11.298,51.398],[11.163,51.381],[11.139,51.385],[11.123,51.408],[11.132,51.432],[11.128,51.452],[11.222,51.492],[11.179,51.499],[11.161,51.513],[11.3,51.541],[11.316,51.541],[11.355,51.521],[11.407,51.524],[11.426,51.518],[11.47,51.481],[11.474,51.467],[11.453,51.439],[11.496,51.419],[11.478,51.361],[11.389,51.32],[11.383,51.306],[11.501,51.284],[11.529,51.272],[11.561,51.272],[11.59,51.292],[11.619,51.28],[11.678,51.27],[11.687,51.264],[11.69,51.218],[11.697,51.21],[11.767,51.206],[11.773,51.194],[11.767,51.165],[11.781,51.132],[11.792,51.128],[11.856,51.125],[11.889,51.14],[11.899,51.169],[11.873,51.186],[11.859,51.214],[11.915,51.234],[11.978,51.296],[11.999,51.28],[12.011,51.243],[12.082,51.238],[12.123,51.219],[12.164,51.219],[12.17,51.234],[12.181,51.237],[12.203,51.237],[12.209,51.228],[12.232,51.247],[12.269,51.253],[12.315,51.274],[12.328,51.285],[12.28,51.342],[12.326,51.353],[12.33,51.362],[12.316,51.408],[12.324,51.42],[12.36,51.435],[12.362,51.446],[12.344,51.476],[12.344,51.491],[12.315,51.488],[12.311,51.481],[12.319,51.469],[12.222,51.467],[12.208,51.475],[12.181,51.463],[12.126,51.5],[12.07,51.505],[12.042,51.551],[12.062,51.568],[12.088,51.573],[12.137,51.602],[12.135,51.625],[12.093,51.624],[12.049,51.634],[11.948,51.625],[11.94,51.638],[11.947,51.659],[11.927,51.68],[11.962,51.689],[11.994,51.681],[12.069,51.69],[12.144,51.724],[12.161,51.724],[12.171,51.748],[12.166,51.763],[12.176,51.768],[12.207,51.761],[12.239,51.732],[12.325,51.74],[12.341,51.766],[12.341,51.817],[12.424,51.836],[12.458,51.855],[12.462,51.863],[12.454,51.876],[12.431,51.899],[12.463,51.922],[12.492,51.957],[12.498,52.013],[12.493,52.033],[12.426,52.079],[12.352,52.076],[12.294,52.091],[12.28,52.103],[12.273,52.123],[12.255,52.136],[12.229,52.14],[12.194,52.179],[12.214,52.199],[12.307,52.223],[12.337,52.249],[12.383,52.263],[12.381,52.284],[12.369,52.296],[12.336,52.303],[12.329,52.316],[12.324,52.335],[12.341,52.344],[12.4,52.346],[12.418,52.359],[12.442,52.355],[12.447,52.342],[12.567,52.339],[12.584,52.342],[12.624,52.37],[12.704,52.4],[12.718,52.391],[12.723,52.354],[12.696,52.357],[12.688,52.349],[12.729,52.31],[12.688,52.275],[12.67,52.273],[12.677,52.252],[12.713,52.217],[12.719,52.201],[12.724,52.166],[12.699,52.163],[12.73,52.115],[12.734,52.095],[12.825,52.022],[12.992,51.958],[13.058,51.922],[13.086,51.858],[13.081,51.812],[13.108,51.802],[13.127,51.757],[13.189,51.753],[13.192,51.794],[13.223,51.763],[13.244,51.757],[13.277,51.76],[13.35,51.747],[13.362,51.761],[13.382,51.757],[13.384,51.781],[13.391,51.788],[13.331,51.862],[13.346,51.874],[13.408,51.885],[13.426,51.903],[13.483,51.916],[13.506,51.929],[13.517,51.948],[13.544,51.95],[13.577,51.978],[13.577,52.021],[13.604,52.048],[13.631,52.048],[13.67,51.942],[13.691,51.942],[13.719,51.953],[13.714,51.986],[13.809,52.007],[13.856,52.025],[13.877,52.048],[13.96,52.036],[14.096,52.06],[14.118,52.071],[14.138,52.103],[14.281,52.141],[14.34,52.166],[14.346,52.205],[14.415,52.239],[14.475,52.256],[14.547,52.256],[14.641,52.279],[14.695,52.264],[14.743,52.233],[14.737,52.179],[14.707,52.158],[14.702,52.143],[14.708,52.128],[14.81,52.092],[14.922,52.072],[14.925,52.046],[14.944,52.01],[14.933,51.984],[14.962,51.981],[14.971,51.909],[14.985,51.888],[14.965,51.872],[14.921,51.878],[14.913,51.866],[14.948,51.829],[14.954,51.813],[14.946,51.792],[14.949,51.772],[14.98,51.758],[15.002,51.764],[15.008,51.78],[14.992,51.822],[14.998,51.843],[15.05,51.868],[15.077,51.9],[15.109,51.914],[15.176,51.894],[15.213,51.856],[15.246,51.852],[15.248,51.822],[15.309,51.68],[15.304,51.649],[15.233,51.634],[15.226,51.613],[15.194,51.612],[15.165,51.586],[15.139,51.579],[15.052,51.58],[15.036,51.584],[15.021,51.605],[14.968,51.602],[14.947,51.609],[14.898,51.575],[14.846,51.554],[14.746,51.546],[14.749,51.514],[14.734,51.496],[14.719,51.456],[14.722,51.435],[14.742,51.435],[14.816,51.459],[14.853,51.445],[14.918,51.462],[15.139,51.474],[15.142,51.494],[15.165,51.529],[15.204,51.527],[15.232,51.499],[15.286,51.494],[15.333,51.507],[15.347,51.53],[15.383,51.546],[15.41,51.538],[15.409,51.496],[15.384,51.479],[15.418,51.457],[15.43,51.39],[15.431,51.377],[15.413,51.35],[15.415,51.278],[15.374,51.235],[15.304,51.188],[15.291,51.166],[15.292,51.144],[15.27,51.118],[15.268,51.098],[15.281,51.089],[15.366,51.111],[15.379,51.101],[15.363,51.057],[15.374,51.018],[15.352,51.013],[15.302,50.958],[15.256,50.967],[15.252,50.984],[15.263,51.006],[15.238,51.015],[15.235,51.035],[15.131,51.026],[15.109,51.043],[15.088,51.029],[15.064,51.033],[15.04,51.024],[15.029,51.011],[15.04,50.994],[15.032,50.968],[14.982,50.946],[14.988,50.925],[14.924,50.877],[14.845,50.882],[14.802,50.848],[14.697,50.849],[14.608,50.862],[14.616,50.889],[14.587,50.9],[14.542,50.936],[14.519,50.969],[14.461,51.014],[14.292,51.012],[14.306,50.988],[14.364,50.969],[14.387,50.952],[14.38,50.915],[14.323,50.924],[14.258,50.889],[14.107,50.861],[14.096,50.851],[13.989,50.855],[13.955,50.839],[13.942,50.803],[13.926,50.792],[13.86,50.777],[13.799,50.78],[13.702,50.77],[13.641,50.741],[13.597,50.709],[13.514,50.713],[13.441,50.705],[13.429,50.695],[13.425,50.668],[13.354,50.659],[13.252,50.577],[13.178,50.572],[13.164,50.55],[13.077,50.501],[13.069,50.489],[12.958,50.435],[12.81,50.396],[12.646,50.395],[12.61,50.376],[12.523,50.354],[12.52,50.311],[12.471,50.304],[12.437,50.287],[12.421,50.268],[12.415,50.24],[12.431,50.185],[12.338,50.183],[12.324,50.234],[12.285,50.265],[12.235,50.279],[12.207,50.298],[12.116,50.309],[12.047,50.339],[12.022,50.359],[11.948,50.394],[11.895,50.445],[11.944,50.465],[11.97,50.489],[11.969,50.503],[11.932,50.534],[11.93,50.547],[11.947,50.56],[11.959,50.594],[11.993,50.603],[11.999,50.639],[12.021,50.642],[12.032,50.6],[12.072,50.572],[12.075,50.547],[12.091,50.543],[12.157,50.558],[12.146,50.588],[12.118,50.618],[12.13,50.624],[12.231,50.611],[12.253,50.631],[12.324,50.631],[12.368,50.669],[12.354,50.685],[12.317,50.679],[12.269,50.682],[12.252,50.69],[12.248,50.723],[12.227,50.731],[12.208,50.735],[12.201,50.714]],[[13.813,51.512],[13.831,51.498],[13.826,51.481],[13.879,51.492],[13.888,51.498],[13.897,51.541],[13.972,51.557],[14.019,51.628],[14.054,51.642],[14.096,51.637],[14.117,51.62],[14.157,51.628],[14.223,51.609],[14.307,51.616],[14.338,51.626],[14.337,51.633],[14.35,51.642],[14.479,51.643],[14.485,51.652],[14.472,51.659],[14.476,51.689],[14.464,51.699],[14.51,51.78],[14.518,51.844],[14.528,51.867],[14.603,51.923],[14.552,51.938],[14.486,51.942],[14.426,51.929],[14.317,51.922],[14.295,51.918],[14.213,51.872],[14.149,51.864],[14.131,51.855],[14.111,51.831],[14.054,51.825],[14.041,51.815],[14.038,51.79],[14.056,51.727],[14.02,51.688],[14.02,51.672],[14.009,51.66],[13.952,51.635],[13.923,51.589],[13.849,51.571],[13.827,51.546],[13.813,51.512]],[[14.011,51.12],[13.996,51.12],[13.983,51.098],[13.997,51.079],[13.984,51.06],[14,51.045],[14.017,51.048],[14.054,51.035],[14.108,51.043],[14.114,51.059],[14.143,51.066],[14.212,51.054],[14.249,51.06],[14.274,51.088],[14.326,51.109],[14.33,51.144],[14.311,51.156],[14.234,51.17],[14.201,51.16],[14.298,51.124],[14.23,51.106],[14.214,51.111],[14.209,51.119],[14.215,51.127],[14.173,51.141],[14.135,51.125],[14.085,51.124],[14.093,51.105],[14.083,51.099],[14.06,51.104],[14.047,51.116],[14.011,51.12]],[[12.887,51.344],[12.834,51.347],[12.822,51.365],[12.86,51.375],[12.898,51.416],[12.921,51.424],[12.913,51.441],[12.769,51.449],[12.638,51.467],[12.611,51.437],[12.569,51.431],[12.562,51.42],[12.566,51.394],[12.574,51.387],[12.666,51.378],[12.687,51.357],[12.689,51.336],[12.721,51.333],[12.727,51.326],[12.741,51.323],[12.768,51.336],[12.786,51.335],[12.842,51.311],[12.856,51.312],[12.882,51.327],[12.887,51.344]],[[14.42,51.121],[14.403,51.132],[14.383,51.13],[14.332,51.063],[14.327,51.052],[14.334,51.045],[14.359,51.038],[14.412,51.052],[14.417,51.067],[14.44,51.079],[14.418,51.097],[14.42,51.121]],[[14.154,51.56],[14.127,51.578],[14.095,51.574],[14.1,51.558],[14.139,51.525],[14.162,51.523],[14.194,51.543],[14.204,51.562],[14.184,51.574],[14.154,51.56]]],[[[12.247,51.376],[12.221,51.357],[12.18,51.35],[12.169,51.372],[12.152,51.375],[12.145,51.39],[12.164,51.4],[12.196,51.392],[12.233,51.397],[12.247,51.376]]],[[[13.218,51.891],[13.246,51.88],[13.251,51.86],[13.212,51.822],[13.181,51.842],[13.169,51.856],[13.169,51.869],[13.216,51.877],[13.218,51.891]]],[[[11.746,51.985],[11.8,51.997],[11.812,52.007],[11.78,52.021],[11.757,52.014],[11.751,52.033],[11.786,52.054],[11.788,52.06],[11.769,52.062],[11.77,52.074],[11.824,52.106],[11.853,52.134],[11.875,52.127],[11.888,52.112],[11.875,52.101],[11.879,52.091],[11.899,52.096],[11.91,52.071],[12.014,52.053],[12.024,52.049],[12.031,52.032],[11.965,51.999],[11.926,51.99],[11.92,51.965],[11.931,51.943],[11.908,51.927],[11.878,51.931],[11.853,51.909],[11.812,51.912],[11.742,51.977],[11.746,51.985]]],[[[12.979,52.308],[13.003,52.315],[13.039,52.303],[13.051,52.289],[13.042,52.247],[13,52.24],[12.979,52.222],[12.947,52.24],[12.957,52.254],[12.944,52.28],[12.976,52.288],[12.983,52.295],[12.979,52.308]]]]}},{"type":"Feature","properties":{"NAME":"Electorate of the Palatinate","SUBJECTO":"Holy Roman Empire","PARTOF":"Holy Roman Empire","BORROWED_FROM":{"year":1700,"file":"data/hre_1700.geojson","sourceRef":"Roller territories_manual: id=Kurpfalz"}},"geometry":{"type":"MultiPolygon","coordinates":[[[[8.488,49.706],[8.486,49.677],[8.54,49.675],[8.546,49.681],[8.541,49.716],[8.569,49.72],[8.576,49.697],[8.61,49.69],[8.62,49.683],[8.617,49.667],[8.626,49.664],[8.662,49.664],[8.671,49.674],[8.667,49.68],[8.732,49.696],[8.798,49.639],[8.843,49.635],[8.874,49.609],[8.885,49.588],[8.873,49.584],[8.852,49.603],[8.843,49.592],[8.853,49.56],[8.846,49.515],[8.781,49.524],[8.815,49.463],[8.783,49.43],[8.773,49.398],[8.779,49.391],[8.834,49.398],[8.878,49.421],[8.896,49.457],[8.914,49.472],[8.952,49.464],[9.021,49.48],[9.032,49.478],[9.05,49.443],[9.074,49.439],[9.081,49.411],[9.152,49.389],[9.183,49.391],[9.186,49.38],[9.207,49.384],[9.241,49.368],[9.283,49.361],[9.301,49.343],[9.281,49.314],[9.199,49.323],[9.196,49.299],[9.206,49.287],[9.195,49.284],[9.028,49.293],[9.022,49.287],[9.035,49.275],[8.986,49.264],[8.931,49.29],[8.857,49.299],[8.886,49.233],[8.928,49.206],[8.998,49.191],[9.008,49.173],[8.979,49.167],[8.935,49.184],[8.892,49.185],[8.889,49.15],[8.975,49.147],[8.955,49.132],[8.963,49.098],[8.94,49.067],[8.933,49.059],[8.893,49.061],[8.875,49.097],[8.825,49.135],[8.818,49.152],[8.82,49.168],[8.869,49.185],[8.87,49.192],[8.86,49.204],[8.806,49.199],[8.785,49.204],[8.821,49.224],[8.824,49.25],[8.813,49.269],[8.762,49.282],[8.754,49.292],[8.683,49.278],[8.6,49.274],[8.509,49.3],[8.49,49.323],[8.479,49.356],[8.494,49.373],[8.519,49.378],[8.534,49.391],[8.54,49.403],[8.534,49.416],[8.493,49.417],[8.506,49.453],[8.488,49.453],[8.488,49.472],[8.448,49.492],[8.432,49.542],[8.404,49.577],[8.372,49.584],[8.355,49.602],[8.363,49.614],[8.387,49.624],[8.444,49.613],[8.457,49.598],[8.523,49.607],[8.508,49.625],[8.413,49.639],[8.399,49.664],[8.445,49.673],[8.397,49.701],[8.364,49.747],[8.28,49.757],[8.253,49.749],[8.26,49.73],[8.337,49.722],[8.314,49.699],[8.265,49.705],[8.26,49.696],[8.282,49.662],[8.28,49.636],[8.269,49.616],[8.255,49.609],[8.234,49.639],[8.191,49.658],[8.162,49.655],[8.139,49.629],[8.101,49.642],[8.11,49.672],[8.083,49.677],[8.092,49.695],[8.075,49.71],[8.054,49.71],[8.044,49.7],[8.007,49.703],[7.881,49.639],[7.868,49.651],[7.867,49.665],[7.908,49.711],[7.911,49.753],[7.923,49.759],[7.988,49.753],[7.966,49.739],[7.986,49.728],[8.004,49.743],[8.048,49.753],[8.068,49.791],[8.031,49.81],[8.039,49.821],[8.057,49.824],[8.096,49.814],[8.094,49.787],[8.102,49.783],[8.113,49.792],[8.114,49.81],[8.127,49.818],[8.166,49.814],[8.168,49.795],[8.227,49.794],[8.243,49.779],[8.292,49.791],[8.297,49.803],[8.324,49.804],[8.336,49.783],[8.396,49.778],[8.422,49.719],[8.438,49.709],[8.488,49.706]],[[8.596,49.508],[8.556,49.507],[8.548,49.464],[8.618,49.459],[8.617,49.492],[8.596,49.508]],[[8.715,49.563],[8.675,49.568],[8.668,49.561],[8.685,49.549],[8.722,49.545],[8.715,49.563]],[[8.642,49.603],[8.619,49.619],[8.591,49.613],[8.612,49.606],[8.629,49.587],[8.677,49.586],[8.683,49.595],[8.676,49.603],[8.642,49.603]],[[8.766,49.594],[8.717,49.612],[8.704,49.613],[8.695,49.603],[8.758,49.571],[8.775,49.577],[8.777,49.584],[8.766,49.594]]],[[[8.839,49.802],[8.885,49.792],[8.921,49.797],[8.918,49.772],[8.88,49.768],[8.905,49.734],[8.876,49.737],[8.855,49.75],[8.82,49.747],[8.827,49.794],[8.839,49.802]]],[[[8.133,49.973],[8.139,49.963],[8.128,49.945],[8.14,49.908],[8.07,49.904],[8.034,49.925],[8.032,49.946],[8.021,49.961],[7.988,49.961],[7.98,49.97],[8,49.984],[8.066,50.002],[8.088,49.98],[8.133,49.973]]],[[[8.277,49.832],[8.269,49.845],[8.231,49.863],[8.246,49.873],[8.278,49.861],[8.337,49.884],[8.346,49.883],[8.375,49.854],[8.385,49.823],[8.376,49.809],[8.359,49.802],[8.304,49.83],[8.29,49.824],[8.281,49.804],[8.26,49.801],[8.208,49.807],[8.195,49.842],[8.22,49.845],[8.252,49.831],[8.277,49.832]]],[[[8.397,49.249],[8.41,49.248],[8.431,49.228],[8.437,49.205],[8.423,49.16],[8.402,49.152],[8.406,49.11],[8.399,49.079],[8.367,49.063],[8.35,49.009],[8.348,48.999],[8.374,49.003],[8.379,48.989],[8.372,48.975],[8.349,48.966],[8.327,48.966],[8.297,48.984],[8.262,48.993],[8.263,49.006],[8.304,49.044],[8.301,49.067],[8.321,49.079],[8.312,49.087],[8.339,49.087],[8.347,49.104],[8.341,49.124],[8.324,49.138],[8.336,49.16],[8.32,49.172],[8.284,49.174],[8.286,49.203],[8.276,49.208],[8.255,49.194],[8.258,49.164],[8.244,49.152],[8.245,49.13],[8.254,49.12],[8.284,49.114],[8.282,49.097],[8.271,49.095],[8.248,49.1],[8.193,49.094],[8.154,49.105],[8.153,49.125],[8.141,49.131],[8.102,49.12],[8.086,49.104],[8.071,49.105],[7.985,49.124],[7.962,49.134],[7.959,49.151],[7.901,49.154],[7.915,49.178],[7.929,49.181],[8.001,49.174],[8.013,49.152],[8.036,49.146],[8.067,49.166],[8.146,49.179],[8.194,49.169],[8.208,49.194],[8.196,49.208],[8.214,49.219],[8.24,49.215],[8.249,49.223],[8.234,49.251],[8.254,49.264],[8.32,49.265],[8.337,49.23],[8.364,49.217],[8.397,49.249]]],[[[8.55,49.091],[8.574,49.08],[8.585,49.065],[8.621,49.063],[8.582,49.029],[8.544,49.039],[8.523,49.071],[8.55,49.091]]],[[[8.672,49.121],[8.708,49.108],[8.717,49.094],[8.664,49.065],[8.644,49.064],[8.634,49.07],[8.636,49.105],[8.658,49.107],[8.672,49.121]]],[[[8.731,49.065],[8.759,49.067],[8.785,49.054],[8.749,49.011],[8.749,48.99],[8.732,48.988],[8.719,48.996],[8.718,49.006],[8.684,49.011],[8.732,49.053],[8.731,49.065]]],[[[8.232,48.945],[8.249,48.94],[8.263,48.924],[8.244,48.904],[8.242,48.881],[8.206,48.88],[8.148,48.899],[8.145,48.914],[8.163,48.926],[8.207,48.944],[8.232,48.945]]],[[[7.907,49.281],[7.944,49.294],[7.989,49.294],[8.018,49.268],[8.042,49.223],[8.061,49.212],[8.001,49.203],[7.981,49.232],[7.949,49.244],[7.907,49.281]]],[[[8.108,49.217],[8.156,49.217],[8.155,49.203],[8.071,49.19],[8.073,49.203],[8.108,49.217]]],[[[7.874,49.099],[7.911,49.113],[7.947,49.107],[7.973,49.09],[7.947,49.065],[7.901,49.08],[7.874,49.099]]],[[[8.379,49.288],[8.432,49.293],[8.437,49.278],[8.396,49.265],[8.379,49.288]]],[[[8.976,49.247],[9.072,49.242],[9.087,49.237],[9.089,49.222],[9.04,49.218],[9.038,49.203],[8.977,49.223],[8.976,49.247]]],[[[9.061,49.128],[9.091,49.125],[9.113,49.109],[9.086,49.094],[9.051,49.102],[9.061,49.128]]],[[[9.051,49.275],[9.086,49.272],[9.093,49.26],[9.064,49.257],[9.051,49.275]]],[[[7.816,50.138],[7.823,50.126],[7.816,50.11],[7.774,50.078],[7.793,50.036],[7.724,50.009],[7.684,50.013],[7.655,50.041],[7.658,50.057],[7.703,50.086],[7.7,50.11],[7.684,50.119],[7.703,50.142],[7.735,50.131],[7.758,50.144],[7.796,50.145],[7.816,50.138]]],[[[9.68,49.425],[9.692,49.394],[9.674,49.384],[9.604,49.386],[9.607,49.365],[9.591,49.349],[9.526,49.369],[9.485,49.37],[9.485,49.381],[9.512,49.391],[9.51,49.406],[9.529,49.406],[9.544,49.42],[9.509,49.434],[9.507,49.448],[9.526,49.453],[9.588,49.424],[9.68,49.425]]]]}},{"type":"Feature","properties":{"NAME":"Archbishopric of Trier","SUBJECTO":"Holy Roman Empire","PARTOF":"Holy Roman Empire","BORROWED_FROM":{"year":1700,"file":"data/hre_1700.geojson","sourceRef":"Roller territories_manual: id=Kurtrier"}},"geometry":{"type":"MultiPolygon","coordinates":[[[[6.545,49.567],[6.518,49.546],[6.51,49.521],[6.466,49.499],[6.44,49.495],[6.434,49.507],[6.407,49.511],[6.399,49.519],[6.369,49.513],[6.368,49.537],[6.41,49.55],[6.382,49.561],[6.408,49.585],[6.469,49.589],[6.449,49.559],[6.47,49.555],[6.485,49.579],[6.519,49.598],[6.521,49.609],[6.434,49.598],[6.421,49.606],[6.427,49.613],[6.507,49.632],[6.524,49.643],[6.519,49.661],[6.526,49.669],[6.586,49.682],[6.558,49.836],[6.544,49.842],[6.511,49.819],[6.493,49.829],[6.504,49.851],[6.54,49.881],[6.542,49.903],[6.563,49.918],[6.558,49.947],[6.564,49.955],[6.61,49.967],[6.62,49.947],[6.605,49.924],[6.603,49.896],[6.629,49.879],[6.691,49.885],[6.76,49.907],[6.788,49.891],[6.801,49.896],[6.845,49.959],[6.839,49.978],[6.802,49.992],[6.802,49.969],[6.754,49.965],[6.75,49.941],[6.687,49.941],[6.676,49.949],[6.662,50.01],[6.684,50.023],[6.701,50.023],[6.724,50.044],[6.758,50.048],[6.765,50.08],[6.785,50.093],[6.787,50.104],[6.775,50.116],[6.756,50.118],[6.718,50.098],[6.652,50.111],[6.659,50.132],[6.688,50.151],[6.721,50.156],[6.725,50.207],[6.739,50.218],[6.729,50.229],[6.747,50.233],[6.75,50.242],[6.704,50.243],[6.702,50.273],[6.66,50.291],[6.674,50.317],[6.657,50.321],[6.642,50.295],[6.611,50.304],[6.626,50.366],[6.64,50.374],[6.662,50.37],[6.711,50.342],[6.753,50.342],[6.77,50.335],[6.781,50.315],[6.721,50.293],[6.721,50.285],[6.76,50.277],[6.772,50.267],[6.773,50.253],[6.793,50.253],[6.811,50.269],[6.844,50.321],[6.813,50.335],[6.786,50.362],[6.751,50.382],[6.746,50.399],[6.753,50.412],[6.765,50.428],[6.799,50.429],[6.808,50.422],[6.812,50.4],[6.831,50.402],[6.862,50.38],[6.882,50.4],[6.9,50.397],[6.911,50.384],[6.917,50.327],[6.911,50.319],[6.914,50.292],[6.901,50.286],[6.9,50.275],[6.984,50.273],[6.997,50.219],[7.006,50.217],[7.047,50.232],[7.039,50.285],[7.079,50.323],[7.132,50.341],[7.153,50.361],[7.135,50.386],[7.099,50.399],[7.082,50.431],[7.034,50.447],[7.004,50.496],[7.012,50.542],[7.062,50.549],[7.071,50.567],[7.155,50.508],[7.159,50.497],[7.144,50.485],[7.15,50.474],[7.117,50.445],[7.127,50.42],[7.184,50.422],[7.175,50.487],[7.225,50.493],[7.236,50.529],[7.252,50.532],[7.284,50.516],[7.336,50.518],[7.392,50.451],[7.402,50.409],[7.415,50.401],[7.425,50.368],[7.451,50.364],[7.487,50.371],[7.49,50.384],[7.489,50.4],[7.451,50.424],[7.454,50.466],[7.494,50.497],[7.513,50.536],[7.531,50.54],[7.599,50.532],[7.684,50.574],[7.713,50.545],[7.76,50.543],[7.773,50.549],[7.768,50.578],[7.794,50.604],[7.792,50.61],[7.881,50.639],[7.899,50.625],[7.924,50.618],[7.966,50.585],[7.952,50.556],[7.961,50.522],[8.006,50.482],[7.97,50.451],[8.034,50.448],[8.025,50.43],[7.942,50.419],[7.906,50.428],[7.845,50.406],[7.845,50.398],[7.864,50.389],[7.846,50.369],[7.695,50.36],[7.658,50.334],[7.547,50.291],[7.549,50.273],[7.607,50.271],[7.619,50.263],[7.628,50.225],[7.687,50.208],[7.684,50.159],[7.599,50.151],[7.56,50.138],[7.549,50.126],[7.55,50.105],[7.558,50.097],[7.684,50.124],[7.704,50.118],[7.738,50.082],[7.709,50.055],[7.689,50.052],[7.674,50.031],[7.657,50.027],[7.608,50.044],[7.6,50.05],[7.601,50.068],[7.587,50.08],[7.552,50.075],[7.533,50.083],[7.511,50.132],[7.531,50.144],[7.531,50.154],[7.495,50.171],[7.486,50.172],[7.476,50.134],[7.451,50.136],[7.434,50.2],[7.465,50.214],[7.461,50.229],[7.375,50.2],[7.353,50.146],[7.284,50.111],[7.238,50.111],[7.229,50.135],[7.196,50.143],[7.159,50.167],[7.149,50.163],[7.154,50.146],[7.193,50.131],[7.203,50.105],[7.249,50.062],[7.267,50.033],[7.283,49.993],[7.269,49.955],[7.241,49.953],[7.165,49.99],[7.163,49.978],[7.14,49.978],[7.124,50.027],[7.125,50.043],[7.093,50.071],[7.076,50.073],[7.056,50.061],[7.02,50.061],[7.019,50.047],[6.982,50.043],[6.992,50.019],[6.988,49.989],[6.963,49.972],[6.961,49.959],[7.057,49.942],[7.108,49.919],[7.163,49.857],[7.211,49.854],[7.246,49.817],[7.168,49.782],[7.153,49.743],[7.124,49.729],[7.093,49.73],[7.052,49.768],[7.023,49.779],[6.898,49.745],[6.902,49.732],[6.98,49.715],[6.991,49.704],[6.975,49.681],[7.065,49.709],[7.074,49.692],[7.054,49.676],[6.986,49.661],[6.976,49.652],[6.978,49.632],[6.9,49.598],[6.893,49.575],[6.84,49.581],[6.856,49.555],[6.85,49.541],[6.784,49.555],[6.792,49.504],[6.803,49.503],[6.82,49.523],[6.837,49.524],[6.901,49.495],[6.89,49.479],[6.765,49.445],[6.751,49.431],[6.77,49.412],[6.767,49.404],[6.713,49.397],[6.71,49.414],[6.741,49.439],[6.738,49.449],[6.705,49.456],[6.659,49.445],[6.688,49.417],[6.652,49.398],[6.644,49.401],[6.607,49.467],[6.554,49.501],[6.588,49.505],[6.627,49.543],[6.597,49.547],[6.595,49.563],[6.578,49.561],[6.559,49.576],[6.545,49.567]],[[7.567,50.455],[7.566,50.447],[7.587,50.431],[7.665,50.454],[7.664,50.469],[7.702,50.456],[7.708,50.461],[7.7,50.498],[7.705,50.507],[7.679,50.514],[7.661,50.498],[7.616,50.479],[7.607,50.462],[7.567,50.455]],[[7.649,50.385],[7.631,50.365],[7.659,50.35],[7.67,50.377],[7.649,50.385]],[[7.361,50.408],[7.347,50.4],[7.36,50.381],[7.382,50.397],[7.361,50.408]],[[7.285,50.363],[7.264,50.36],[7.27,50.342],[7.311,50.348],[7.314,50.356],[7.285,50.363]],[[7.358,50.243],[7.337,50.227],[7.33,50.212],[7.365,50.21],[7.371,50.243],[7.358,50.243]],[[7.217,50.2],[7.21,50.19],[7.227,50.181],[7.227,50.195],[7.217,50.2]],[[7.259,50.496],[7.242,50.503],[7.234,50.492],[7.249,50.48],[7.259,50.496]],[[6.991,49.902],[6.997,49.886],[6.992,49.87],[7.025,49.855],[7.032,49.834],[7.076,49.832],[7.083,49.838],[7.083,49.863],[7.073,49.878],[7.08,49.89],[7.069,49.9],[7.043,49.914],[6.991,49.902]],[[6.645,49.731],[6.636,49.687],[6.714,49.687],[6.722,49.696],[6.712,49.721],[6.672,49.713],[6.658,49.732],[6.645,49.731]],[[6.615,49.815],[6.588,49.812],[6.588,49.8],[6.605,49.796],[6.615,49.802],[6.615,49.815]],[[6.615,49.847],[6.591,49.836],[6.609,49.826],[6.62,49.833],[6.615,49.847]],[[6.61,49.661],[6.576,49.663],[6.572,49.643],[6.595,49.632],[6.612,49.613],[6.642,49.608],[6.655,49.616],[6.61,49.661]],[[6.705,49.654],[6.704,49.619],[6.71,49.616],[6.746,49.619],[6.784,49.634],[6.777,49.652],[6.742,49.646],[6.721,49.659],[6.705,49.654]],[[6.812,49.621],[6.793,49.623],[6.794,49.598],[6.784,49.576],[6.794,49.574],[6.822,49.594],[6.812,49.621]],[[6.691,50.322],[6.693,50.3],[6.734,50.316],[6.732,50.323],[6.691,50.322]]],[[[7.136,49.54],[7.159,49.514],[7.187,49.538],[7.244,49.539],[7.246,49.522],[7.21,49.506],[7.204,49.456],[7.138,49.457],[7.126,49.46],[7.136,49.502],[7.114,49.535],[7.136,49.54]]],[[[6.937,49.499],[7.017,49.508],[7.023,49.52],[7.041,49.526],[7.072,49.518],[7.076,49.509],[7.009,49.454],[6.92,49.477],[6.925,49.493],[6.937,49.499]]],[[[6.398,50.32],[6.372,50.297],[6.293,50.29],[6.276,50.274],[6.179,50.284],[6.182,50.308],[6.235,50.335],[6.229,50.39],[6.249,50.407],[6.253,50.436],[6.305,50.468],[6.326,50.457],[6.344,50.422],[6.369,50.405],[6.367,50.387],[6.398,50.32]]],[[[7.315,50.568],[7.336,50.569],[7.352,50.586],[7.376,50.565],[7.378,50.535],[7.395,50.518],[7.355,50.514],[7.315,50.568]]],[[[7.437,50.737],[7.47,50.727],[7.516,50.736],[7.53,50.708],[7.508,50.686],[7.513,50.653],[7.468,50.654],[7.475,50.668],[7.442,50.682],[7.437,50.737]]],[[[8.18,50.458],[8.198,50.459],[8.22,50.441],[8.292,50.42],[8.278,50.4],[8.245,50.405],[8.224,50.4],[8.228,50.385],[8.26,50.374],[8.233,50.335],[8.16,50.354],[8.117,50.377],[8.055,50.384],[8.036,50.401],[8.048,50.442],[8.092,50.439],[8.117,50.419],[8.167,50.42],[8.18,50.458]]],[[[7.073,49.376],[7.113,49.366],[7.112,49.347],[7.101,49.344],[7.071,49.355],[7.073,49.376]]],[[[6.23,50.194],[6.392,50.16],[6.432,50.183],[6.457,50.165],[6.433,50.121],[6.448,50.09],[6.445,50.051],[6.421,50.06],[6.375,50.063],[6.374,50.092],[6.348,50.103],[6.321,50.102],[6.295,50.078],[6.27,50.076],[6.266,50.094],[6.244,50.122],[6.226,50.183],[6.23,50.194]]]]}},{"type":"Feature","properties":{"NAME":"Duchy of Württemberg","SUBJECTO":"Holy Roman Empire","PARTOF":"Holy Roman Empire","BORROWED_FROM":{"year":1700,"file":"data/hre_1700.geojson","sourceRef":"Roller territories_manual: id=Württemberg"}},"geometry":{"type":"MultiPolygon","coordinates":[[[[8.522,49.321],[8.541,49.321],[8.558,49.307],[8.559,49.297],[8.541,49.279],[8.501,49.283],[8.498,49.319],[8.484,49.339],[8.495,49.342],[8.522,49.321]]],[[[8.816,49.148],[8.816,49.131],[8.766,49.116],[8.749,49.102],[8.721,49.101],[8.714,49.108],[8.733,49.143],[8.799,49.154],[8.816,49.148]]],[[[8.693,49.183],[8.701,49.168],[8.692,49.133],[8.678,49.125],[8.646,49.126],[8.662,49.179],[8.693,49.183]]],[[[6.935,47.331],[6.945,47.314],[6.939,47.303],[6.952,47.29],[6.93,47.274],[6.916,47.276],[6.903,47.324],[6.935,47.331]]],[[[6.621,47.689],[6.667,47.663],[6.705,47.66],[6.738,47.633],[6.781,47.615],[6.792,47.588],[6.79,47.556],[6.865,47.571],[6.932,47.519],[6.925,47.481],[6.939,47.453],[6.935,47.396],[6.914,47.4],[6.832,47.383],[6.816,47.375],[6.805,47.349],[6.765,47.338],[6.733,47.356],[6.7,47.36],[6.728,47.407],[6.753,47.405],[6.766,47.457],[6.781,47.472],[6.721,47.492],[6.718,47.454],[6.657,47.432],[6.638,47.445],[6.63,47.443],[6.612,47.418],[6.595,47.418],[6.583,47.434],[6.579,47.492],[6.539,47.47],[6.503,47.473],[6.496,47.483],[6.499,47.494],[6.535,47.498],[6.517,47.535],[6.468,47.549],[6.47,47.565],[6.533,47.554],[6.548,47.559],[6.556,47.583],[6.523,47.588],[6.51,47.601],[6.51,47.613],[6.581,47.679],[6.621,47.689]]],[[[7.568,48.088],[7.544,48.065],[7.571,48.011],[7.551,48.005],[7.518,48.01],[7.508,48.024],[7.475,48.018],[7.404,48.028],[7.384,48.052],[7.4,48.058],[7.394,48.093],[7.407,48.094],[7.424,48.081],[7.438,48.086],[7.439,48.1],[7.45,48.105],[7.485,48.107],[7.517,48.12],[7.538,48.114],[7.568,48.088]]],[[[9.379,49.386],[9.4,49.346],[9.397,49.31],[9.366,49.312],[9.348,49.279],[9.323,49.275],[9.308,49.325],[9.314,49.344],[9.322,49.358],[9.344,49.367],[9.346,49.386],[9.379,49.386]]],[[[9.447,49.334],[9.478,49.33],[9.481,49.313],[9.439,49.273],[9.439,49.246],[9.405,49.218],[9.403,49.199],[9.432,49.191],[9.445,49.206],[9.484,49.197],[9.466,49.181],[9.457,49.15],[9.414,49.155],[9.429,49.133],[9.467,49.109],[9.5,49.129],[9.534,49.109],[9.503,49.09],[9.539,49.072],[9.594,49.065],[9.619,49.047],[9.646,49.041],[9.741,49.044],[9.752,49.029],[9.75,49.01],[9.711,49.022],[9.683,49.017],[9.662,48.996],[9.659,48.977],[9.686,48.964],[9.671,48.949],[9.722,48.925],[9.723,48.891],[9.691,48.882],[9.689,48.873],[9.743,48.848],[9.747,48.834],[9.732,48.778],[9.74,48.769],[9.737,48.746],[9.695,48.645],[9.71,48.636],[9.702,48.624],[9.682,48.619],[9.649,48.581],[9.567,48.565],[9.555,48.547],[9.557,48.495],[9.61,48.483],[9.607,48.501],[9.65,48.505],[9.699,48.5],[9.778,48.474],[9.808,48.44],[9.839,48.441],[9.839,48.455],[9.872,48.44],[9.863,48.436],[9.859,48.412],[9.884,48.397],[9.842,48.349],[9.821,48.334],[9.731,48.339],[9.741,48.369],[9.708,48.383],[9.693,48.404],[9.671,48.409],[9.659,48.337],[9.594,48.334],[9.613,48.357],[9.557,48.36],[9.536,48.352],[9.512,48.367],[9.479,48.367],[9.476,48.348],[9.418,48.343],[9.418,48.324],[9.396,48.318],[9.368,48.342],[9.344,48.351],[9.274,48.349],[9.268,48.363],[9.244,48.369],[9.207,48.343],[9.173,48.343],[9.167,48.376],[9.106,48.361],[9.07,48.361],[9.027,48.381],[8.98,48.373],[8.957,48.378],[8.945,48.389],[9.008,48.422],[9.023,48.44],[9.039,48.483],[9.029,48.498],[8.987,48.5],[8.904,48.519],[8.899,48.5],[8.917,48.494],[8.911,48.48],[8.832,48.465],[8.852,48.489],[8.797,48.516],[8.774,48.516],[8.715,48.51],[8.713,48.498],[8.753,48.495],[8.736,48.479],[8.676,48.489],[8.605,48.483],[8.608,48.43],[8.567,48.428],[8.567,48.413],[8.584,48.412],[8.6,48.391],[8.603,48.349],[8.666,48.355],[8.703,48.379],[8.731,48.367],[8.724,48.357],[8.722,48.327],[8.744,48.3],[8.74,48.269],[8.77,48.269],[8.752,48.241],[8.749,48.217],[8.672,48.202],[8.667,48.23],[8.646,48.23],[8.645,48.239],[8.661,48.262],[8.66,48.273],[8.569,48.27],[8.572,48.288],[8.532,48.297],[8.515,48.291],[8.506,48.276],[8.432,48.272],[8.405,48.259],[8.395,48.273],[8.398,48.293],[8.362,48.308],[8.353,48.32],[8.352,48.349],[8.334,48.364],[8.338,48.379],[8.364,48.406],[8.344,48.428],[8.322,48.43],[8.252,48.464],[8.239,48.494],[8.23,48.577],[8.252,48.58],[8.288,48.571],[8.312,48.577],[8.443,48.65],[8.454,48.702],[8.492,48.723],[8.498,48.751],[8.456,48.752],[8.429,48.736],[8.395,48.748],[8.404,48.834],[8.417,48.836],[8.448,48.815],[8.475,48.809],[8.502,48.815],[8.517,48.819],[8.521,48.833],[8.512,48.848],[8.511,48.892],[8.547,48.885],[8.573,48.897],[8.603,48.879],[8.649,48.898],[8.658,48.883],[8.657,48.851],[8.731,48.831],[8.731,48.788],[8.822,48.781],[8.85,48.8],[8.838,48.821],[8.795,48.842],[8.794,48.849],[8.819,48.885],[8.832,48.926],[8.852,48.935],[8.819,48.941],[8.779,48.925],[8.75,48.932],[8.739,48.94],[8.785,48.965],[8.789,48.977],[8.725,48.996],[8.688,48.983],[8.682,48.989],[8.695,49.016],[8.743,49.039],[8.789,49.078],[8.834,49.09],[8.858,49.106],[8.89,49.087],[8.959,49.099],[8.996,49.142],[9.038,49.16],[9.066,49.194],[9.085,49.194],[9.088,49.173],[9.113,49.155],[9.124,49.164],[9.124,49.181],[9.151,49.193],[9.162,49.167],[9.198,49.158],[9.194,49.133],[9.223,49.086],[9.299,49.121],[9.289,49.158],[9.328,49.187],[9.328,49.215],[9.351,49.234],[9.375,49.24],[9.382,49.286],[9.406,49.292],[9.447,49.334]],[[9.31,48.992],[9.276,48.996],[9.272,48.986],[9.281,48.974],[9.3,48.975],[9.31,48.992]],[[9.374,48.973],[9.343,49.002],[9.33,49],[9.336,48.965],[9.374,48.973]],[[9.18,48.748],[9.14,48.744],[9.122,48.757],[9.076,48.746],[9.083,48.729],[9.138,48.724],[9.15,48.709],[9.19,48.724],[9.194,48.734],[9.18,48.748]],[[9.399,48.743],[9.342,48.774],[9.303,48.775],[9.286,48.768],[9.295,48.744],[9.349,48.712],[9.391,48.699],[9.411,48.666],[9.464,48.681],[9.459,48.696],[9.406,48.703],[9.36,48.727],[9.36,48.735],[9.393,48.732],[9.399,48.743]],[[8.917,48.775],[8.872,48.77],[8.847,48.75],[8.85,48.738],[8.89,48.732],[8.914,48.74],[8.925,48.763],[8.917,48.775]],[[9.241,48.532],[9.226,48.536],[9.191,48.526],[9.177,48.534],[9.163,48.527],[9.162,48.504],[9.125,48.478],[9.179,48.461],[9.198,48.465],[9.263,48.512],[9.241,48.532]],[[9.618,48.65],[9.591,48.629],[9.6,48.616],[9.621,48.609],[9.638,48.622],[9.618,48.65]],[[9.704,48.785],[9.647,48.768],[9.654,48.743],[9.681,48.741],[9.709,48.768],[9.704,48.785]]],[[[9.866,48.945],[9.896,48.942],[9.891,48.923],[9.836,48.897],[9.807,48.9],[9.807,48.89],[9.82,48.859],[9.843,48.856],[9.856,48.871],[9.883,48.865],[9.87,48.83],[9.865,48.824],[9.823,48.83],[9.795,48.811],[9.778,48.812],[9.776,48.821],[9.788,48.837],[9.784,48.847],[9.756,48.863],[9.752,48.871],[9.768,48.888],[9.743,48.901],[9.743,48.909],[9.757,48.923],[9.819,48.914],[9.866,48.945]]],[[[10.187,48.698],[10.284,48.728],[10.32,48.705],[10.318,48.69],[10.308,48.684],[10.275,48.68],[10.263,48.652],[10.312,48.52],[10.31,48.491],[10.263,48.481],[10.25,48.534],[10.217,48.553],[10.196,48.556],[10.167,48.537],[10.143,48.532],[10.118,48.551],[10.082,48.55],[10.038,48.57],[9.996,48.575],[9.925,48.618],[9.929,48.64],[9.948,48.654],[9.953,48.676],[10.005,48.694],[10.02,48.729],[10.046,48.722],[10.125,48.77],[10.14,48.768],[10.187,48.698]],[[10.228,48.651],[10.22,48.66],[10.208,48.658],[10.202,48.599],[10.232,48.604],[10.251,48.619],[10.249,48.635],[10.228,48.651]]],[[[8.83,48.305],[8.886,48.31],[8.917,48.274],[8.939,48.275],[8.958,48.304],[8.97,48.309],[9.014,48.318],[9.042,48.314],[9.062,48.303],[9.076,48.274],[9.131,48.249],[9.146,48.192],[9.11,48.171],[9.095,48.21],[9.072,48.208],[9.064,48.178],[8.98,48.148],[8.958,48.146],[8.942,48.156],[8.845,48.153],[8.849,48.224],[8.788,48.23],[8.831,48.279],[8.83,48.305]],[[9.002,48.235],[8.952,48.226],[8.953,48.213],[8.926,48.184],[8.981,48.185],[9.006,48.203],[8.993,48.217],[9.002,48.235]]],[[[9.204,48.324],[9.249,48.303],[9.247,48.269],[9.231,48.268],[9.179,48.289],[9.178,48.308],[9.204,48.324]]],[[[9.39,48.214],[9.41,48.208],[9.397,48.181],[9.358,48.186],[9.39,48.214]]],[[[9.503,48.32],[9.525,48.308],[9.516,48.288],[9.46,48.293],[9.503,48.32]]],[[[8.379,48.256],[8.374,48.239],[8.354,48.226],[8.326,48.23],[8.329,48.249],[8.314,48.251],[8.283,48.239],[8.277,48.228],[8.307,48.204],[8.353,48.205],[8.376,48.175],[8.392,48.168],[8.446,48.165],[8.472,48.146],[8.417,48.121],[8.388,48.122],[8.41,48.088],[8.391,48.073],[8.377,48.073],[8.351,48.093],[8.296,48.064],[8.249,48.088],[8.245,48.109],[8.268,48.146],[8.265,48.16],[8.261,48.167],[8.218,48.175],[8.217,48.197],[8.185,48.201],[8.183,48.234],[8.194,48.274],[8.227,48.27],[8.238,48.259],[8.282,48.264],[8.307,48.292],[8.359,48.27],[8.373,48.272],[8.379,48.256]]],[[[8.405,48.202],[8.414,48.21],[8.443,48.202],[8.432,48.18],[8.421,48.179],[8.4,48.18],[8.405,48.202]]],[[[8.518,48.176],[8.532,48.171],[8.535,48.153],[8.492,48.158],[8.503,48.172],[8.518,48.176]]],[[[8.527,48.136],[8.537,48.131],[8.515,48.116],[8.498,48.12],[8.488,48.134],[8.491,48.141],[8.527,48.136]]],[[[8.478,48.105],[8.487,48.097],[8.483,48.081],[8.455,48.079],[8.451,48.092],[8.465,48.106],[8.478,48.105]]],[[[8.625,48.144],[8.625,48.132],[8.613,48.125],[8.578,48.132],[8.583,48.144],[8.599,48.149],[8.625,48.144]]],[[[8.531,48.046],[8.513,48.018],[8.503,48.015],[8.482,48.044],[8.514,48.046],[8.522,48.058],[8.531,48.046]]],[[[8.685,48.073],[8.693,48.063],[8.689,48.053],[8.642,48.04],[8.62,48.011],[8.652,48.006],[8.666,47.977],[8.64,47.975],[8.635,47.96],[8.603,47.962],[8.572,47.945],[8.538,47.955],[8.56,48.006],[8.601,48.027],[8.578,48.052],[8.644,48.079],[8.685,48.073]]],[[[8.728,48.028],[8.733,48.011],[8.714,48.007],[8.653,48.015],[8.67,48.033],[8.728,48.028]]],[[[8.837,47.997],[8.826,47.983],[8.833,47.96],[8.828,47.95],[8.807,47.935],[8.765,47.934],[8.758,47.959],[8.747,47.965],[8.748,47.973],[8.805,48.007],[8.837,47.997]]],[[[8.942,47.984],[8.947,47.973],[8.939,47.953],[8.957,47.944],[8.952,47.925],[8.929,47.925],[8.879,47.968],[8.942,47.984]]],[[[8.781,47.767],[8.79,47.759],[8.782,47.743],[8.757,47.748],[8.758,47.768],[8.781,47.767]]],[[[8.814,47.793],[8.833,47.797],[8.841,47.774],[8.857,47.764],[8.852,47.755],[8.835,47.745],[8.818,47.747],[8.817,47.761],[8.799,47.775],[8.814,47.793]]],[[[6.436,47.448],[6.394,47.419],[6.373,47.412],[6.359,47.422],[6.359,47.43],[6.403,47.453],[6.436,47.448]]],[[[6.488,47.407],[6.517,47.404],[6.555,47.346],[6.548,47.319],[6.589,47.272],[6.564,47.242],[6.5,47.252],[6.51,47.278],[6.477,47.272],[6.453,47.239],[6.433,47.243],[6.425,47.253],[6.422,47.299],[6.493,47.313],[6.484,47.365],[6.425,47.334],[6.41,47.33],[6.39,47.339],[6.466,47.4],[6.488,47.407]]]]}}],"metadata":{"borrowedFrom":[{"name":"Electorate of Saxony","year":1700,"file":"data/hre_1700.geojson","sourceRef":"Roller territories_manual: id=albertinischesSachsennach1635","reason":"1700 年・1715 年ともアウグスト強王（フリードリヒ・アウグスト 1 世）のザクセン選帝侯領で、領域は 1635 年のプラハ条約（ラウジッツ獲得）以降 1815 年まで安定している。1697 年のポーランド王位兼任は同君連合であり選帝侯領の領域を変えず、大北方戦争のスウェーデン占領（1706〜1707）も占領であって割譲ではない。"},{"name":"Electorate of the Palatinate","year":1700,"file":"data/hre_1700.geojson","sourceRef":"Roller territories_manual: id=Kurpfalz","reason":"1697 年の大同盟戦争終結後から 1777 年のバイエルンとの統合まで同一の選帝侯領が継続し、1700〜1715 年に縮尺上有意な領域割譲が無い。"},{"name":"Archbishopric of Trier","year":1700,"file":"data/hre_1700.geojson","sourceRef":"Roller territories_manual: id=Kurtrier","reason":"スペイン継承戦争中のフランス軍占領は一時的な占領で領域割譲ではなく、1700 年・1715 年でトリーア大司教領の政体と領域は連続する。"},{"name":"Duchy of Württemberg","year":1700,"file":"data/hre_1700.geojson","sourceRef":"Roller territories_manual: id=Württemberg","reason":"ヴュルテンベルク州史地図の領域発展と照合し、1700 年・1715 年は同一の公領で、両年の間に地図縮尺上有意な領域変更が無い。"}],"source":"Territories of the Holy Roman Empire (Roller, ETH Zürich)","sourceUrl":"https://doi.org/10.3929/ethz-b-000472583","license":"CC BY-NC-SA 4.0","borderPrecision":"史料に基づく復元（概略。測量された境界ではない）"}}