{"type":"FeatureCollection","features":[{"type":"Feature","properties":{"NAME":"Kingdom of Leinster","ADMIN_LEVEL":2,"OHM_RELATION_ID":2875840,"START_DATE":"0800","END_DATE":"1603"},"geometry":{"type":"MultiPolygon","coordinates":[[[[-7.542,53.181],[-7.583,53.17],[-7.623,53.171],[-7.643,53.149],[-7.589,53.104],[-7.609,53.075],[-7.65,53.055],[-7.659,53.041],[-7.685,53.031],[-7.707,53.009],[-7.708,52.98],[-7.732,52.956],[-7.7,52.937],[-7.662,52.93],[-7.725,52.884],[-7.721,52.873],[-7.734,52.853],[-7.698,52.827],[-7.647,52.735],[-7.548,52.701],[-7.514,52.648],[-7.475,52.612],[-7.48,52.601],[-7.452,52.575],[-7.462,52.52],[-7.451,52.507],[-7.427,52.519],[-7.421,52.51],[-7.464,52.471],[-7.426,52.455],[-7.384,52.419],[-7.397,52.367],[-7.388,52.357],[-7.363,52.34],[-7.307,52.321],[-7.285,52.298],[-7.277,52.276],[-7.239,52.262],[-7.219,52.245],[-7.197,52.252],[-7.169,52.28],[-7.085,52.253],[-7.039,52.257],[-7.007,52.277],[-6.985,52.275],[-6.986,52.251],[-6.956,52.231],[-6.937,52.192],[-6.919,52.178],[-6.958,52.145],[-6.978,52.113],[-6.939,52.093],[-6.887,52.102],[-6.846,52.137],[-6.793,52.151],[-6.775,52.172],[-6.73,52.165],[-6.692,52.182],[-6.646,52.165],[-6.634,52.152],[-6.669,52.131],[-6.674,52.103],[-6.647,52.082],[-6.618,52.079],[-6.588,52.086],[-6.546,52.113],[-6.528,52.155],[-6.455,52.16],[-6.354,52.143],[-6.299,52.166],[-6.192,52.173],[-6.162,52.189],[-6.156,52.207],[-6.167,52.222],[-6.25,52.24],[-6.273,52.266],[-6.34,52.288],[-6.34,52.298],[-6.333,52.316],[-6.31,52.336],[-6.314,52.373],[-6.307,52.396],[-6.158,52.534],[-6.144,52.565],[-6.178,52.63],[-6.174,52.643],[-6.143,52.684],[-6.094,52.724],[-6.087,52.79],[-6.063,52.82],[-6.013,52.844],[-6.007,52.857],[-6.011,52.871],[-5.978,52.905],[-5.948,52.962],[-5.959,52.985],[-6,53.005],[-5.985,53.065],[-5.992,53.123],[-6.021,53.166],[-6.029,53.198],[-6.056,53.225],[-6.062,53.243],[-6.04,53.255],[-6.032,53.273],[-6.037,53.286],[-6.07,53.306],[-6.072,53.33],[-6.251,53.348],[-6.333,53.345],[-6.364,53.36],[-6.405,53.36],[-6.423,53.369],[-6.458,53.357],[-6.487,53.363],[-6.5,53.375],[-6.553,53.381],[-6.6,53.398],[-6.659,53.398],[-6.743,53.427],[-6.78,53.426],[-6.79,53.417],[-6.88,53.414],[-6.913,53.424],[-6.923,53.44],[-6.962,53.453],[-7.006,53.438],[-7.032,53.411],[-7.071,53.397],[-7.086,53.38],[-7.143,53.397],[-7.142,53.404],[-7.195,53.424],[-7.209,53.422],[-7.218,53.405],[-7.28,53.4],[-7.28,53.392],[-7.346,53.362],[-7.368,53.341],[-7.403,53.33],[-7.423,53.334],[-7.506,53.3],[-7.542,53.181]]]]}},{"type":"Feature","properties":{"NAME":"Lordship of Eastern Meath","ADMIN_LEVEL":2,"OHM_RELATION_ID":2875843,"START_DATE":"1244","END_DATE":"1328"},"geometry":{"type":"MultiPolygon","coordinates":[[[[-6.955,53.654],[-6.986,53.616],[-6.983,53.594],[-6.998,53.58],[-7.021,53.578],[-7.033,53.564],[-7.016,53.527],[-7.034,53.507],[-7.065,53.495],[-7.06,53.486],[-7.067,53.473],[-7.092,53.454],[-7.145,53.45],[-7.158,53.44],[-7.193,53.434],[-7.195,53.424],[-7.145,53.407],[-7.143,53.397],[-7.086,53.38],[-7.071,53.397],[-7.032,53.411],[-7.006,53.438],[-6.962,53.453],[-6.923,53.44],[-6.913,53.424],[-6.88,53.414],[-6.79,53.417],[-6.78,53.426],[-6.743,53.427],[-6.659,53.398],[-6.6,53.398],[-6.553,53.381],[-6.5,53.375],[-6.492,53.364],[-6.458,53.357],[-6.423,53.369],[-6.405,53.36],[-6.364,53.36],[-6.333,53.345],[-6.251,53.348],[-6.072,53.33],[-6.035,53.333],[-6.007,53.348],[-5.996,53.388],[-6.017,53.423],[-6.04,53.435],[-6.027,53.453],[-5.978,53.461],[-5.957,53.476],[-5.946,53.495],[-5.971,53.52],[-6.027,53.529],[-6.032,53.562],[-6.059,53.603],[-6.084,53.614],[-6.115,53.615],[-6.183,53.673],[-6.2,53.746],[-6.166,53.796],[-6.176,53.813],[-6.208,53.827],[-6.19,53.852],[-6.196,53.876],[-6.248,53.898],[-6.314,53.908],[-6.323,53.919],[-6.423,53.913],[-6.445,53.904],[-6.488,53.854],[-6.515,53.759],[-6.539,53.731],[-6.561,53.707],[-6.631,53.668],[-6.656,53.669],[-6.68,53.654],[-6.684,53.644],[-6.649,53.617],[-6.65,53.604],[-6.732,53.577],[-6.741,53.562],[-6.833,53.552],[-6.855,53.559],[-6.919,53.633],[-6.938,53.65],[-6.955,53.654]]]]}},{"type":"Feature","properties":{"NAME":"Lordship of Western Meath","ADMIN_LEVEL":2,"OHM_RELATION_ID":2875844,"START_DATE":"1244","END_DATE":"1328"},"geometry":{"type":"MultiPolygon","coordinates":[[[[-7.884,53.786],[-7.876,53.778],[-7.889,53.761],[-7.916,53.749],[-7.918,53.738],[-7.929,53.733],[-7.946,53.74],[-7.95,53.713],[-7.987,53.701],[-7.986,53.681],[-8.007,53.661],[-8.024,53.657],[-8.035,53.631],[-8.037,53.607],[-7.981,53.552],[-7.955,53.482],[-7.964,53.442],[-7.936,53.418],[-7.943,53.406],[-7.925,53.398],[-7.911,53.373],[-7.939,53.356],[-7.942,53.343],[-7.984,53.338],[-7.993,53.325],[-8.024,53.321],[-8.026,53.3],[-8.057,53.275],[-8.026,53.253],[-7.974,53.234],[-7.975,53.21],[-7.994,53.193],[-8.043,53.195],[-8.081,53.172],[-8.056,53.154],[-7.981,53.135],[-7.903,53.098],[-7.844,53.089],[-7.79,53.099],[-7.782,53.076],[-7.768,53.063],[-7.674,53.034],[-7.609,53.075],[-7.593,53.095],[-7.589,53.104],[-7.643,53.149],[-7.623,53.171],[-7.583,53.17],[-7.542,53.181],[-7.506,53.3],[-7.423,53.334],[-7.403,53.33],[-7.368,53.341],[-7.28,53.392],[-7.28,53.4],[-7.218,53.405],[-7.193,53.434],[-7.158,53.44],[-7.145,53.45],[-7.092,53.454],[-7.067,53.473],[-7.06,53.486],[-7.065,53.495],[-7.034,53.507],[-7.016,53.527],[-7.033,53.564],[-7.021,53.578],[-6.998,53.58],[-6.983,53.594],[-6.986,53.616],[-6.955,53.654],[-6.991,53.675],[-7.03,53.668],[-7.069,53.644],[-7.085,53.649],[-7.118,53.687],[-7.132,53.676],[-7.142,53.678],[-7.224,53.71],[-7.227,53.732],[-7.26,53.743],[-7.283,53.77],[-7.343,53.799],[-7.394,53.78],[-7.421,53.792],[-7.453,53.795],[-7.468,53.808],[-7.468,53.848],[-7.49,53.858],[-7.507,53.863],[-7.567,53.852],[-7.586,53.855],[-7.581,53.867],[-7.557,53.878],[-7.552,53.892],[-7.579,53.906],[-7.592,53.927],[-7.625,53.942],[-7.659,53.934],[-7.715,53.888],[-7.776,53.868],[-7.771,53.843],[-7.785,53.839],[-7.803,53.855],[-7.817,53.851],[-7.823,53.834],[-7.86,53.831],[-7.862,53.808],[-7.884,53.786]]]]}},{"type":"Feature","properties":{"NAME":"Principality of Wales","SUBJECTO":"England","ATLAS_YEAR":1300,"ATTRIBUTION":{"source":"William R. Shepherd, Historical Atlas (1911), p.74, The British Isles about 1300; Internet Archive / Boston Public Library","sourceUrl":"https://archive.org/download/historicalatlas00shep_0/historicalatlas00shep_0.pdf","license":"CC0-1.0","borderPrecision":"歴史図版の手動転写（縮尺1:6,000,000の概略境界。測量境界ではない）","changes":"PD原スキャンの灰色のPrincipalityを自前トレースし、経緯線で座標変換。MarchとChester側のFlintは含めない。 北西部では既存のイングランド外枠と約559 km²の差がある。","imageUrl":"https://archive.org/download/historicalatlas00shep_0/historicalatlas00shep_0_jp2.zip/historicalatlas00shep_0_jp2%2Fhistoricalatlas00shep_0_0074.jp2","imageSha256":"4f28f702ec54177262890e45337b8453f9fd0c345d0a2d1297c4b267df298de0"}},"geometry":{"type":"MultiPolygon","coordinates":[[[[-4.45533,53.42321],[-4.5245,53.40614],[-4.51873,53.36519],[-4.55908,53.32765],[-4.53602,53.28328],[-4.51297,53.22184],[-4.47839,53.18089],[-4.4438,53.20478],[-4.41499,53.17747],[-4.3804,53.19454],[-4.36888,53.13652],[-4.31124,53.15358],[-4.26513,53.18771],[-4.20749,53.23549],[-4.12104,53.27304],[-4.04035,53.32082],[-4.10375,53.32423],[-4.18444,53.2901],[-4.23055,53.32423],[-4.29395,53.37543],[-4.32277,53.42321],[-4.45533,53.42321]]],[[[-3.88473,53.33788],[-3.88473,53.30034],[-3.96542,53.27645],[-4.02882,53.24232],[-4.1268,53.22526],[-4.21902,53.1843],[-4.29971,53.13652],[-4.35159,53.08874],[-4.36888,53.05119],[-4.43804,53.00683],[-4.53026,52.96587],[-4.63401,52.92833],[-4.72046,52.88055],[-4.7781,52.81911],[-4.7781,52.80205],[-4.74928,52.81911],[-4.72046,52.80887],[-4.69164,52.82594],[-4.65706,52.8157],[-4.59942,52.82594],[-4.55331,52.8157],[-4.53026,52.79181],[-4.47839,52.81911],[-4.51297,52.84983],[-4.4611,52.90102],[-4.37464,52.91809],[-4.29971,52.90785],[-4.29971,52.87713],[-4.24207,52.84642],[-4.1902,52.84642],[-4.13256,52.86007],[-4.1268,52.81911],[-4.13256,52.77133],[-4.09222,52.75427],[-4.01153,52.77816],[-4.02305,52.75427],[-4.08646,52.72696],[-4.1268,52.67235],[-4.10951,52.61092],[-4.07493,52.56997],[-4.04611,52.57338],[-4.01729,52.59044],[-3.96542,52.57338],[-3.90778,52.58362],[-3.88473,52.61433],[-3.80403,52.64164],[-3.76945,52.67235],[-3.7464,52.69283],[-3.70029,52.7099],[-3.65994,52.75085],[-3.6196,52.79863],[-3.56196,52.82935],[-3.50432,52.85324],[-3.4755,52.88737],[-3.41787,52.90102],[-3.35447,52.92491],[-3.31412,52.94539],[-3.26225,52.94881],[-3.25072,52.98294],[-3.27378,53],[-3.34294,53.03754],[-3.43516,53.06143],[-3.45821,53.04096],[-3.41787,52.99659],[-3.4928,52.96587],[-3.48127,52.98976],[-3.52738,53.04096],[-3.59654,53.06143],[-3.65994,53.02048],[-3.683,52.99317],[-3.72911,52.98635],[-3.74063,53.03413],[-3.79827,53.08532],[-3.82709,53.17065],[-3.8732,53.23891],[-3.86167,53.29693],[-3.81556,53.30375],[-3.8098,53.32082],[-3.88473,53.33788]]],[[[-4.06916,52.43686],[-4.10951,52.40614],[-4.14986,52.35154],[-4.20173,52.29693],[-4.28818,52.24232],[-4.40922,52.19795],[-4.53026,52.16382],[-4.61095,52.17065],[-4.68012,52.15358],[-4.68012,52.12287],[-4.62824,52.08874],[-4.55908,52.03413],[-4.54179,51.99317],[-4.59942,51.95904],[-4.72046,51.93515],[-4.77233,51.87031],[-4.72046,51.85666],[-4.61671,51.843],[-4.53026,51.843],[-4.43228,51.85324],[-4.38617,51.88055],[-4.28818,51.87713],[-4.14409,51.88396],[-4.01153,51.88737],[-3.91354,51.94881],[-3.85591,51.98976],[-3.79251,52.06485],[-3.75216,52.12287],[-3.78098,52.13993],[-3.86167,52.14334],[-3.97695,52.10922],[-4,52.13993],[-3.95389,52.20137],[-3.91354,52.26962],[-3.84438,52.30375],[-3.7464,52.33106],[-3.64841,52.34471],[-3.63689,52.3686],[-3.66571,52.38908],[-3.78674,52.39932],[-3.96542,52.40614],[-4.06916,52.43686]]],[[[-4.66282,53.32765],[-4.69741,53.31741],[-4.67435,53.30717],[-4.62824,53.30375],[-4.62248,53.27645],[-4.59366,53.25597],[-4.5879,53.27986],[-4.61095,53.32765],[-4.66282,53.32765]]]]}}],"metadata":{"source":"OpenHistoricalMap; Shepherd, Historical Atlas (1911), p.74","sourceUrl":"https://www.openhistoricalmap.org/","license":"CC0-1.0","year":1300,"featureCount":4,"missingWays":{},"unclosedRings":{},"droppedInnerRings":{},"tagDrift":{},"relationsWithoutGeometry":[],"borderPrecision":"史料に基づく復元（概略。測量された境界ではない）"}}