{"type":"FeatureCollection","features":[{"type":"Feature","properties":{"NAME":"Burgandy","SUBJECTO":"Burgandy","PARTOF":"Burgandy","OHM_RELATION_ID":2805402,"START_DATE":"0933","END_DATE":"1032-09-06","EXTENT_ONLY":true},"geometry":{"type":"MultiPolygon","coordinates":[[[[7.402,43.681],[7.435,43.687],[7.473,43.712],[7.516,43.717],[7.538,43.738],[7.509,43.79],[7.518,43.803],[7.51,43.834],[7.497,43.85],[7.505,43.881],[7.492,43.898],[7.49,43.924],[7.511,43.909],[7.528,43.918],[7.54,43.913],[7.554,43.948],[7.604,43.962],[7.589,43.973],[7.618,43.976],[7.641,43.996],[7.612,44.017],[7.534,44.051],[7.445,44.045],[7.38,44.051],[7.341,44.077],[7.294,44.072],[7.286,44.098],[7.274,44.108],[7.258,44.099],[7.242,44.112],[7.238,44.1],[7.193,44.079],[7.173,44.081],[7.153,44.096],[7.153,44.11],[7.102,44.123],[7.073,44.201],[7.021,44.22],[7.019,44.232],[6.998,44.248],[6.991,44.282],[6.957,44.295],[6.96,44.31],[6.926,44.334],[6.919,44.353],[6.889,44.361],[6.897,44.376],[6.892,44.42],[6.944,44.428],[6.936,44.44],[6.913,44.451],[6.904,44.469],[6.877,44.481],[6.854,44.528],[6.876,44.551],[6.916,44.559],[6.997,44.535],[7.081,44.572],[7.101,44.595],[7.091,44.65],[7.066,44.713],[7.03,44.73],[7.022,44.771],[7,44.791],[7.023,44.821],[7.01,44.826],[7.005,44.84],[6.931,44.864],[6.909,44.844],[6.864,44.851],[6.807,44.876],[6.802,44.891],[6.787,44.89],[6.773,44.903],[6.752,44.906],[6.749,44.92],[6.713,44.966],[6.716,44.978],[6.751,44.999],[6.742,45.017],[6.647,45.027],[6.639,45.054],[6.612,45.051],[6.592,45.072],[6.569,45.074],[6.558,45.08],[6.552,45.103],[6.579,45.122],[6.617,45.121],[6.63,45.109],[6.671,45.124],[6.684,45.14],[6.709,45.145],[6.743,45.138],[6.771,45.159],[6.847,45.136],[6.85,45.127],[6.895,45.138],[6.885,45.156],[6.893,45.167],[6.936,45.171],[6.916,45.188],[6.913,45.201],[6.858,45.216],[6.874,45.226],[6.888,45.256],[6.913,45.264],[6.977,45.265],[7.005,45.237],[7.047,45.228],[7.071,45.21],[7.109,45.245],[7.124,45.244],[7.135,45.254],[7.134,45.284],[7.111,45.325],[7.135,45.331],[7.137,45.349],[7.16,45.36],[7.16,45.374],[7.178,45.389],[7.185,45.407],[7.114,45.433],[7.099,45.469],[7.047,45.474],[7.048,45.484],[7.058,45.488],[7.053,45.496],[7.001,45.504],[7.004,45.519],[6.991,45.535],[6.996,45.567],[6.979,45.587],[6.987,45.626],[7.002,45.639],[6.97,45.654],[6.933,45.646],[6.918,45.651],[6.916,45.661],[6.906,45.663],[6.905,45.678],[6.848,45.689],[6.809,45.725],[6.816,45.738],[6.806,45.749],[6.802,45.784],[6.811,45.795],[6.807,45.814],[6.82,45.837],[6.845,45.841],[6.87,45.826],[6.878,45.849],[6.914,45.841],[6.942,45.848],[6.952,45.86],[7,45.875],[7.005,45.901],[7.039,45.922],[7.061,45.913],[7.064,45.9],[7.109,45.858],[7.161,45.878],[7.173,45.864],[7.197,45.86],[7.199,45.872],[7.22,45.889],[7.256,45.888],[7.293,45.921],[7.324,45.91],[7.357,45.911],[7.382,45.897],[7.402,45.911],[7.427,45.915],[7.442,45.93],[7.475,45.936],[7.474,45.949],[7.499,45.962],[7.54,45.956],[7.547,45.985],[7.567,45.987],[7.579,45.986],[7.589,45.971],[7.668,45.974],[7.679,45.959],[7.706,45.949],[7.707,45.935],[7.718,45.924],[7.734,45.924],[7.748,45.94],[7.769,45.937],[7.797,45.919],[7.819,45.927],[7.873,45.92],[7.869,45.937],[7.881,45.964],[7.878,45.972],[7.906,45.994],[7.994,46],[8.001,46.012],[8.012,46.012],[8.019,46.037],[8.034,46.043],[8.022,46.07],[8.033,46.099],[8.007,46.142],[7.98,46.223],[7.985,46.251],[8.032,46.271],[8.081,46.261],[8.137,46.301],[8.179,46.298],[8.212,46.31],[8.224,46.334],[8.26,46.345],[8.264,46.365],[8.281,46.364],[8.315,46.38],[8.316,46.398],[8.293,46.407],[8.306,46.424],[8.339,46.433],[8.367,46.452],[8.382,46.451],[8.392,46.495],[8.442,46.494],[8.477,46.528],[8.425,46.558],[8.428,46.664],[8.458,46.707],[8.453,46.775],[8.366,46.819],[8.352,47.044],[8.388,47.142],[8.443,47.203],[8.429,47.283],[8.361,47.416],[8.275,47.464],[8.255,47.59],[8.183,47.657],[7.965,47.591],[7.929,47.613],[7.854,47.62],[7.803,47.598],[7.693,47.578],[7.618,47.619],[7.572,47.612],[7.535,47.543],[7.43,47.462],[7.335,47.447],[7.162,47.485],[7.189,47.523],[6.894,47.653],[6.839,47.612],[6.79,47.598],[6.716,47.671],[6.761,47.7],[6.741,47.754],[6.823,47.814],[6.659,47.882],[6.563,47.97],[6.511,47.986],[6.475,47.973],[6.428,47.986],[6.38,48.086],[6.225,48.097],[6.13,48.178],[6.008,48.178],[6.027,48.115],[6.084,48.05],[6.088,48.024],[6.015,48.011],[5.922,48.085],[5.815,48.089],[5.79,48.082],[5.799,48.047],[5.75,47.987],[5.738,47.849],[5.702,47.747],[5.622,47.715],[5.562,47.628],[5.515,47.622],[5.49,47.644],[5.455,47.646],[5.42,47.663],[5.389,47.643],[5.389,47.599],[5.411,47.601],[5.396,47.527],[5.399,47.386],[5.428,47.366],[5.444,47.331],[5.419,47.31],[5.416,47.284],[5.394,47.26],[5.398,47.236],[5.42,47.228],[5.416,47.215],[5.372,47.218],[5.358,47.207],[5.303,47.21],[5.264,47.202],[5.194,47.157],[5.161,47.091],[5.118,47.072],[5.128,47.001],[5.091,46.966],[5.083,46.944],[5.05,46.932],[5.021,46.897],[4.964,46.894],[4.95,46.882],[4.962,46.872],[4.995,46.881],[5.015,46.856],[5.07,46.846],[5.072,46.714],[5.094,46.713],[5.133,46.67],[5.122,46.631],[5.054,46.615],[5.028,46.591],[5.027,46.562],[4.967,46.492],[4.928,46.473],[4.881,46.404],[4.756,46.186],[4.789,46.163],[4.752,46.096],[4.633,46.087],[4.605,46.065],[4.59,46.019],[4.562,46.022],[4.473,45.992],[4.444,46.007],[4.43,46.038],[4.397,46.04],[4.37,45.972],[4.327,45.969],[4.254,45.938],[4.196,45.969],[4.111,45.972],[4.09,46.047],[4.101,46.077],[3.988,46.113],[3.925,46.048],[3.899,46.046],[3.838,46.013],[3.811,45.971],[3.755,45.963],[3.735,45.94],[3.728,45.911],[3.774,45.855],[3.796,45.708],[3.826,45.698],[3.882,45.696],[3.926,45.674],[3.944,45.627],[3.936,45.58],[3.979,45.518],[4.031,45.482],[4.051,45.401],[4.051,45.369],[4.063,45.355],[4.103,45.398],[4.118,45.402],[4.201,45.384],[4.221,45.391],[4.249,45.383],[4.283,45.384],[4.32,45.323],[4.376,45.319],[4.405,45.267],[4.348,45.174],[4.349,45.148],[4.362,45.131],[4.334,44.971],[4.249,44.934],[4.197,44.852],[4.024,44.877],[3.93,44.875],[3.815,44.821],[3.859,44.717],[3.829,44.686],[3.864,44.643],[3.892,44.585],[4.007,44.551],[4.01,44.428],[3.937,44.427],[3.897,44.391],[3.908,44.327],[3.881,44.265],[3.958,44.19],[4.057,44.161],[4.142,44.05],[4.136,43.959],[4.2,43.898],[4.388,43.9],[4.511,43.875],[4.458,43.789],[4.349,43.72],[4.307,43.754],[4.172,43.678],[4.047,43.556],[4.059,43.5],[4.103,43.453],[4.182,43.428],[4.394,43.409],[4.514,43.415],[4.503,43.402],[4.499,43.377],[4.514,43.354],[4.554,43.33],[4.605,43.316],[4.675,43.307],[4.765,43.311],[4.817,43.292],[4.849,43.291],[4.894,43.302],[4.955,43.352],[4.983,43.314],[5.037,43.287],[5.241,43.291],[5.233,43.27],[5.244,43.241],[5.278,43.224],[5.283,43.192],[5.32,43.172],[5.343,43.145],[5.371,43.136],[5.415,43.136],[5.449,43.163],[5.471,43.165],[5.518,43.16],[5.546,43.139],[5.589,43.123],[5.616,43.119],[5.648,43.125],[5.665,43.111],[5.723,43.093],[5.726,43.066],[5.741,43.042],[5.822,43.011],[5.874,43.011],[5.905,43.028],[5.961,43.029],[5.991,43.046],[6.04,43.04],[6.044,43.019],[6.066,42.996],[6.106,42.989],[6.138,42.963],[6.175,42.947],[6.207,42.943],[6.284,42.969],[6.306,42.998],[6.344,42.964],[6.399,42.955],[6.502,42.985],[6.561,43.033],[6.563,43.055],[6.554,43.072],[6.514,43.091],[6.423,43.075],[6.422,43.102],[6.508,43.113],[6.574,43.138],[6.589,43.127],[6.628,43.121],[6.684,43.14],[6.729,43.182],[6.734,43.205],[6.724,43.222],[6.75,43.258],[6.744,43.286],[6.723,43.302],[6.724,43.308],[6.762,43.327],[6.778,43.369],[6.885,43.38],[6.956,43.42],[7.001,43.478],[7.056,43.466],[7.105,43.487],[7.12,43.503],[7.159,43.51],[7.178,43.519],[7.197,43.544],[7.181,43.606],[7.243,43.616],[7.277,43.647],[7.316,43.637],[7.357,43.641],[7.387,43.659],[7.402,43.681]]]]}}],"metadata":{"source":"OpenHistoricalMap","sourceUrl":"https://www.openhistoricalmap.org/","license":"CC0-1.0","year":1000,"relationId":2805402,"startDate":"0933","endDate":"1032-09-06","missingWays":[],"unclosedRings":0,"droppedInnerRings":0,"sourceRelation":"https://www.openhistoricalmap.org/relation/2805402","inputSha256":"1f3ffd35a5842d939a089e52b11b1d94371ecb9e7f77e02b3b5ab9996e84ab4f","timestampOsmBase":"2026-09-07T12:21:50Z","endpoint":"https://overpass-api.openhistoricalmap.org/api/interpreter","query":"[out:json][timeout:45];(rel(2805402);rel(2805403);rel(2892596);rel(2750108);rel(2810170););out geom;","uncertainty":"同年代の表示整合の基準。史料で確定した境界ではない。OHMの推測・年代未確定図版に由来する区間を含む（#513の利用者判断）。","borderPrecision":"史料に基づく復元（概略。測量された境界ではない）"}}