{"type":"FeatureCollection","features":[{"type":"Feature","properties":{"NAME":"(Duchies of Poland)","SUBJECTO":"Poland","PARTOF":"Poland","CLIOPATRIA_COMPOSITE":"parent","CLIOPATRIA_BASE_POWER":"Poland","START_DATE":"1279","END_DATE":"1284","CLIOPATRIA_NAME":"(Duchies of Poland)","CLIOPATRIA_SESHAT_ID":"pl_piast_dyn_2","CLIOPATRIA_AREA_KM2":181013,"WIKIDATA":"Q2984183","WIKIPEDIA":"Testament of Bolesław III Wrymouth","SNAPSHOT_YEAR":1279},"geometry":{"type":"MultiPolygon","coordinates":[[[[18.8798,49.44889],[18.88354,49.51522],[18.79997,49.51522],[18.80743,49.64793],[18.48738,49.91356],[17.65599,50.04647],[17.5787,50.17946],[17.24604,50.24598],[15.92286,50.77881],[15.92551,50.84549],[15.92818,50.9122],[15.93087,50.97892],[15.68012,51.04567],[15.69055,51.31284],[15.69319,51.37968],[15.6085,51.37968],[15.61111,51.44654],[15.61374,51.51342],[15.52896,51.51342],[15.53156,51.58032],[15.53417,51.64724],[15.44931,51.64724],[15.36445,51.64724],[15.27959,51.64724],[15.19473,51.64724],[14.93326,51.44654],[14.76379,51.44654],[14.60071,51.64724],[14.60286,51.71418],[14.6072,51.84813],[14.95187,51.98215],[14.95665,52.11626],[14.62271,52.31758],[14.70801,52.31758],[14.71262,52.45189],[15.05415,52.45189],[15.31293,52.51908],[15.23272,52.65353],[16.00843,52.78807],[16.01149,52.85537],[16.28132,53.12479],[16.71397,53.1922],[16.72449,53.39457],[16.9038,53.52959],[17.76489,53.52959],[17.7773,53.7323],[17.53472,54.00291],[17.57611,54.68112],[17.48919,54.68112],[17.49753,54.81705],[17.50172,54.88506],[18.45948,54.88506],[18.44533,54.68112],[18.68685,54.40955],[19.28883,54.34171],[19.37551,54.34171],[19.25849,53.93523],[19.42111,53.79992],[19.40598,53.59714],[19.06136,53.59714],[18.96567,53.46207],[18.52635,53.32709],[18.51741,53.1922],[18.68917,53.1922],[18.92821,52.92269],[19.0996,52.92269],[19.62879,53.12479],[19.72481,53.25963],[20.39585,53.0574],[20.66998,53.25963],[20.92775,53.25963],[21.28937,53.46207],[22.42145,53.59714],[22.49425,53.46207],[22.30254,53.25963],[22.64623,53.25963],[22.42883,52.78807],[22.34323,52.78807],[22.42241,52.72079],[22.2929,52.25045],[22.10417,52.04919],[22.34723,51.91513],[22.68736,51.91513],[22.66858,51.71418],[22.99545,51.58032],[22.87944,51.24602],[23.04241,51.17921],[23.02383,50.97892],[23.10827,50.97892],[23.0898,50.77881],[22.91514,50.71214],[22.94603,50.11296],[22.25832,49.91356],[22.15319,49.64793],[21.9859,49.64793],[21.288,50.37908],[21.03577,50.37908],[20.89251,50.71214],[20.20893,50.57886],[20.2183,50.71214],[20.04975,50.71214],[19.97469,50.84549],[19.5529,50.84549],[19.3973,51.04567],[19.13959,50.97892],[18.9791,51.11243],[18.63697,51.04567],[18.62894,50.9122],[18.62496,50.84549],[18.70932,50.84549],[18.70531,50.77881],[18.70133,50.71214],[19.03019,50.57886],[19.02203,50.44566],[19.18613,50.37908],[19.15777,49.91356],[19.39697,49.71431],[19.38893,49.58157],[19.30533,49.58157],[19.30137,49.51522],[19.21781,49.51522],[19.13424,49.51522],[19.13038,49.44889],[19.04685,49.44889],[18.96333,49.44889],[18.8798,49.44889]]]]}},{"type":"Feature","properties":{"NAME":"County of Armagnac","START_DATE":"1279","END_DATE":"1332","CLIOPATRIA_NAME":"County of Armagnac","CLIOPATRIA_SESHAT_ID":"fr_capetian_k_2","CLIOPATRIA_AREA_KM2":6985,"WIKIDATA":"Q676745","WIKIPEDIA":"County of Armagnac","SNAPSHOT_YEAR":1279},"geometry":{"type":"MultiPolygon","coordinates":[[[[-0.28113,43.99384],[-0.32871,43.47235],[0.00901,43.21183],[0.08936,43.21183],[0.08153,43.34207],[0.40318,43.34207],[0.47603,43.47235],[0.63698,43.47235],[0.94799,43.66784],[0.92225,44.12432],[0.2839,43.99384],[0.03771,44.05907],[0.04174,43.99384],[-0.03898,43.99384],[-0.11969,43.99384],[-0.20041,43.99384],[-0.28113,43.99384]]]]}},{"type":"Feature","properties":{"NAME":"County of Auvergne","START_DATE":"1272","END_DATE":"1332","CLIOPATRIA_NAME":"County of Auvergne","CLIOPATRIA_SESHAT_ID":"fr_capetian_k_2","CLIOPATRIA_AREA_KM2":19408,"WIKIDATA":"Q1152","WIKIPEDIA":"Auvergne","SNAPSHOT_YEAR":1279},"geometry":{"type":"MultiPolygon","coordinates":[[[[4.35172,45.30044],[4.35424,45.235],[4.35675,45.16959],[4.12323,44.90802],[3.96092,44.90802],[3.96617,44.77729],[3.5607,44.77729],[3.47398,44.90802],[3.23051,44.90802],[3.15816,44.71195],[2.91798,44.64661],[2.74667,44.84265],[2.58442,44.84265],[2.51599,44.58129],[2.27624,44.51598],[2.10101,44.77729],[2.16879,45.03878],[2.40265,45.235],[2.30465,45.56227],[2.53596,45.8243],[2.60112,46.15209],[2.77113,46.02094],[3.01311,46.08651],[3.2674,45.88983],[3.34904,45.88983],[3.34306,46.02094],[3.66988,46.02094],[3.6756,45.88983],[3.92327,45.8243],[3.93147,45.62776],[4.01298,45.62776],[3.94229,45.36588],[4.27037,45.30044],[4.35172,45.30044]]],[[[1.58038,50.9122],[1.84193,50.77881],[1.60179,50.57886],[1.5176,50.57886],[1.42471,50.71214],[1.50898,50.71214],[1.49598,50.9122],[1.58038,50.9122]]]]}},{"type":"Feature","properties":{"NAME":"County of Blôis","START_DATE":"1250","END_DATE":"1293","CLIOPATRIA_NAME":"County of Blôis","CLIOPATRIA_SESHAT_ID":"fr_capetian_k_2","CLIOPATRIA_AREA_KM2":8090,"WIKIDATA":"Q19336869","WIKIPEDIA":"County of Blois","SNAPSHOT_YEAR":1279},"geometry":{"type":"MultiPolygon","coordinates":[[[[1.31239,47.20317],[1.40254,47.07159],[1.89226,47.13737],[1.76812,47.86186],[1.68547,47.86186],[1.73301,48.45594],[1.56706,48.45594],[1.3888,48.65424],[1.06073,48.58812],[0.8203,48.45594],[0.92467,48.12574],[0.92892,48.05975],[1.27627,47.79593],[1.19774,47.73],[1.30842,47.26897],[1.31239,47.20317]]]]}},{"type":"Feature","properties":{"NAME":"County of Foix","START_DATE":"1279","END_DATE":"1293","CLIOPATRIA_NAME":"County of Foix","CLIOPATRIA_SESHAT_ID":"fr_capetian_k_2","CLIOPATRIA_AREA_KM2":4515,"WIKIDATA":"Q1481436","WIKIPEDIA":"County of Foix","SNAPSHOT_YEAR":1279},"geometry":{"type":"MultiPolygon","coordinates":[[[[1.07469,42.82134],[1.48554,42.62621],[1.56562,42.62621],[1.64571,42.62621],[1.7258,42.62621],[1.87324,42.8864],[1.30498,43.01654],[1.27728,43.5375],[0.94799,43.66784],[0.63698,43.47235],[0.96608,43.34207],[0.81254,43.21183],[0.98393,43.01654],[0.99452,42.82134],[1.07469,42.82134]]]]}},{"type":"Feature","properties":{"NAME":"County of Périgord","START_DATE":"1272","END_DATE":"1332","CLIOPATRIA_NAME":"County of Périgord","CLIOPATRIA_SESHAT_ID":"fr_capetian_k_2","CLIOPATRIA_AREA_KM2":8547,"WIKIDATA":"Q1947408","WIKIPEDIA":"County of Périgord","SNAPSHOT_YEAR":1279},"geometry":{"type":"MultiPolygon","coordinates":[[[[-0.17808,44.90802],[0.22361,44.97339],[0.68311,45.43133],[1.10159,45.235],[1.19787,44.97339],[1.44866,44.84265],[1.3784,44.64661],[1.06543,44.45068],[-0.07183,44.51598],[-0.17808,44.90802]]]]}},{"type":"Feature","properties":{"NAME":"Duchies of Poland","SUBJECTO":"Poland","PARTOF":"Poland","CLIOPATRIA_COMPOSITE":"child","CLIOPATRIA_BASE_POWER":"Poland","START_DATE":"1279","END_DATE":"1293","CLIOPATRIA_NAME":"Duchies of Poland","CLIOPATRIA_SESHAT_ID":"pl_piast_dyn_2","CLIOPATRIA_AREA_KM2":55490,"WIKIDATA":"Q2984183","WIKIPEDIA":"Testament of Bolesław III Wrymouth","SNAPSHOT_YEAR":1279},"geometry":{"type":"MultiPolygon","coordinates":[[[[19.42298,52.65353],[19.48443,52.31758],[20.07642,52.25045],[20.06635,52.11626],[20.30648,51.91513],[20.56157,51.91513],[20.72108,51.78114],[20.7106,51.64724],[20.95984,51.58032],[20.39165,50.77881],[20.2183,50.71214],[20.04975,50.71214],[19.97469,50.84549],[19.5529,50.84549],[19.3973,51.04567],[19.13959,50.97892],[18.9791,51.11243],[18.63697,51.04567],[18.62894,50.9122],[18.29519,50.97892],[17.97229,51.24602],[18.07995,51.64724],[18.26169,51.84813],[18.26573,51.91513],[18.35076,51.91513],[18.36311,52.11626],[18.27795,52.11626],[18.21327,52.45189],[18.05064,52.5863],[17.79423,52.5863],[17.38189,52.85537],[17.12494,52.85537],[16.71397,53.1922],[16.72449,53.39457],[16.9038,53.52959],[17.76489,53.52959],[17.7773,53.7323],[17.53472,54.00291],[17.57611,54.68112],[17.48919,54.68112],[17.49753,54.81705],[17.50172,54.88506],[18.45948,54.88506],[18.44533,54.68112],[18.68685,54.40955],[19.28883,54.34171],[19.37551,54.34171],[19.25849,53.93523],[19.42111,53.79992],[19.40598,53.59714],[19.06136,53.59714],[18.96567,53.46207],[18.52635,53.32709],[18.51741,53.1922],[18.68917,53.1922],[18.92821,52.92269],[19.0996,52.92269],[19.42298,52.65353]]]]}},{"type":"Feature","properties":{"NAME":"Duchy of Aquitaine","START_DATE":"1250","END_DATE":"1304","CLIOPATRIA_NAME":"Duchy of Aquitaine","CLIOPATRIA_SESHAT_ID":"fr_capetian_k_2","CLIOPATRIA_AREA_KM2":9626,"WIKIDATA":"Q7703611","WIKIPEDIA":"Duchy of Aquitaine","SNAPSHOT_YEAR":1279},"geometry":{"type":"MultiPolygon","coordinates":[[[[1.19787,44.97339],[1.10159,45.235],[0.68311,45.43133],[0.91171,45.69326],[0.90383,45.8243],[2.30465,45.56227],[2.40265,45.235],[2.16879,45.03878],[2.10101,44.77729],[1.44866,44.84265],[1.19787,44.97339]]]]}},{"type":"Feature","properties":{"NAME":"Duchy of Bavaria","SUBJECTO":"Holy Roman Empire","PARTOF":"Holy Roman Empire","START_DATE":"1279","END_DATE":"1293","CLIOPATRIA_NAME":"Duchy of Bavaria","CLIOPATRIA_SESHAT_ID":"de_empire_3","CLIOPATRIA_AREA_KM2":35323,"WIKIDATA":"Q47261","WIKIPEDIA":"Duchy of Bavaria","SNAPSHOT_YEAR":1279},"geometry":{"type":"MultiPolygon","coordinates":[[[[11.44272,48.85268],[11.27522,48.52202],[10.94311,48.45594],[10.86008,48.32381],[11.8549,48.32381],[11.93683,48.19175],[12.35032,48.12574],[12.43037,47.86186],[12.59419,47.73],[12.50811,47.40062],[12.34267,47.33479],[12.26206,47.53233],[12.01463,47.53233],[11.84801,47.26897],[11.60099,47.26897],[11.43655,47.33479],[11.43703,47.46647],[11.27214,47.46647],[11.27232,47.53233],[10.69491,47.59821],[10.61239,47.59821],[10.69478,47.73],[10.44686,47.79593],[10.52847,48.32381],[10.44557,48.32381],[10.44497,48.58812],[10.27844,48.72037],[10.27802,48.85268],[10.02781,48.98506],[10.02719,49.1175],[10.36024,49.25001],[10.61073,48.91887],[10.94356,48.85268],[11.02701,48.98506],[10.86053,49.05127],[11.2773,49.1175],[11.27781,49.25001],[11.02757,49.25001],[11.02804,49.44889],[11.2789,49.51522],[11.19636,49.78071],[11.6997,49.91356],[11.86973,50.17946],[12.1216,50.17946],[12.37092,49.98001],[12.36765,49.71431],[12.78024,49.31629],[12.44331,49.05127],[11.85918,48.91887],[11.77595,48.91887],[11.44272,48.85268]]],[[[7.69093,49.25001],[7.68822,49.38258],[7.35726,49.25001],[7.0153,49.58157],[7.60054,49.58157],[7.50977,49.91356],[7.76117,49.91356],[7.8488,49.71431],[8.26721,49.71431],[8.35509,49.44889],[8.60568,49.44889],[8.77447,49.31629],[8.27484,49.25001],[8.11267,48.98506],[8.02941,48.98506],[7.69093,49.25001]]]]}},{"type":"Feature","properties":{"NAME":"Duchy of Greater Poland","SUBJECTO":"Poland","PARTOF":"Poland","CLIOPATRIA_COMPOSITE":"child","CLIOPATRIA_BASE_POWER":"Poland","START_DATE":"1279","END_DATE":"1293","CLIOPATRIA_NAME":"Duchy of Greater Poland","CLIOPATRIA_SESHAT_ID":"pl_piast_dyn_2","CLIOPATRIA_AREA_KM2":25762,"WIKIDATA":"Q1515009","WIKIPEDIA":"Duchy of Greater Poland","SNAPSHOT_YEAR":1279},"geometry":{"type":"MultiPolygon","coordinates":[[[[18.26573,51.91513],[18.35076,51.91513],[18.36311,52.11626],[18.27795,52.11626],[18.21327,52.45189],[18.05064,52.5863],[17.79423,52.5863],[17.38189,52.85537],[17.12494,52.85537],[16.71397,53.1922],[16.28132,53.12479],[16.01149,52.85537],[16.00843,52.78807],[15.23272,52.65353],[15.31293,52.51908],[15.05415,52.45189],[15.39035,52.31758],[15.46762,52.11626],[16.06079,52.04919],[16.13699,51.84813],[16.719,51.58032],[16.97678,51.64724],[17.05156,51.44654],[17.47522,51.44654],[17.97229,51.24602],[18.07995,51.64724],[18.26169,51.84813],[18.26573,51.91513]]]]}},{"type":"Feature","properties":{"NAME":"Duchy of Głogów","SUBJECTO":"Poland","PARTOF":"Poland","CLIOPATRIA_COMPOSITE":"child","CLIOPATRIA_BASE_POWER":"Poland","START_DATE":"1279","END_DATE":"1304","CLIOPATRIA_NAME":"Duchy of Głogów","CLIOPATRIA_SESHAT_ID":"pl_piast_dyn_2","CLIOPATRIA_AREA_KM2":3087,"WIKIDATA":"Q684501","WIKIPEDIA":"Duchy of Głogów","SNAPSHOT_YEAR":1279},"geometry":{"type":"MultiPolygon","coordinates":[[[[15.87083,51.58032],[16.7032,51.24602],[17.05156,51.44654],[16.97678,51.64724],[16.719,51.58032],[16.13699,51.84813],[15.7915,51.71418],[15.53942,51.78114],[15.44931,51.64724],[15.53417,51.64724],[15.61903,51.64724],[15.70389,51.64724],[15.78875,51.64724],[15.87361,51.64724],[15.87083,51.58032]]]]}},{"type":"Feature","properties":{"NAME":"Duchy of Jawor","SUBJECTO":"Poland","PARTOF":"Poland","CLIOPATRIA_COMPOSITE":"child","CLIOPATRIA_BASE_POWER":"Poland","START_DATE":"1279","END_DATE":"1304","CLIOPATRIA_NAME":"Duchy of Jawor","CLIOPATRIA_SESHAT_ID":"pl_piast_dyn_2","CLIOPATRIA_AREA_KM2":945,"WIKIDATA":"Q561204","WIKIPEDIA":"Duchy of Jawor","SNAPSHOT_YEAR":1279},"geometry":{"type":"MultiPolygon","coordinates":[[[[15.68012,51.04567],[15.69055,51.31284],[16.35889,51.11243],[15.93087,50.97892],[15.68012,51.04567]]]]}},{"type":"Feature","properties":{"NAME":"Duchy of Legnica","SUBJECTO":"Poland","PARTOF":"Poland","CLIOPATRIA_COMPOSITE":"child","CLIOPATRIA_BASE_POWER":"Poland","START_DATE":"1279","END_DATE":"1304","CLIOPATRIA_NAME":"Duchy of Legnica","CLIOPATRIA_SESHAT_ID":"pl_piast_dyn_2","CLIOPATRIA_AREA_KM2":2323,"WIKIDATA":"Q570740","WIKIPEDIA":"Duchy of Legnica","SNAPSHOT_YEAR":1279},"geometry":{"type":"MultiPolygon","coordinates":[[[[15.61374,51.51342],[15.61111,51.44654],[15.6085,51.37968],[15.69319,51.37968],[15.69055,51.31284],[16.35889,51.11243],[16.44341,51.11243],[16.52794,51.11243],[16.53095,51.17921],[16.61552,51.17921],[16.70008,51.17921],[16.7032,51.24602],[15.87083,51.58032],[15.87361,51.64724],[15.78875,51.64724],[15.70389,51.64724],[15.61903,51.64724],[15.53417,51.64724],[15.53156,51.58032],[15.52896,51.51342],[15.61374,51.51342]]]]}},{"type":"Feature","properties":{"NAME":"Duchy of Masovia","SUBJECTO":"Poland","PARTOF":"Poland","CLIOPATRIA_COMPOSITE":"child","CLIOPATRIA_BASE_POWER":"Poland","START_DATE":"1279","END_DATE":"1304","CLIOPATRIA_NAME":"Duchy of Masovia","CLIOPATRIA_SESHAT_ID":"pl_piast_dyn_2","CLIOPATRIA_AREA_KM2":31317,"WIKIDATA":"Q2361927","WIKIPEDIA":"Duchy of Masovia","SNAPSHOT_YEAR":1279},"geometry":{"type":"MultiPolygon","coordinates":[[[[22.2929,52.25045],[22.42241,52.72079],[22.34323,52.78807],[22.42883,52.78807],[22.64623,53.25963],[22.30254,53.25963],[22.49425,53.46207],[22.42145,53.59714],[21.28937,53.46207],[20.92775,53.25963],[20.66998,53.25963],[20.39585,53.0574],[19.72481,53.25963],[19.62879,53.12479],[19.0996,52.92269],[19.42298,52.65353],[19.48443,52.31758],[20.07642,52.25045],[20.06635,52.11626],[20.30648,51.91513],[20.56157,51.91513],[20.72108,51.78114],[20.7106,51.64724],[20.95984,51.58032],[22.10417,52.04919],[22.2929,52.25045]]]]}},{"type":"Feature","properties":{"NAME":"Duchy of Opole","SUBJECTO":"Poland","PARTOF":"Poland","CLIOPATRIA_COMPOSITE":"child","CLIOPATRIA_BASE_POWER":"Poland","START_DATE":"1272","END_DATE":"1284","CLIOPATRIA_NAME":"Duchy of Opole","CLIOPATRIA_SESHAT_ID":"pl_piast_dyn_2","CLIOPATRIA_AREA_KM2":12261,"WIKIDATA":"Q661980","WIKIPEDIA":"Duchy of Opole","SNAPSHOT_YEAR":1279},"geometry":{"type":"MultiPolygon","coordinates":[[[[19.13038,49.44889],[19.13424,49.51522],[19.21781,49.51522],[19.30137,49.51522],[19.30533,49.58157],[19.38893,49.58157],[19.39697,49.71431],[19.15777,49.91356],[19.18613,50.37908],[19.02203,50.44566],[19.03019,50.57886],[18.70133,50.71214],[18.03078,50.77881],[17.94646,50.77881],[17.43383,50.64549],[17.24604,50.24598],[17.5787,50.17946],[17.65599,50.04647],[18.48738,49.91356],[18.80743,49.64793],[18.79997,49.51522],[18.88354,49.51522],[18.8798,49.44889],[18.96333,49.44889],[19.04685,49.44889],[19.13038,49.44889]]]]}},{"type":"Feature","properties":{"NAME":"Duchy of Sandomierz","SUBJECTO":"Poland","PARTOF":"Poland","CLIOPATRIA_COMPOSITE":"child","CLIOPATRIA_BASE_POWER":"Poland","START_DATE":"1279","END_DATE":"1284","CLIOPATRIA_NAME":"Duchy of Sandomierz","CLIOPATRIA_SESHAT_ID":"pl_piast_dyn_2","CLIOPATRIA_AREA_KM2":30741,"WIKIDATA":"Q16933165","WIKIPEDIA":"Duchy of Sandomierz","SNAPSHOT_YEAR":1279},"geometry":{"type":"MultiPolygon","coordinates":[[[[22.15319,49.64793],[22.25832,49.91356],[22.94603,50.11296],[22.91514,50.71214],[23.0898,50.77881],[23.10827,50.97892],[23.02383,50.97892],[23.04241,51.17921],[22.87944,51.24602],[22.99545,51.58032],[22.66858,51.71418],[22.68736,51.91513],[22.34723,51.91513],[22.10417,52.04919],[20.95984,51.58032],[20.39165,50.77881],[20.2183,50.71214],[20.20893,50.57886],[20.89251,50.71214],[21.03577,50.37908],[21.288,50.37908],[21.9859,49.64793],[22.15319,49.64793]]]]}},{"type":"Feature","properties":{"NAME":"Duchy of Silesia","SUBJECTO":"Poland","PARTOF":"Poland","CLIOPATRIA_COMPOSITE":"child","CLIOPATRIA_BASE_POWER":"Poland","START_DATE":"1279","END_DATE":"1293","CLIOPATRIA_NAME":"Duchy of Silesia","CLIOPATRIA_SESHAT_ID":"pl_piast_dyn_2","CLIOPATRIA_AREA_KM2":19086,"WIKIDATA":"Q568638","WIKIPEDIA":"Duchy of Silesia","SNAPSHOT_YEAR":1279},"geometry":{"type":"MultiPolygon","coordinates":[[[[17.94646,50.77881],[17.43383,50.64549],[17.24604,50.24598],[15.92286,50.77881],[15.92551,50.84549],[15.92818,50.9122],[15.93087,50.97892],[16.35889,51.11243],[16.44341,51.11243],[16.52794,51.11243],[16.53095,51.17921],[16.61552,51.17921],[16.70008,51.17921],[16.7032,51.24602],[17.05156,51.44654],[17.47522,51.44654],[17.97229,51.24602],[18.29519,50.97892],[18.62894,50.9122],[18.62496,50.84549],[18.70932,50.84549],[18.70531,50.77881],[18.70133,50.71214],[18.03078,50.77881],[17.94646,50.77881]]],[[[15.19473,51.64724],[14.93326,51.44654],[14.76379,51.44654],[14.60071,51.64724],[14.60286,51.71418],[14.6072,51.84813],[14.95187,51.98215],[14.95665,52.11626],[14.62271,52.31758],[14.70801,52.31758],[14.71262,52.45189],[15.05415,52.45189],[15.39035,52.31758],[15.46762,52.11626],[16.06079,52.04919],[16.13699,51.84813],[15.7915,51.71418],[15.53942,51.78114],[15.44931,51.64724],[15.36445,51.64724],[15.27959,51.64724],[15.19473,51.64724]]]]}},{"type":"Feature","properties":{"NAME":"Kingdom of Bohemia","SUBJECTO":"Holy Roman Empire","PARTOF":"Holy Roman Empire","START_DATE":"1279","END_DATE":"1284","CLIOPATRIA_NAME":"Kingdom of Bohemia","CLIOPATRIA_SESHAT_ID":"cz_bohemian_k_1","CLIOPATRIA_AREA_KM2":80824,"WIKIDATA":"Q42585","WIKIPEDIA":"Kingdom of Bohemia","SNAPSHOT_YEAR":1279},"geometry":{"type":"MultiPolygon","coordinates":[[[[14.09756,48.52202],[14.01455,48.52202],[14.01596,48.58812],[14.09901,48.58812],[14.09756,48.52202]]],[[[18.37862,49.44889],[17.93814,48.98506],[16.92799,48.72037],[16.17991,48.72037],[15.68774,48.91887],[14.94054,48.98506],[14.76513,48.65424],[14.09901,48.58812],[13.93709,48.78652],[13.607,48.91887],[13.52377,48.91887],[13.52501,48.98506],[13.44174,48.98506],[13.35848,48.98506],[13.11297,49.25001],[12.78024,49.31629],[12.36765,49.71431],[12.37092,49.98001],[12.1216,50.17946],[12.12234,50.24598],[12.29033,50.24598],[12.37608,50.37908],[12.79645,50.37908],[13.22205,50.64549],[13.98528,50.84549],[14.06964,50.84549],[14.154,50.84549],[14.15581,50.9122],[14.2402,50.9122],[14.24207,50.97892],[14.32651,50.97892],[14.32842,51.04567],[14.49738,51.04567],[14.5778,50.9122],[15.25535,50.97892],[15.41695,50.77881],[15.92286,50.77881],[17.24604,50.24598],[17.5787,50.17946],[17.65599,50.04647],[18.48738,49.91356],[18.80743,49.64793],[18.79997,49.51522],[18.37862,49.44889]]]]}},{"type":"Feature","properties":{"NAME":"Margraviate of Brandenburg","SUBJECTO":"Holy Roman Empire","PARTOF":"Holy Roman Empire","START_DATE":"1272","END_DATE":"1304","CLIOPATRIA_NAME":"Margraviate of Brandenburg","CLIOPATRIA_SESHAT_ID":"de_empire_3","CLIOPATRIA_AREA_KM2":41413,"WIKIDATA":"Q148499","WIKIPEDIA":"Margraviate of Brandenburg","SNAPSHOT_YEAR":1279},"geometry":{"type":"MultiPolygon","coordinates":[[[[16.01149,52.85537],[16.28132,53.12479],[16.71397,53.1922],[16.72449,53.39457],[16.9038,53.52959],[16.6596,53.79992],[16.31441,53.79992],[16.41101,54.00291],[15.98204,54.07063],[16.04909,53.66471],[15.79355,53.7323],[15.70427,53.66471],[15.78133,53.46207],[15.43993,53.52959],[15.25675,53.25963],[14.82465,53.1922],[14.64814,53.0574],[14.47656,53.0574],[14.22566,53.25963],[14.31603,53.39457],[13.89605,53.7323],[13.5492,53.66471],[13.19619,53.32709],[12.16561,53.39457],[11.91039,53.59714],[11.73808,53.59714],[11.5635,53.39457],[11.30606,53.46207],[11.1329,53.32709],[11.21776,53.1922],[11.38952,53.1922],[11.38824,53.0574],[11.21667,53.0574],[11.04376,52.85537],[11.04246,52.65353],[11.2135,52.65353],[11.0408,52.38472],[12.23759,52.51908],[12.4927,52.45189],[12.49038,52.31758],[12.40509,52.31758],[12.48696,52.11626],[13.16825,52.11626],[13.17123,52.25045],[13.42535,52.18334],[13.68449,52.31758],[13.68804,52.45189],[14.62271,52.31758],[14.70801,52.31758],[14.71262,52.45189],[15.05415,52.45189],[15.31293,52.51908],[15.23272,52.65353],[16.00843,52.78807],[16.01149,52.85537]]]]}}],"metadata":{"generatedBy":"scripts/build-cliopatria-fiefs.ts","year":1279,"featureCount":19,"archiveUrl":"https://raw.githubusercontent.com/Seshat-Global-History-Databank/cliopatria/ad28a691b7c07c1fca89d0e0636d324667d2a258/cliopatria.geojson.zip","archiveSha256":"d01ae3a20d358cc5d54f69d9d725d390767d9c8759ac89ad6f90c58d106f3370","doi":"10.5281/zenodo.14714684","citation":"Bennett, J., Mutch, E., Chalstrey, E. et al. (2025) Cliopatria: A geospatial database of world-wide political entities from 3400BCE to 2024CE. Scientific Data.","selected":[{"name":"(Duchies of Poland)","upstreamName":"(Duchies of Poland)","fromYear":1279,"toYear":1284,"upstreamAreaKm2":181013},{"name":"County of Armagnac","upstreamName":"County of Armagnac","fromYear":1279,"toYear":1332,"upstreamAreaKm2":6985},{"name":"County of Auvergne","upstreamName":"County of Auvergne","fromYear":1272,"toYear":1332,"upstreamAreaKm2":19408},{"name":"County of Blôis","upstreamName":"County of Blôis","fromYear":1250,"toYear":1293,"upstreamAreaKm2":8090},{"name":"County of Foix","upstreamName":"County of Foix","fromYear":1279,"toYear":1293,"upstreamAreaKm2":4515},{"name":"County of Périgord","upstreamName":"County of Périgord","fromYear":1272,"toYear":1332,"upstreamAreaKm2":8547},{"name":"Duchies of Poland","upstreamName":"Duchies of Poland","fromYear":1279,"toYear":1293,"upstreamAreaKm2":55490},{"name":"Duchy of Aquitaine","upstreamName":"Duchy of Aquitaine","fromYear":1250,"toYear":1304,"upstreamAreaKm2":9626},{"name":"Duchy of Bavaria","upstreamName":"Duchy of Bavaria","fromYear":1279,"toYear":1293,"upstreamAreaKm2":35323},{"name":"Duchy of Greater Poland","upstreamName":"Duchy of Greater Poland","fromYear":1279,"toYear":1293,"upstreamAreaKm2":25762},{"name":"Duchy of Głogów","upstreamName":"Duchy of Głogów","fromYear":1279,"toYear":1304,"upstreamAreaKm2":3087},{"name":"Duchy of Jawor","upstreamName":"Duchy of Jawor","fromYear":1279,"toYear":1304,"upstreamAreaKm2":945},{"name":"Duchy of Legnica","upstreamName":"Duchy of Legnica","fromYear":1279,"toYear":1304,"upstreamAreaKm2":2323},{"name":"Duchy of Masovia","upstreamName":"Duchy of Masovia","fromYear":1279,"toYear":1304,"upstreamAreaKm2":31317},{"name":"Duchy of Opole","upstreamName":"Duchy of Opole","fromYear":1272,"toYear":1284,"upstreamAreaKm2":12261},{"name":"Duchy of Sandomierz","upstreamName":"Duchy of Sandomierz","fromYear":1279,"toYear":1284,"upstreamAreaKm2":30741},{"name":"Duchy of Silesia","upstreamName":"Duchy of Silesia","fromYear":1279,"toYear":1293,"upstreamAreaKm2":19086},{"name":"Kingdom of Bohemia","upstreamName":"Kingdom of Bohemia","fromYear":1279,"toYear":1284,"upstreamAreaKm2":80824},{"name":"Margraviate of Brandenburg","upstreamName":"Margraviate of Brandenburg","fromYear":1272,"toYear":1304,"upstreamAreaKm2":41413}],"compositeParents":[{"name":"(Duchies of Poland)","targetYear":1279,"fromYear":1279,"toYear":1284,"seshatId":"pl_piast_dyn_2","wikidata":"Q2984183","basePowerName":"Poland","childNames":["Duchies of Poland","Duchy of Greater Poland","Duchy of Głogów","Duchy of Jawor","Duchy of Legnica","Duchy of Masovia","Duchy of Opole","Duchy of Sandomierz","Duchy of Silesia"],"dataset":"Cliopatria (Seshat Global History Databank)","commit":"ad28a691b7c07c1fca89d0e0636d324667d2a258","license":"CC BY 4.0","reason":"base の 1279 年 Poland は最長線分 116.5 km。上流の [1279-1284] は 対象年そのもので、最長線分 110.7 km・100 km 超 1 本。leaf の 1 件は 上流が個別公国へ分解していない残余（Name = Duchies of Poland）で、親と同名ではないため区別できる（#352）。"}],"source":"Cliopatria (Seshat Global History Databank)","sourceUrl":"https://github.com/Seshat-Global-History-Databank/cliopatria","license":"CC BY 4.0","commit":"ad28a691b7c07c1fca89d0e0636d324667d2a258","borderPrecision":"史料地図のデジタイズ（概略。手描き地図の自動抽出を 0.07 度で平滑化）"}}