{"type":"FeatureCollection","features":[{"type":"Feature","properties":{"NAME":"Principality of Moldavia","SUBJECTO":"Ottoman Empire","PARTOF":"Ottoman Empire","START_DATE":"1713","END_DATE":"1768","CLIOPATRIA_NAME":"Principality of Moldavia","CLIOPATRIA_SESHAT_ID":"md_moldavia_principality_3","CLIOPATRIA_AREA_KM2":81704,"WIKIDATA":"Q10957559","WIKIPEDIA":"Moldavia","SNAPSHOT_YEAR":1715},"geometry":{"type":"MultiPolygon","coordinates":[[[[28.119,45.431],[28.147,45.693],[28.31,45.693],[28.331,45.89],[28.508,46.021],[28.44,46.152],[28.886,46.48],[29.482,46.677],[29.497,46.809],[29.341,46.874],[29.356,47.006],[29.199,47.072],[29.14,47.269],[28.915,47.466],[29.028,47.73],[28.555,47.928],[28.57,48.06],[28.42,48.192],[27.538,48.456],[27.394,48.654],[25.981,48.654],[25.509,48.919],[25.342,48.919],[25.246,48.787],[25.559,48.588],[25.54,48.39],[25.012,48.06],[24.988,47.796],[24.905,47.796],[24.881,47.532],[25.034,47.401],[25.017,47.203],[25.669,47.137],[25.727,46.874],[25.967,46.809],[25.942,46.546],[26.478,46.152],[26.44,45.759],[26.102,45.628],[26.24,45.366],[26.416,45.497],[26.66,45.497],[27.631,45.431],[27.861,45.3],[28.119,45.431]]]]}}],"metadata":{"generatedBy":"scripts/build-fief-flat.ts","input":"data/cliopatria_fiefs_1715.geojson","year":1715,"cutPolicy":"keep-smaller","containmentCoverageThreshold":0.9,"minOverlapAreaM2":1000,"sliverAreaLimitM2":1000000000,"resolutions":[],"externalInputs":["data/hre_fiefs_flat_1715.geojson"],"externalRemovals":[],"source":"Cliopatria (Seshat Global History Databank)","sourceUrl":"https://github.com/Seshat-Global-History-Databank/cliopatria","license":"CC BY 4.0","commit":"ad28a691b7c07c1fca89d0e0636d324667d2a258","borderPrecision":"史料地図のデジタイズ（概略。手描き地図の自動抽出を 0.07 度で平滑化）"}}