{"type":"FeatureCollection","features":[{"type":"Feature","properties":{"NAME":"Principality of Moldavia","SUBJECTO":"Ottoman Empire","PARTOF":"Ottoman Empire","START_DATE":"1792","END_DATE":"1806","CLIOPATRIA_NAME":"Principality of Moldavia","CLIOPATRIA_SESHAT_ID":"md_moldavia_principality_3","CLIOPATRIA_AREA_KM2":70620,"WIKIDATA":"Q10957559","WIKIPEDIA":"Moldavia","SNAPSHOT_YEAR":1800},"geometry":{"type":"MultiPolygon","coordinates":[[[[29.34061,46.87434],[29.35584,47.00583],[29.19901,47.07159],[29.21423,47.20317],[28.91513,47.46647],[29.02819,47.73],[28.55527,47.92781],[28.57043,48.05975],[28.42004,48.19175],[27.53788,48.45594],[27.39371,48.65424],[26.06439,48.65424],[26.27982,48.32381],[26.26645,48.19175],[26.02452,48.25777],[26.01142,48.12574],[26.17701,48.12574],[26.06812,47.86186],[26.30951,47.79593],[26.37897,47.6641],[25.95985,47.59821],[25.76978,47.33479],[25.45249,47.46647],[25.01661,47.20317],[25.66891,47.13737],[25.72661,46.87434],[25.96681,46.80862],[25.94214,46.54585],[26.47793,46.15209],[26.44038,45.75877],[26.10192,45.62776],[26.24045,45.36588],[26.41556,45.4968],[26.65989,45.4968],[27.63057,45.43133],[27.86131,45.30044],[28.11904,45.43133],[28.14653,45.69326],[28.30961,45.69326],[28.33055,45.88983],[28.50797,46.02094],[28.44041,46.15209],[29.48959,46.7429],[29.34061,46.87434]]]]}}],"metadata":{"generatedBy":"scripts/build-cliopatria-fiefs.ts","year":1800,"featureCount":1,"archiveUrl":"https://raw.githubusercontent.com/Seshat-Global-History-Databank/cliopatria/ad28a691b7c07c1fca89d0e0636d324667d2a258/cliopatria.geojson.zip","archiveSha256":"d01ae3a20d358cc5d54f69d9d725d390767d9c8759ac89ad6f90c58d106f3370","doi":"10.5281/zenodo.14714684","citation":"Bennett, J., Mutch, E., Chalstrey, E. et al. (2025) Cliopatria: A geospatial database of world-wide political entities from 3400BCE to 2024CE. Scientific Data.","selected":[{"name":"Principality of Moldavia","upstreamName":"Principality of Moldavia","fromYear":1792,"toYear":1806,"upstreamAreaKm2":70620}],"source":"Cliopatria (Seshat Global History Databank)","sourceUrl":"https://github.com/Seshat-Global-History-Databank/cliopatria","license":"CC BY 4.0","commit":"ad28a691b7c07c1fca89d0e0636d324667d2a258","borderPrecision":"史料地図のデジタイズ（概略。手描き地図の自動抽出を 0.07 度で平滑化）"}}