{"type":"FeatureCollection","features":[{"type":"Feature","properties":{"NAME":"(Polish-Lithuania Kingdom)","SUBJECTO":"Poland-Lithuania","PARTOF":"Poland-Lithuania","CLIOPATRIA_COMPOSITE":"parent","CLIOPATRIA_BASE_POWER":"Poland-Lithuania","START_DATE":"1395","END_DATE":"1401","CLIOPATRIA_NAME":"(Polish-Lithuania Kingdom)","CLIOPATRIA_SESHAT_ID":"pl_jagiellonian_dyn","CLIOPATRIA_AREA_KM2":1040497,"WIKIDATA":"Q194355","WIKIPEDIA":"Jagiellonian dynasty","SNAPSHOT_YEAR":1400},"geometry":{"type":"MultiPolygon","coordinates":[[[[19.17385,50.17946],[19.18613,50.37908],[19.02203,50.44566],[19.03019,50.57886],[18.70133,50.71214],[18.70932,50.84549],[18.04935,51.11243],[17.97229,51.24602],[17.54926,51.24602],[17.31974,51.71418],[16.98013,51.71418],[16.719,51.58032],[16.55562,51.71418],[16.1311,51.71418],[16.13699,51.84813],[15.80826,52.11626],[15.81395,52.25045],[15.64623,52.31758],[15.48927,52.65353],[16.09714,52.85537],[16.02382,53.12479],[16.10966,53.12479],[16.11918,53.32709],[16.29441,53.39457],[16.30103,53.52959],[16.47667,53.59714],[16.40071,53.79992],[16.6596,53.79992],[16.82129,53.59714],[17.07976,53.59714],[17.32661,53.39457],[17.50656,53.52959],[18.44929,53.46207],[18.51741,53.1922],[18.68917,53.1922],[18.92821,52.92269],[19.36154,52.99003],[19.72481,53.25963],[20.39585,53.0574],[20.66998,53.25963],[20.92775,53.25963],[21.28937,53.46207],[22.42145,53.59714],[22.5482,54.00291],[22.46176,54.00291],[22.48221,54.20612],[22.66233,54.27391],[22.69743,54.61319],[22.70451,54.68112],[22.81296,54.88506],[22.57302,55.08923],[22.31137,55.08923],[22.07027,55.29362],[21.64007,55.36181],[21.2352,55.70312],[21.24822,55.83982],[20.99128,55.90822],[20.99769,55.97664],[20.90981,55.97664],[20.91618,56.04509],[21.56563,56.38773],[21.65382,56.38773],[21.74201,56.38773],[21.8302,56.38773],[21.83721,56.45634],[21.92545,56.45634],[22.01369,56.45634],[22.10193,56.45634],[22.19018,56.45634],[24.10645,56.25059],[24.82864,56.38773],[25.06651,56.18206],[25.76151,56.11356],[25.83093,55.97664],[26.58319,55.70312],[26.86577,55.83982],[27.47004,55.77146],[27.97159,56.18206],[28.14765,56.18206],[28.12395,56.59365],[27.88027,56.73108],[27.891,56.79983],[28.37783,57.07512],[29.58441,56.86861],[29.97924,56.59365],[29.95546,56.45634],[30.10809,56.31915],[30.3725,56.31915],[30.83788,56.45634],[31.12819,57.07512],[31.66052,57.07512],[32.131,57.21294],[32.45235,57.48893],[32.63045,57.48893],[32.86491,57.76539],[33.13271,57.76539],[33.35719,57.558],[33.70111,57.07512],[34.79453,56.79983],[34.95655,56.73108],[34.9267,56.59365],[33.97194,56.25059],[33.94371,56.11356],[33.67977,56.11356],[33.00998,55.83982],[32.65888,55.83982],[32.35658,55.6348],[31.85619,55.77146],[30.87911,55.70312],[30.88252,55.22547],[30.96984,55.22547],[30.79992,54.74908],[30.88689,54.74908],[30.93867,54.54528],[31.64536,54.61319],[31.79477,54.4774],[31.74849,52.72079],[31.99375,52.65353],[32.04511,52.45189],[32.21588,52.45189],[32.46813,52.92269],[32.87122,53.25963],[33.30084,53.25963],[33.68244,53.46207],[33.84569,53.86756],[34.04462,54.00291],[34.01094,54.27391],[34.42529,54.61319],[35.72839,54.61319],[35.93118,54.34171],[35.83161,53.86756],[35.90385,53.79992],[35.78959,53.66471],[36.04819,53.66471],[35.83402,53.46207],[35.76528,53.12479],[36.32444,52.92269],[36.42685,52.5863],[36.74111,52.45189],[37.01352,52.11626],[37.42543,52.04919],[37.48281,51.91513],[37.96494,51.78114],[37.93709,51.64724],[38.14988,51.44654],[38.09487,51.17921],[37.89871,51.04567],[37.83774,50.31252],[37.75371,50.31252],[37.54367,49.64793],[37.62732,49.64793],[37.59037,49.44889],[37.6739,49.44889],[37.70854,49.18375],[37.86311,49.1175],[37.83888,48.98506],[36.93676,48.58812],[36.68762,48.58812],[36.62727,48.72037],[36.30605,48.78652],[36.3287,48.91887],[36.07901,48.91887],[36.09028,48.98506],[36.00702,48.98506],[35.94627,49.1175],[35.77959,49.1175],[35.4964,48.91887],[35.02612,47.53233],[34.37619,47.59821],[34.10909,47.46647],[34.07996,47.26897],[33.69384,46.87434],[32.91846,46.61152],[32.17176,46.54585],[32.18044,46.61152],[32.03373,46.7429],[31.78753,46.7429],[31.60643,46.61152],[30.87658,46.67721],[30.48466,46.15209],[30.40289,46.15209],[30.26284,46.34892],[29.94309,46.41455],[29.89994,46.7429],[29.52797,47.07159],[29.55123,47.26897],[29.16246,47.46647],[29.20894,47.86186],[28.98423,48.05975],[28.01331,48.25777],[27.53788,48.45594],[27.39371,48.65424],[26.47292,48.58812],[25.9813,48.65424],[25.50884,48.91887],[25.25272,48.85268],[25.55941,48.58812],[25.54009,48.38987],[25.01179,48.05975],[24.98762,47.79593],[24.905,47.79593],[24.58623,47.92781],[24.68671,48.12574],[24.36721,48.25777],[24.37896,48.38987],[24.05298,48.45594],[23.66634,48.78652],[22.92872,48.91887],[22.77837,49.1175],[22.52307,49.05127],[21.79827,49.38258],[20.21194,49.38258],[19.86554,49.18375],[19.47254,49.58157],[19.13038,49.44889],[18.88354,49.51522],[19.23756,49.84713],[19.16577,50.04647],[19.0819,50.04647],[19.08589,50.11296],[19.0899,50.17946],[19.17385,50.17946]]]]}},{"type":"Feature","properties":{"NAME":"Duchy of Bavaria","SUBJECTO":"Holy Roman Empire","PARTOF":"Holy Roman Empire","START_DATE":"1395","END_DATE":"1421","CLIOPATRIA_NAME":"Duchy of Bavaria","CLIOPATRIA_SESHAT_ID":"de_empire_3","CLIOPATRIA_AREA_KM2":47598,"WIKIDATA":"Q47261","WIKIPEDIA":"Duchy of Bavaria","SNAPSHOT_YEAR":1400},"geometry":{"type":"MultiPolygon","coordinates":[[[[12.02621,48.98506],[12.27532,48.91887],[12.27397,48.78652],[12.35713,48.78652],[12.52422,48.85268],[12.61076,49.1175],[12.86078,49.1175],[13.02955,49.25001],[13.35848,48.98506],[13.35615,48.85268],[13.18977,48.85268],[13.26854,48.58812],[13.76682,48.58812],[13.84719,48.45594],[13.17725,48.05975],[12.92898,48.05975],[12.76513,48.19175],[12.76263,47.99377],[12.92718,47.92781],[12.92452,47.73],[13.08779,47.59821],[12.83941,47.53233],[12.75854,47.6641],[12.5109,47.6641],[12.50811,47.40062],[12.34267,47.33479],[12.26206,47.53233],[12.01463,47.53233],[11.84801,47.26897],[11.60099,47.26897],[11.43655,47.33479],[11.43703,47.46647],[11.27214,47.46647],[11.2725,47.59821],[10.94241,47.53233],[10.85993,47.53233],[10.77745,47.53233],[10.69497,47.53233],[10.69491,47.59821],[10.61239,47.59821],[10.69478,47.73],[10.44686,47.79593],[10.52871,48.19175],[10.52859,48.25777],[10.44497,48.58812],[10.27844,48.72037],[10.27802,48.85268],[10.02781,48.98506],[10.02719,49.1175],[10.36024,49.25001],[10.61073,48.91887],[10.94356,48.85268],[11.02701,48.98506],[10.86053,49.05127],[11.27756,49.18375],[11.52733,49.1175],[11.69272,48.91887],[11.94294,48.98506],[12.02621,48.98506]]],[[[4.03417,50.77881],[4.20582,50.71214],[4.299,50.51225],[4.63842,50.44566],[4.3948,50.24598],[4.40635,49.98001],[4.32251,49.98001],[4.23868,49.98001],[4.15484,49.98001],[4.15184,50.04647],[4.14281,50.24598],[3.96861,50.37908],[3.63231,50.37908],[3.54824,50.37908],[3.54493,50.44566],[3.54161,50.51225],[3.53828,50.57886],[4.03417,50.77881]]],[[[4.24478,51.71418],[4.08441,51.51342],[3.99963,51.51342],[3.40621,51.51342],[3.39925,51.64724],[3.73869,51.64724],[3.6471,51.78114],[3.81699,51.78114],[3.8104,51.91513],[3.98046,51.91513],[3.97402,52.04919],[4.22317,52.18334],[4.21693,52.31758],[4.46381,52.51908],[4.53433,52.85537],[4.70272,52.92269],[4.60811,53.12479],[4.69101,53.1922],[4.86277,53.1922],[4.78554,52.99003],[4.87128,52.99003],[4.97087,52.65353],[5.05638,52.65353],[5.06179,52.51908],[4.89094,52.51908],[4.8965,52.38472],[5.06986,52.31758],[4.99544,52.04919],[5.25079,52.04919],[5.2585,51.84813],[5.17351,51.84813],[5.08852,51.84813],[5.00353,51.84813],[4.91855,51.84813],[4.83356,51.84813],[4.83633,51.78114],[4.75139,51.78114],[4.66644,51.78114],[4.24478,51.71418]]]]}},{"type":"Feature","properties":{"NAME":"Grand Duchy of Lithuania","SUBJECTO":"Poland-Lithuania","PARTOF":"Poland-Lithuania","CLIOPATRIA_COMPOSITE":"child","CLIOPATRIA_BASE_POWER":"Poland-Lithuania","START_DATE":"1395","END_DATE":"1401","CLIOPATRIA_NAME":"Grand Duchy of Lithuania","CLIOPATRIA_SESHAT_ID":"pl_jagiellonian_dyn","CLIOPATRIA_AREA_KM2":806719,"WIKIDATA":"Q49683","WIKIPEDIA":"Grand Duchy of Lithuania","SNAPSHOT_YEAR":1400},"geometry":{"type":"MultiPolygon","coordinates":[[[[35.93118,54.34171],[35.83161,53.86756],[35.90385,53.79992],[35.78959,53.66471],[36.04819,53.66471],[35.83402,53.46207],[35.76528,53.12479],[36.32444,52.92269],[36.42685,52.5863],[36.74111,52.45189],[37.01352,52.11626],[37.42543,52.04919],[37.48281,51.91513],[37.96494,51.78114],[37.93709,51.64724],[38.14988,51.44654],[38.09487,51.17921],[37.89871,51.04567],[37.83774,50.31252],[37.75371,50.31252],[37.54367,49.64793],[37.62732,49.64793],[37.59037,49.44889],[37.6739,49.44889],[37.70854,49.18375],[37.86311,49.1175],[37.83888,48.98506],[36.93676,48.58812],[36.68762,48.58812],[36.62727,48.72037],[36.30605,48.78652],[36.3287,48.91887],[36.07901,48.91887],[36.09028,48.98506],[36.00702,48.98506],[35.94627,49.1175],[35.77959,49.1175],[35.4964,48.91887],[35.02612,47.53233],[34.37619,47.59821],[34.10909,47.46647],[34.07996,47.26897],[33.69384,46.87434],[32.91846,46.61152],[32.17176,46.54585],[32.18044,46.61152],[32.03373,46.7429],[31.78753,46.7429],[31.60643,46.61152],[30.87658,46.67721],[30.48466,46.15209],[30.40289,46.15209],[30.26284,46.34892],[29.94309,46.41455],[29.89994,46.7429],[29.52797,47.07159],[29.55123,47.26897],[29.16246,47.46647],[29.20894,47.86186],[28.98423,48.05975],[28.01331,48.25777],[27.53788,48.45594],[27.39371,48.65424],[26.47292,48.58812],[25.9813,48.65424],[25.50884,48.91887],[25.25272,48.85268],[25.3554,49.05127],[25.77865,49.1175],[26.22332,49.38258],[26.18962,49.84713],[26.02925,49.91356],[25.967,50.11296],[25.79917,50.11296],[25.73673,50.31252],[24.83966,50.57886],[24.76922,50.71214],[24.58707,50.57886],[24.33449,50.57886],[24.36807,50.9122],[24.19927,50.9122],[24.7337,51.17921],[24.96094,51.71418],[25.22317,51.78114],[25.26121,52.11626],[24.84287,52.18334],[24.64308,51.91513],[24.04089,51.84813],[23.93526,51.64724],[23.58917,51.58032],[22.74723,51.64724],[22.61488,52.04919],[23.13877,52.18334],[23.34299,52.51908],[23.18566,52.65353],[22.8436,52.65353],[22.65958,52.51908],[22.40965,52.5863],[22.34323,52.78807],[22.69882,52.92269],[22.7389,53.32709],[22.42145,53.59714],[22.5482,54.00291],[22.46176,54.00291],[22.48221,54.20612],[22.66233,54.27391],[22.69743,54.61319],[22.70451,54.68112],[22.81296,54.88506],[22.57302,55.08923],[22.31137,55.08923],[22.07027,55.29362],[21.64007,55.36181],[21.2352,55.70312],[21.24822,55.83982],[20.99128,55.90822],[20.99769,55.97664],[20.90981,55.97664],[20.91618,56.04509],[21.56563,56.38773],[21.65382,56.38773],[21.74201,56.38773],[21.8302,56.38773],[21.83721,56.45634],[21.92545,56.45634],[22.01369,56.45634],[22.10193,56.45634],[22.19018,56.45634],[24.10645,56.25059],[24.82864,56.38773],[25.06651,56.18206],[25.76151,56.11356],[25.83093,55.97664],[26.58319,55.70312],[26.86577,55.83982],[27.47004,55.77146],[27.97159,56.18206],[28.14765,56.18206],[28.12395,56.59365],[27.88027,56.73108],[27.891,56.79983],[28.37783,57.07512],[29.58441,56.86861],[29.97924,56.59365],[29.95546,56.45634],[30.10809,56.31915],[30.3725,56.31915],[30.83788,56.45634],[31.12819,57.07512],[31.66052,57.07512],[32.131,57.21294],[32.45235,57.48893],[32.63045,57.48893],[32.86491,57.76539],[33.13271,57.76539],[33.35719,57.558],[33.70111,57.07512],[34.79453,56.79983],[34.95655,56.73108],[34.9267,56.59365],[33.97194,56.25059],[33.94371,56.11356],[33.67977,56.11356],[33.00998,55.83982],[32.65888,55.83982],[32.35658,55.6348],[31.85619,55.77146],[30.87911,55.70312],[30.88252,55.22547],[30.96984,55.22547],[30.79992,54.74908],[30.88689,54.74908],[30.93867,54.54528],[31.64536,54.61319],[31.79477,54.4774],[31.74849,52.72079],[31.99375,52.65353],[32.04511,52.45189],[32.21588,52.45189],[32.46813,52.92269],[32.87122,53.25963],[33.30084,53.25963],[33.68244,53.46207],[33.84569,53.86756],[34.04462,54.00291],[34.01094,54.27391],[34.42529,54.61319],[35.72839,54.61319],[35.93118,54.34171]]]]}},{"type":"Feature","properties":{"NAME":"Kingdom of Bohemia","SUBJECTO":"Holy Roman Empire","PARTOF":"Holy Roman Empire","START_DATE":"1385","END_DATE":"1414","CLIOPATRIA_NAME":"Kingdom of Bohemia","CLIOPATRIA_SESHAT_ID":"cz_bohemian_k_2","CLIOPATRIA_AREA_KM2":106361,"WIKIDATA":"Q42585","WIKIPEDIA":"Kingdom of Bohemia","SNAPSHOT_YEAR":1400},"geometry":{"type":"MultiPolygon","coordinates":[[[[19.08589,50.11296],[19.0819,50.04647],[19.16577,50.04647],[19.23756,49.84713],[18.88354,49.51522],[18.29163,49.38258],[18.23245,49.84713],[17.97099,49.64793],[17.72006,49.64793],[16.91308,50.31252],[16.81722,50.04647],[16.39242,49.91356],[16.21447,49.64793],[15.80101,49.78071],[15.70798,49.51522],[15.19635,49.18375],[15.19034,48.98506],[14.94054,48.98506],[14.85001,48.72037],[14.59729,48.58812],[14.10047,48.65424],[13.607,48.91887],[13.52377,48.91887],[13.52501,48.98506],[13.44174,48.98506],[13.35848,48.98506],[13.02955,49.25001],[12.53241,49.51522],[12.53414,49.64793],[12.36765,49.71431],[12.37092,49.98001],[12.1216,50.17946],[12.12234,50.24598],[12.29033,50.24598],[12.37608,50.37908],[12.79645,50.37908],[13.22205,50.64549],[13.98528,50.84549],[14.06964,50.84549],[14.32651,50.97892],[14.33422,51.24602],[14.33618,51.31284],[14.25153,51.31284],[14.25346,51.37968],[14.2554,51.44654],[14.25735,51.51342],[14.25931,51.58032],[14.26325,51.71418],[14.09727,51.84813],[13.75732,51.84813],[13.59068,51.98215],[13.50561,51.98215],[13.50725,52.04919],[13.42213,52.04919],[13.42535,52.18334],[13.94037,52.31758],[14.36051,52.11626],[14.616,52.11626],[14.77944,51.91513],[15.13196,52.25045],[15.47028,52.18334],[15.64623,52.31758],[15.81395,52.25045],[15.80826,52.11626],[16.13699,51.84813],[16.1311,51.71418],[16.55562,51.71418],[16.719,51.58032],[16.98013,51.71418],[17.31974,51.71418],[17.54926,51.24602],[17.97229,51.24602],[18.04935,51.11243],[18.70932,50.84549],[18.70133,50.71214],[19.03019,50.57886],[19.02203,50.44566],[19.18613,50.37908],[19.17385,50.17946],[19.0899,50.17946],[19.08589,50.11296]]],[[[13.58568,51.78114],[13.67063,51.78114],[13.66894,51.71418],[13.66726,51.64724],[13.5824,51.64724],[13.24443,51.71418],[13.24739,51.84813],[13.50235,51.84813],[13.58734,51.84813],[13.58568,51.78114]]]]}},{"type":"Feature","properties":{"NAME":"Kingdom of Poland","SUBJECTO":"Poland-Lithuania","PARTOF":"Poland-Lithuania","CLIOPATRIA_COMPOSITE":"child","CLIOPATRIA_BASE_POWER":"Poland-Lithuania","START_DATE":"1395","END_DATE":"1401","CLIOPATRIA_NAME":"Kingdom of Poland","CLIOPATRIA_SESHAT_ID":"pl_jagiellonian_dyn","CLIOPATRIA_AREA_KM2":233778,"WIKIDATA":"Q577867","WIKIPEDIA":"Kingdom of Poland","SNAPSHOT_YEAR":1400},"geometry":{"type":"MultiPolygon","coordinates":[[[[19.0899,50.17946],[19.17385,50.17946],[19.18613,50.37908],[19.02203,50.44566],[19.03019,50.57886],[18.70133,50.71214],[18.70932,50.84549],[18.04935,51.11243],[17.97229,51.24602],[17.54926,51.24602],[17.31974,51.71418],[16.98013,51.71418],[16.719,51.58032],[16.55562,51.71418],[16.1311,51.71418],[16.13699,51.84813],[15.80826,52.11626],[15.81395,52.25045],[15.64623,52.31758],[15.48927,52.65353],[16.09714,52.85537],[16.02382,53.12479],[16.10966,53.12479],[16.11918,53.32709],[16.29441,53.39457],[16.30103,53.52959],[16.47667,53.59714],[16.40071,53.79992],[16.6596,53.79992],[16.82129,53.59714],[17.07976,53.59714],[17.32661,53.39457],[17.50656,53.52959],[18.44929,53.46207],[18.51741,53.1922],[18.68917,53.1922],[18.92821,52.92269],[19.36154,52.99003],[19.72481,53.25963],[20.39585,53.0574],[20.66998,53.25963],[20.92775,53.25963],[21.28937,53.46207],[22.42145,53.59714],[22.7389,53.32709],[22.69882,52.92269],[22.34323,52.78807],[22.40965,52.5863],[22.65958,52.51908],[22.8436,52.65353],[23.18566,52.65353],[23.34299,52.51908],[23.13877,52.18334],[22.61488,52.04919],[22.74723,51.64724],[23.58917,51.58032],[23.93526,51.64724],[24.04089,51.84813],[24.64308,51.91513],[24.84287,52.18334],[25.26121,52.11626],[25.22317,51.78114],[24.96094,51.71418],[24.7337,51.17921],[24.19927,50.9122],[24.36807,50.9122],[24.33449,50.57886],[24.58707,50.57886],[24.76922,50.71214],[24.83966,50.57886],[25.73673,50.31252],[25.79917,50.11296],[25.967,50.11296],[26.02925,49.91356],[26.18962,49.84713],[26.22332,49.38258],[25.77865,49.1175],[25.3554,49.05127],[25.25272,48.85268],[25.55941,48.58812],[25.54009,48.38987],[25.01179,48.05975],[24.98762,47.79593],[24.905,47.79593],[24.58623,47.92781],[24.68671,48.12574],[24.36721,48.25777],[24.37896,48.38987],[24.05298,48.45594],[23.66634,48.78652],[22.92872,48.91887],[22.77837,49.1175],[22.52307,49.05127],[21.79827,49.38258],[20.21194,49.38258],[19.86554,49.18375],[19.47254,49.58157],[19.13038,49.44889],[18.88354,49.51522],[19.23756,49.84713],[19.16577,50.04647],[19.0819,50.04647],[19.08589,50.11296],[19.0899,50.17946]]]]}},{"type":"Feature","properties":{"NAME":"Margraviate of Brandenburg","SUBJECTO":"Holy Roman Empire","PARTOF":"Holy Roman Empire","START_DATE":"1395","END_DATE":"1401","CLIOPATRIA_NAME":"Margraviate of Brandenburg","CLIOPATRIA_SESHAT_ID":"de_empire_3","CLIOPATRIA_AREA_KM2":41923,"WIKIDATA":"Q148499","WIKIPEDIA":"Margraviate of Brandenburg","SNAPSHOT_YEAR":1400},"geometry":{"type":"MultiPolygon","coordinates":[[[[15.64623,52.31758],[15.47028,52.18334],[15.13196,52.25045],[14.77944,51.91513],[14.616,52.11626],[14.36051,52.11626],[13.94037,52.31758],[13.42535,52.18334],[13.42213,52.04919],[12.40289,52.18334],[12.40509,52.31758],[12.57808,52.45189],[12.3252,52.65353],[12.3274,52.78807],[11.89675,52.5863],[11.12705,52.51908],[11.04376,52.85537],[11.21667,53.0574],[11.38824,53.0574],[11.38952,53.1922],[11.21776,53.1922],[11.1329,53.32709],[11.30606,53.46207],[11.5635,53.39457],[11.73808,53.59714],[11.91039,53.59714],[12.16561,53.39457],[13.19619,53.32709],[13.5492,53.66471],[13.89605,53.7323],[14.31603,53.39457],[14.22566,53.25963],[14.47656,53.0574],[14.64814,53.0574],[14.82465,53.1922],[15.25675,53.25963],[15.43993,53.52959],[15.78133,53.46207],[15.70427,53.66471],[16.0523,53.7323],[16.05552,53.79992],[15.96922,53.79992],[15.98204,54.07063],[16.41101,54.00291],[16.31441,53.79992],[16.40071,53.79992],[16.47667,53.59714],[16.30103,53.52959],[16.29441,53.39457],[16.11918,53.32709],[16.10966,53.12479],[16.02382,53.12479],[16.09714,52.85537],[15.48927,52.65353],[15.64623,52.31758]]]]}},{"type":"Feature","properties":{"NAME":"Principality of Moldavia","START_DATE":"1385","END_DATE":"1401","CLIOPATRIA_NAME":"Principality of Moldavia","CLIOPATRIA_SESHAT_ID":"md_moldavia_principality_1","CLIOPATRIA_AREA_KM2":101940,"WIKIDATA":"Q10957559","WIKIPEDIA":"Moldavia","SNAPSHOT_YEAR":1400},"geometry":{"type":"MultiPolygon","coordinates":[[[[29.57703,45.36588],[29.58446,45.43133],[29.66587,45.43133],[29.65841,45.36588],[29.57703,45.36588]]],[[[29.8589,45.69326],[29.61427,45.69326],[29.5919,45.4968],[29.58446,45.43133],[29.09599,45.43133],[28.66774,45.235],[28.3494,45.30044],[28.28186,45.43133],[28.03763,45.43133],[27.86131,45.30044],[27.63057,45.43133],[26.65989,45.4968],[26.41556,45.4968],[26.24045,45.36588],[26.10192,45.62776],[26.44038,45.75877],[26.47793,46.15209],[25.94214,46.54585],[25.96681,46.80862],[25.72661,46.87434],[25.66891,47.13737],[25.01661,47.20317],[25.03433,47.40062],[24.88127,47.53233],[24.905,47.79593],[24.98762,47.79593],[25.01179,48.05975],[25.54009,48.38987],[25.55941,48.58812],[25.25272,48.85268],[25.50884,48.91887],[25.9813,48.65424],[26.47292,48.58812],[27.39371,48.65424],[27.53788,48.45594],[28.01331,48.25777],[28.98423,48.05975],[29.20894,47.86186],[29.16246,47.46647],[29.55123,47.26897],[29.52797,47.07159],[29.89994,46.7429],[29.94309,46.41455],[30.26284,46.34892],[30.40289,46.15209],[30.39502,46.08651],[29.8589,45.69326]]]]}}],"metadata":{"generatedBy":"scripts/build-cliopatria-fiefs.ts","year":1400,"featureCount":7,"archiveUrl":"https://raw.githubusercontent.com/Seshat-Global-History-Databank/cliopatria/ad28a691b7c07c1fca89d0e0636d324667d2a258/cliopatria.geojson.zip","archiveSha256":"d01ae3a20d358cc5d54f69d9d725d390767d9c8759ac89ad6f90c58d106f3370","doi":"10.5281/zenodo.14714684","citation":"Bennett, J., Mutch, E., Chalstrey, E. et al. (2025) Cliopatria: A geospatial database of world-wide political entities from 3400BCE to 2024CE. Scientific Data.","selected":[{"name":"(Polish-Lithuania Kingdom)","upstreamName":"(Polish-Lithuania Kingdom)","fromYear":1395,"toYear":1401,"upstreamAreaKm2":1040497},{"name":"Duchy of Bavaria","upstreamName":"Duchy of Bavaria","fromYear":1395,"toYear":1421,"upstreamAreaKm2":47598},{"name":"Grand Duchy of Lithuania","upstreamName":"Grand Duchy of Lithuania","fromYear":1395,"toYear":1401,"upstreamAreaKm2":806719},{"name":"Kingdom of Bohemia","upstreamName":"Kingdom of Bohemia","fromYear":1385,"toYear":1414,"upstreamAreaKm2":106361},{"name":"Kingdom of Poland","upstreamName":"Kingdom of Poland","fromYear":1395,"toYear":1401,"upstreamAreaKm2":233778},{"name":"Margraviate of Brandenburg","upstreamName":"Margraviate of Brandenburg","fromYear":1395,"toYear":1401,"upstreamAreaKm2":41923},{"name":"Principality of Moldavia","upstreamName":"Principality of Moldavia","fromYear":1385,"toYear":1401,"upstreamAreaKm2":101940}],"compositeParents":[{"name":"(Polish-Lithuania Kingdom)","targetYear":1400,"fromYear":1395,"toYear":1401,"seshatId":"pl_jagiellonian_dyn","wikidata":"Q194355","basePowerName":"Poland-Lithuania","childNames":["Grand Duchy of Lithuania","Kingdom of Poland"],"dataset":"Cliopatria (Seshat Global History Databank)","commit":"ad28a691b7c07c1fca89d0e0636d324667d2a258","license":"CC BY 4.0","reason":"base の 1400 年 Poland-Lithuania は最長線分 841.7 km で、東部が 1 本の直線になる。上流の [1395-1401] は 1400 年を直接覆い、最長線分 195.4 km・100 km 超 4 本。子は leaf の 2 件だけで、親と同形状の括弧付き wrapper (Kingdom of Poland) は MemberOf の leaf 判定で落ちる（#352）。"}],"source":"Cliopatria (Seshat Global History Databank)","sourceUrl":"https://github.com/Seshat-Global-History-Databank/cliopatria","license":"CC BY 4.0","commit":"ad28a691b7c07c1fca89d0e0636d324667d2a258","borderPrecision":"史料地図のデジタイズ（概略。手描き地図の自動抽出を 0.07 度で平滑化）"}}