{"type":"FeatureCollection","features":[{"type":"Feature","properties":{"NAME":"Duchy of Bavaria","SUBJECTO":"Holy Roman Empire","PARTOF":"Holy Roman Empire","START_DATE":"1395","END_DATE":"1421","CLIOPATRIA_NAME":"Duchy of Bavaria","CLIOPATRIA_SESHAT_ID":"de_empire_3","CLIOPATRIA_AREA_KM2":47598,"WIKIDATA":"Q47261","WIKIPEDIA":"Duchy of Bavaria","SNAPSHOT_YEAR":1400},"geometry":{"type":"MultiPolygon","coordinates":[[[[3.399,51.647],[3.406,51.513],[4.084,51.513],[4.207,51.667],[4.156,51.683],[4.044,51.699],[4.011,51.758],[3.928,51.771],[3.881,51.747],[3.785,51.781],[3.647,51.781],[3.739,51.647],[3.399,51.647]]],[[[3.538,50.579],[3.542,50.512],[3.545,50.446],[3.548,50.379],[3.969,50.379],[4.143,50.246],[4.152,50.046],[4.155,49.98],[4.406,49.98],[4.395,50.246],[4.638,50.446],[4.299,50.512],[4.206,50.712],[4.034,50.779],[3.538,50.579]]],[[[3.81,51.915],[3.813,51.848],[3.826,51.86],[3.947,51.892],[3.964,51.915],[3.81,51.915]]],[[[3.974,52.049],[3.979,51.935],[4.042,52.019],[4.327,52.238],[4.426,52.354],[4.507,52.514],[4.542,52.617],[4.557,52.747],[4.623,52.891],[4.534,52.855],[4.464,52.519],[4.217,52.318],[4.223,52.183],[3.974,52.049]]],[[[4.608,53.125],[4.642,53.054],[4.643,53.071],[4.694,53.142],[4.749,53.192],[4.691,53.192],[4.608,53.125]]],[[[5.048,52.038],[5.103,52.003],[5.129,51.994],[5.048,52.038]]],[[[10.027,49.078],[10.028,48.985],[10.278,48.853],[10.278,48.72],[10.445,48.588],[10.529,48.258],[10.529,48.192],[10.482,47.967],[10.487,47.968],[10.478,47.943],[10.491,47.932],[10.472,47.913],[10.491,47.908],[10.483,47.885],[10.501,47.904],[10.537,47.893],[10.573,47.868],[10.564,47.849],[10.613,47.836],[10.6,47.77],[10.574,47.762],[10.695,47.73],[10.612,47.598],[10.695,47.598],[10.695,47.532],[10.942,47.532],[11.273,47.598],[11.273,47.552],[11.319,47.552],[11.412,47.496],[11.385,47.474],[11.395,47.466],[11.437,47.466],[11.437,47.335],[11.601,47.269],[11.746,47.269],[11.745,47.283],[11.787,47.352],[11.889,47.379],[11.911,47.368],[12.015,47.532],[12.262,47.532],[12.288,47.469],[12.342,47.458],[12.362,47.412],[12.342,47.379],[12.339,47.344],[12.343,47.335],[12.508,47.401],[12.511,47.664],[12.598,47.664],[12.606,47.674],[12.784,47.672],[12.765,47.654],[12.783,47.624],[12.78,47.634],[12.822,47.657],[12.851,47.646],[12.837,47.666],[12.898,47.692],[12.952,47.706],[12.909,47.695],[12.904,47.727],[12.925,47.752],[12.925,47.768],[12.89,47.745],[12.848,47.755],[12.831,47.779],[12.766,47.788],[12.685,47.901],[12.71,47.925],[12.646,47.969],[12.544,47.996],[12.545,48.014],[12.576,48.03],[12.589,48.065],[12.666,48.075],[12.714,48.111],[12.749,48.107],[12.764,48.079],[12.765,48.192],[12.929,48.06],[13.177,48.06],[13.715,48.378],[13.686,48.407],[13.702,48.42],[13.686,48.447],[13.697,48.473],[13.696,48.472],[13.637,48.528],[13.639,48.544],[13.657,48.544],[13.649,48.551],[13.591,48.569],[13.573,48.561],[13.517,48.588],[13.508,48.588],[13.475,48.556],[13.45,48.564],[13.436,48.553],[13.457,48.511],[13.447,48.494],[13.387,48.473],[13.362,48.488],[13.362,48.531],[13.39,48.542],[13.401,48.567],[13.45,48.576],[13.381,48.588],[13.269,48.588],[13.248,48.659],[13.234,48.671],[13.243,48.676],[13.19,48.853],[13.356,48.853],[13.358,48.985],[13.03,49.25],[12.861,49.118],[12.611,49.118],[12.524,48.853],[12.357,48.787],[12.274,48.787],[12.275,48.919],[12.026,48.985],[11.943,48.985],[11.761,48.937],[11.762,48.937],[11.843,48.927],[11.864,48.942],[11.922,48.935],[11.952,48.904],[11.994,48.93],[12.01,48.906],[12.111,48.906],[12.145,48.889],[12.138,48.876],[12.006,48.875],[11.941,48.882],[11.925,48.889],[11.926,48.911],[11.861,48.916],[11.833,48.899],[11.841,48.878],[11.868,48.877],[11.926,48.825],[11.965,48.829],[12.018,48.81],[12.019,48.79],[12.036,48.797],[12.065,48.764],[12.008,48.758],[11.987,48.733],[11.952,48.747],[11.938,48.734],[11.959,48.724],[11.948,48.709],[11.897,48.722],[11.889,48.739],[11.849,48.738],[11.816,48.674],[11.795,48.693],[11.765,48.681],[11.767,48.711],[11.819,48.736],[11.808,48.769],[11.586,48.825],[11.555,48.903],[11.572,48.927],[11.682,48.933],[11.527,49.118],[11.446,49.14],[11.485,49.108],[11.534,49.095],[11.535,49.043],[11.595,49.017],[11.517,48.972],[11.517,48.954],[11.484,48.959],[11.501,48.932],[11.492,48.921],[11.387,48.899],[11.405,48.849],[11.331,48.812],[11.325,48.787],[11.348,48.777],[11.326,48.76],[11.232,48.775],[11.127,48.814],[11.078,48.79],[11.032,48.795],[11.014,48.824],[11.148,48.83],[11.141,48.848],[10.999,48.841],[11.008,48.86],[10.998,48.87],[11.037,48.9],[11.076,48.905],[11.055,48.922],[11.089,48.954],[11.068,48.976],[11.068,49.002],[11.091,49.023],[10.986,49.028],[11.013,49.059],[10.937,49.075],[10.93,49.056],[10.958,49.04],[10.917,49.029],[11.027,48.985],[10.988,48.924],[11.035,48.91],[10.977,48.857],[10.948,48.86],[10.944,48.853],[10.713,48.899],[10.709,48.896],[10.671,48.907],[10.611,48.919],[10.537,49.017],[10.534,49.013],[10.412,49.02],[10.338,49.06],[10.365,49.075],[10.313,49.09],[10.294,49.066],[10.262,49.086],[10.242,49.077],[10.255,49.103],[10.225,49.104],[10.196,49.08],[10.157,49.075],[10.161,49.066],[10.111,49.074],[10.097,49.102],[10.05,49.077],[10.027,49.078]],[[11.271,48.343],[11.308,48.364],[11.32,48.341],[11.284,48.331],[11.271,48.343]],[[11.337,48.411],[11.374,48.421],[11.403,48.409],[11.394,48.393],[11.36,48.388],[11.337,48.411]],[[11.543,48.438],[11.56,48.455],[11.613,48.433],[11.567,48.395],[11.552,48.398],[11.563,48.422],[11.543,48.438]],[[11.607,48.158],[11.68,48.247],[11.7,48.321],[11.736,48.37],[11.735,48.399],[11.711,48.423],[11.743,48.433],[11.786,48.413],[11.753,48.404],[11.821,48.406],[11.75,48.241],[11.712,48.203],[11.668,48.196],[11.652,48.152],[11.607,48.158]],[[12.025,48.197],[12.091,48.221],[12.094,48.185],[12.029,48.178],[12.025,48.197]],[[12.465,48.239],[12.534,48.276],[12.578,48.241],[12.536,48.221],[12.486,48.222],[12.465,48.239]],[[13.288,48.338],[13.357,48.369],[13.376,48.357],[13.32,48.319],[13.288,48.338]]],[[[10.192,49.126],[10.222,49.118],[10.255,49.13],[10.218,49.161],[10.192,49.126]]],[[[10.366,49.11],[10.39,49.093],[10.427,49.102],[10.366,49.11]]],[[[10.419,49.024],[10.459,49.024],[10.455,49.043],[10.419,49.039],[10.419,49.024]]],[[[10.47,49.055],[10.491,49.041],[10.507,49.051],[10.47,49.055]]],[[[11.068,49.117],[11.073,49.099],[11.099,49.079],[11.207,49.084],[11.189,49.108],[11.222,49.15],[11.304,49.068],[11.288,49.097],[11.323,49.143],[11.414,49.148],[11.278,49.184],[11.068,49.117]]],[[[11.091,49.023],[11.189,49.029],[11.206,49.034],[11.191,49.051],[11.17,49.049],[11.168,49.031],[11.091,49.023]]],[[[11.802,47.279],[11.804,47.269],[11.82,47.269],[11.837,47.292],[11.866,47.298],[11.885,47.328],[11.837,47.323],[11.802,47.279]]]]}},{"type":"Feature","properties":{"NAME":"Grand Duchy of Lithuania","SUBJECTO":"Poland-Lithuania","PARTOF":"Poland-Lithuania","CLIOPATRIA_COMPOSITE":"child","CLIOPATRIA_BASE_POWER":"Poland-Lithuania","START_DATE":"1395","END_DATE":"1401","CLIOPATRIA_NAME":"Grand Duchy of Lithuania","CLIOPATRIA_SESHAT_ID":"pl_jagiellonian_dyn","CLIOPATRIA_AREA_KM2":806719,"WIKIDATA":"Q49683","WIKIPEDIA":"Grand Duchy of Lithuania","SNAPSHOT_YEAR":1400},"geometry":{"type":"MultiPolygon","coordinates":[[[[35.931,54.342],[35.832,53.868],[35.904,53.8],[35.79,53.665],[36.048,53.665],[35.834,53.462],[35.765,53.125],[36.324,52.923],[36.427,52.586],[36.741,52.452],[37.014,52.116],[37.425,52.049],[37.483,51.915],[37.965,51.781],[37.937,51.647],[38.15,51.447],[38.095,51.179],[37.899,51.046],[37.838,50.313],[37.754,50.313],[37.544,49.648],[37.627,49.648],[37.59,49.449],[37.674,49.449],[37.709,49.184],[37.863,49.118],[37.839,48.985],[36.937,48.588],[36.688,48.588],[36.627,48.72],[36.306,48.787],[36.329,48.919],[36.079,48.919],[36.09,48.985],[36.007,48.985],[35.946,49.118],[35.78,49.118],[35.496,48.919],[35.026,47.532],[34.376,47.598],[34.109,47.466],[34.08,47.269],[33.694,46.874],[32.918,46.612],[32.172,46.546],[32.18,46.612],[32.034,46.743],[31.788,46.743],[31.606,46.612],[30.877,46.677],[30.485,46.152],[30.403,46.152],[30.263,46.349],[29.943,46.415],[29.9,46.743],[29.528,47.072],[29.551,47.269],[29.162,47.466],[29.209,47.862],[28.984,48.06],[28.013,48.258],[27.538,48.456],[27.394,48.654],[26.473,48.588],[25.981,48.654],[25.509,48.919],[25.253,48.853],[25.355,49.051],[25.779,49.118],[26.223,49.383],[26.19,49.847],[26.029,49.914],[25.967,50.113],[25.799,50.113],[25.737,50.313],[24.84,50.579],[24.769,50.712],[24.587,50.579],[24.334,50.579],[24.368,50.912],[24.199,50.912],[24.734,51.179],[24.961,51.714],[25.223,51.781],[25.261,52.116],[24.843,52.183],[24.643,51.915],[24.041,51.848],[23.935,51.647],[23.589,51.58],[22.747,51.647],[22.615,52.049],[23.139,52.183],[23.343,52.519],[23.186,52.654],[22.844,52.654],[22.66,52.519],[22.41,52.586],[22.343,52.788],[22.699,52.923],[22.739,53.327],[22.421,53.597],[22.548,54.003],[22.462,54.003],[22.482,54.206],[22.662,54.274],[22.697,54.613],[22.705,54.681],[22.813,54.885],[22.573,55.089],[22.311,55.089],[22.07,55.294],[21.64,55.362],[21.235,55.703],[21.248,55.84],[20.991,55.908],[20.998,55.977],[20.91,55.977],[20.916,56.045],[21.566,56.388],[21.654,56.388],[21.742,56.388],[21.83,56.388],[21.837,56.456],[21.925,56.456],[22.014,56.456],[22.102,56.456],[22.19,56.456],[24.106,56.251],[24.829,56.388],[25.067,56.182],[25.762,56.114],[25.831,55.977],[26.583,55.703],[26.866,55.84],[27.47,55.771],[27.972,56.182],[28.148,56.182],[28.124,56.594],[27.88,56.731],[27.891,56.8],[28.378,57.075],[29.584,56.869],[29.979,56.594],[29.955,56.456],[30.108,56.319],[30.373,56.319],[30.838,56.456],[31.128,57.075],[31.661,57.075],[32.131,57.213],[32.452,57.489],[32.63,57.489],[32.865,57.765],[33.133,57.765],[33.357,57.558],[33.701,57.075],[34.795,56.8],[34.957,56.731],[34.927,56.594],[33.972,56.251],[33.944,56.114],[33.68,56.114],[33.01,55.84],[32.659,55.84],[32.357,55.635],[31.856,55.771],[30.879,55.703],[30.883,55.225],[30.97,55.225],[30.8,54.749],[30.887,54.749],[30.939,54.545],[31.645,54.613],[31.795,54.477],[31.748,52.721],[31.994,52.654],[32.045,52.452],[32.216,52.452],[32.468,52.923],[32.871,53.26],[33.301,53.26],[33.682,53.462],[33.846,53.868],[34.045,54.003],[34.011,54.274],[34.425,54.613],[35.728,54.613],[35.931,54.342]]]]}},{"type":"Feature","properties":{"NAME":"Kingdom of Bohemia","SUBJECTO":"Holy Roman Empire","PARTOF":"Holy Roman Empire","START_DATE":"1385","END_DATE":"1414","CLIOPATRIA_NAME":"Kingdom of Bohemia","CLIOPATRIA_SESHAT_ID":"cz_bohemian_k_2","CLIOPATRIA_AREA_KM2":106361,"WIKIDATA":"Q42585","WIKIPEDIA":"Kingdom of Bohemia","SNAPSHOT_YEAR":1400},"geometry":{"type":"MultiPolygon","coordinates":[[[[12.122,50.235],[12.188,50.2],[12.216,50.168],[12.195,50.143],[12.199,50.117],[12.219,50.101],[12.273,50.074],[12.266,50.064],[12.371,49.98],[12.368,49.714],[12.534,49.648],[12.532,49.515],[13.03,49.25],[13.358,48.985],[13.525,48.985],[13.525,48.968],[13.587,48.966],[13.662,48.89],[13.678,48.881],[13.732,48.887],[13.765,48.834],[14.1,48.654],[14.444,48.608],[14.456,48.625],[14.451,48.644],[14.47,48.648],[14.507,48.618],[14.564,48.606],[14.608,48.628],[14.634,48.607],[14.716,48.65],[14.715,48.656],[14.729,48.689],[14.807,48.736],[14.82,48.801],[14.869,48.837],[14.888,48.904],[14.913,48.903],[14.941,48.985],[14.982,48.985],[14.992,49.011],[15.021,49.021],[15.059,49.015],[15.07,48.999],[15.15,48.995],[15.152,48.985],[15.19,48.985],[15.196,49.184],[15.234,49.209],[15.21,49.212],[15.182,49.173],[15.137,49.187],[15.191,49.236],[15.22,49.227],[15.238,49.254],[15.279,49.247],[15.269,49.249],[15.278,49.277],[15.331,49.271],[15.336,49.274],[15.346,49.315],[15.384,49.319],[15.358,49.337],[15.407,49.32],[15.486,49.371],[15.513,49.41],[15.546,49.41],[15.708,49.515],[15.801,49.781],[16.03,49.707],[16.05,49.708],[16.065,49.696],[16.115,49.68],[16.139,49.691],[16.195,49.676],[16.223,49.665],[16.224,49.662],[16.392,49.914],[16.711,50.013],[16.695,50.053],[16.805,50.052],[16.817,50.088],[16.801,50.132],[16.841,50.201],[16.872,50.199],[16.913,50.313],[17.02,50.225],[17.03,50.23],[17.074,50.187],[17.113,50.181],[17.154,50.124],[17.22,50.102],[17.239,50.055],[17.316,50.013],[17.322,49.984],[17.385,49.938],[17.411,49.948],[17.399,49.972],[17.429,49.969],[17.46,49.96],[17.475,49.926],[17.494,49.932],[17.539,49.901],[17.559,49.908],[17.6,49.877],[17.694,49.907],[17.71,49.895],[17.738,49.912],[17.804,49.916],[17.854,49.932],[17.847,49.958],[17.876,49.956],[17.882,49.937],[17.849,49.908],[17.837,49.873],[17.653,49.866],[17.655,49.819],[17.641,49.805],[17.699,49.725],[17.757,49.712],[17.763,49.693],[17.744,49.677],[17.765,49.648],[17.891,49.648],[17.88,49.656],[17.846,49.656],[17.87,49.701],[17.843,49.731],[17.871,49.783],[17.891,49.781],[17.917,49.712],[17.98,49.736],[17.991,49.687],[18.009,49.678],[18.012,49.679],[18.034,49.696],[18.001,49.718],[18.06,49.728],[18.061,49.717],[18.22,49.838],[18.227,49.853],[18.276,49.867],[18.3,49.835],[18.275,49.801],[18.299,49.779],[18.306,49.728],[18.365,49.657],[18.357,49.61],[18.369,49.562],[18.461,49.457],[18.52,49.469],[18.541,49.493],[18.544,49.465],[18.501,49.43],[18.884,49.515],[19.238,49.847],[19.166,50.046],[19.082,50.046],[19.086,50.113],[19.09,50.179],[19.174,50.179],[19.186,50.379],[19.022,50.446],[19.03,50.579],[18.701,50.712],[18.709,50.845],[18.049,51.112],[17.972,51.246],[17.549,51.246],[17.32,51.714],[16.98,51.714],[16.719,51.58],[16.556,51.714],[16.131,51.714],[16.137,51.848],[15.808,52.116],[15.814,52.25],[15.646,52.318],[15.47,52.183],[15.132,52.25],[14.779,51.915],[14.616,52.116],[14.361,52.116],[13.94,52.318],[13.425,52.183],[13.423,52.102],[13.493,52.109],[13.532,52.143],[13.549,52.137],[13.541,52.097],[13.638,52.066],[13.668,52.019],[13.561,51.982],[13.591,51.982],[13.757,51.848],[14.097,51.848],[14.263,51.714],[14.257,51.513],[14.255,51.447],[14.253,51.38],[14.252,51.313],[14.336,51.313],[14.334,51.246],[14.327,50.979],[14.07,50.845],[13.985,50.845],[13.222,50.645],[12.796,50.379],[12.376,50.379],[12.29,50.246],[12.122,50.246],[12.122,50.235]],[[17.425,50.234],[17.434,50.253],[17.487,50.274],[17.584,50.278],[17.612,50.266],[17.682,50.297],[17.693,50.327],[17.718,50.321],[17.747,50.294],[17.727,50.256],[17.765,50.236],[17.759,50.207],[17.62,50.171],[17.606,50.189],[17.542,50.189],[17.518,50.212],[17.427,50.205],[17.425,50.234]],[[17.792,49.758],[17.802,49.767],[17.823,49.756],[17.792,49.758]],[[17.796,49.969],[17.828,49.962],[17.808,49.956],[17.796,49.969]],[[17.948,50.07],[17.951,50.108],[17.974,50.127],[18.065,50.113],[18.123,50.065],[18.095,50.06],[18.081,50.092],[18.077,50.068],[18.076,50.083],[18.05,50.081],[18.005,50.05],[17.948,50.07]],[[17.954,49.795],[17.988,49.806],[18.006,49.786],[17.966,49.779],[17.954,49.795]],[[17.98,49.922],[17.994,49.902],[17.981,49.886],[17.98,49.922]]],[[[13.247,51.827],[13.258,51.82],[13.354,51.833],[13.323,51.829],[13.31,51.831],[13.316,51.848],[13.312,51.848],[13.311,51.845],[13.308,51.848],[13.247,51.848],[13.247,51.827]]],[[[13.45,51.679],[13.451,51.673],[13.582,51.647],[13.667,51.647],[13.671,51.781],[13.586,51.781],[13.586,51.782],[13.571,51.769],[13.576,51.755],[13.545,51.744],[13.519,51.704],[13.45,51.679]]],[[[13.509,51.848],[13.512,51.834],[13.536,51.826],[13.577,51.842],[13.587,51.842],[13.587,51.848],[13.509,51.848]]]]}},{"type":"Feature","properties":{"NAME":"Kingdom of Poland","SUBJECTO":"Poland-Lithuania","PARTOF":"Poland-Lithuania","CLIOPATRIA_COMPOSITE":"child","CLIOPATRIA_BASE_POWER":"Poland-Lithuania","START_DATE":"1395","END_DATE":"1401","CLIOPATRIA_NAME":"Kingdom of Poland","CLIOPATRIA_SESHAT_ID":"pl_jagiellonian_dyn","CLIOPATRIA_AREA_KM2":233778,"WIKIDATA":"Q577867","WIKIPEDIA":"Kingdom of Poland","SNAPSHOT_YEAR":1400},"geometry":{"type":"MultiPolygon","coordinates":[[[[19.09,50.179],[19.174,50.179],[19.186,50.379],[19.022,50.446],[19.03,50.579],[18.701,50.712],[18.709,50.845],[18.049,51.112],[17.972,51.246],[17.549,51.246],[17.32,51.714],[16.98,51.714],[16.719,51.58],[16.556,51.714],[16.131,51.714],[16.137,51.848],[15.808,52.116],[15.814,52.25],[15.646,52.318],[15.489,52.654],[16.097,52.855],[16.024,53.125],[16.11,53.125],[16.119,53.327],[16.294,53.395],[16.301,53.53],[16.477,53.597],[16.401,53.8],[16.66,53.8],[16.821,53.597],[17.08,53.597],[17.327,53.395],[17.507,53.53],[18.449,53.462],[18.517,53.192],[18.689,53.192],[18.928,52.923],[19.362,52.99],[19.725,53.26],[20.396,53.057],[20.67,53.26],[20.928,53.26],[21.289,53.462],[22.421,53.597],[22.739,53.327],[22.699,52.923],[22.343,52.788],[22.41,52.586],[22.66,52.519],[22.844,52.654],[23.186,52.654],[23.343,52.519],[23.139,52.183],[22.615,52.049],[22.747,51.647],[23.589,51.58],[23.935,51.647],[24.041,51.848],[24.643,51.915],[24.843,52.183],[25.261,52.116],[25.223,51.781],[24.961,51.714],[24.734,51.179],[24.199,50.912],[24.368,50.912],[24.334,50.579],[24.587,50.579],[24.769,50.712],[24.84,50.579],[25.737,50.313],[25.799,50.113],[25.967,50.113],[26.029,49.914],[26.19,49.847],[26.223,49.383],[25.779,49.118],[25.355,49.051],[25.253,48.853],[25.559,48.588],[25.54,48.39],[25.012,48.06],[24.988,47.796],[24.905,47.796],[24.586,47.928],[24.687,48.126],[24.367,48.258],[24.379,48.39],[24.053,48.456],[23.666,48.787],[22.929,48.919],[22.778,49.118],[22.523,49.051],[21.798,49.383],[20.212,49.383],[19.866,49.184],[19.473,49.582],[19.13,49.449],[18.884,49.515],[19.238,49.847],[19.166,50.046],[19.082,50.046],[19.086,50.113],[19.09,50.179]]]]}},{"type":"Feature","properties":{"NAME":"Margraviate of Brandenburg","SUBJECTO":"Holy Roman Empire","PARTOF":"Holy Roman Empire","START_DATE":"1395","END_DATE":"1401","CLIOPATRIA_NAME":"Margraviate of Brandenburg","CLIOPATRIA_SESHAT_ID":"de_empire_3","CLIOPATRIA_AREA_KM2":41923,"WIKIDATA":"Q148499","WIKIPEDIA":"Margraviate of Brandenburg","SNAPSHOT_YEAR":1400},"geometry":{"type":"MultiPolygon","coordinates":[[[[11.044,52.855],[11.127,52.519],[11.897,52.586],[12.013,52.641],[12.01,52.661],[12.039,52.726],[12.023,52.812],[12.066,52.818],[12.109,52.783],[12.141,52.783],[12.166,52.804],[12.213,52.795],[12.224,52.776],[12.206,52.761],[12.222,52.74],[12.218,52.737],[12.311,52.78],[12.282,52.796],[12.326,52.797],[12.351,52.842],[12.33,52.855],[12.364,52.847],[12.414,52.902],[12.456,52.922],[12.483,52.917],[12.518,52.963],[12.617,52.977],[12.653,53.003],[12.61,53.013],[12.627,53.07],[12.498,53.137],[12.511,53.146],[12.545,53.155],[12.739,53.119],[12.82,53.15],[12.912,53.154],[12.943,53.196],[12.968,53.199],[12.942,53.175],[12.98,53.163],[13.019,53.185],[13.061,53.157],[13.087,53.164],[13.132,53.134],[13.114,53.127],[13.106,53.099],[13.151,53.097],[13.234,53.056],[13.279,53.062],[13.236,53.053],[13.22,53.029],[13.238,53.014],[13.169,52.977],[13.184,52.956],[13.241,52.953],[13.245,52.937],[13.191,52.913],[13.154,52.921],[13.127,52.907],[13.155,52.866],[13.097,52.864],[13.094,52.841],[12.971,52.829],[12.986,52.829],[12.928,52.791],[12.856,52.785],[12.791,52.827],[12.726,52.823],[12.547,52.772],[12.539,52.753],[12.402,52.754],[12.396,52.771],[12.333,52.768],[12.327,52.771],[12.325,52.657],[12.334,52.652],[12.332,52.648],[12.578,52.452],[12.44,52.345],[12.466,52.328],[12.458,52.318],[12.405,52.312],[12.403,52.195],[12.435,52.196],[12.443,52.178],[12.447,52.177],[12.448,52.178],[12.496,52.175],[12.497,52.199],[12.54,52.2],[12.525,52.225],[12.536,52.248],[12.568,52.252],[12.571,52.268],[12.623,52.24],[12.784,52.204],[12.836,52.247],[12.782,52.269],[12.788,52.289],[12.897,52.297],[12.911,52.274],[12.845,52.245],[12.855,52.188],[12.827,52.177],[12.819,52.152],[12.832,52.14],[12.819,52.128],[12.99,52.106],[12.982,52.129],[12.952,52.143],[12.984,52.147],[13.098,52.218],[13.107,52.245],[13.17,52.268],[13.218,52.235],[13.192,52.191],[13.194,52.155],[13.222,52.12],[13.274,52.085],[13.327,52.077],[13.272,52.088],[13.423,52.102],[13.425,52.183],[13.94,52.318],[14.361,52.116],[14.616,52.116],[14.779,51.915],[15.132,52.25],[15.47,52.183],[15.646,52.318],[15.489,52.654],[16.097,52.855],[16.024,53.125],[16.11,53.125],[16.119,53.327],[16.294,53.395],[16.301,53.53],[16.477,53.597],[16.401,53.8],[16.314,53.8],[16.397,53.974],[16.314,53.989],[16.291,53.985],[16.283,53.958],[16.17,53.981],[16.16,53.989],[16.195,54.005],[16.13,54.028],[16.152,54.044],[15.982,54.071],[15.969,53.8],[16.056,53.8],[16.052,53.732],[15.704,53.665],[15.781,53.462],[15.44,53.53],[15.257,53.26],[15.25,53.259],[15.292,53.25],[15.368,53.251],[15.352,53.209],[15.38,53.199],[15.348,53.113],[15.401,53.089],[15.389,53.063],[15.421,53.052],[15.458,53.01],[15.412,52.98],[15.395,53.001],[15.359,52.989],[15.375,52.977],[15.282,52.965],[15.228,53.029],[15.202,53.036],[15.212,53.068],[15.199,53.085],[15.131,53.03],[15.082,53.04],[15.072,53.058],[15.025,53.053],[15.018,53.078],[15.051,53.103],[15.041,53.113],[15.008,53.113],[14.969,53.087],[14.885,53.122],[14.85,53.103],[14.85,53.063],[14.81,53.033],[14.816,53.018],[14.732,53.037],[14.651,52.984],[14.521,52.963],[14.427,53.001],[14.428,53.022],[14.371,53.039],[14.34,53.075],[14.354,53.079],[14.371,53.136],[14.325,53.155],[14.301,53.185],[14.264,53.121],[14.121,53.164],[14.093,53.222],[14.107,53.281],[14.227,53.364],[14.242,53.422],[14.171,53.476],[14.166,53.514],[14.077,53.517],[14.024,53.466],[13.969,53.482],[13.96,53.496],[13.974,53.499],[13.894,53.514],[13.893,53.499],[13.88,53.504],[13.902,53.569],[13.868,53.581],[13.786,53.563],[13.817,53.592],[13.776,53.598],[13.761,53.622],[13.861,53.67],[13.702,53.695],[13.549,53.665],[13.196,53.327],[12.166,53.395],[11.91,53.597],[11.738,53.597],[11.564,53.395],[11.306,53.462],[11.133,53.327],[11.218,53.192],[11.39,53.192],[11.388,53.057],[11.217,53.057],[11.044,52.855]],[[12.454,52.245],[12.464,52.265],[12.517,52.256],[12.496,52.231],[12.454,52.245]],[[13.04,53.194],[13.072,53.2],[13.056,53.179],[13.04,53.194]]],[[[14.741,53.111],[14.748,53.068],[14.79,53.079],[14.771,53.116],[14.741,53.111]]],[[[15.189,53.116],[15.23,53.133],[15.217,53.147],[15.19,53.142],[15.189,53.116]]]]}}],"metadata":{"generatedBy":"scripts/build-fief-flat.ts","input":"data/cliopatria_fiefs_1400.geojson","year":1400,"cutPolicy":"keep-smaller","containmentCoverageThreshold":0.9,"minOverlapAreaM2":1000,"sliverAreaLimitM2":1000000000,"resolutions":[],"externalInputs":["data/italy_fiefs_flat_1400.geojson","data/hre_fiefs_flat_1400.geojson"],"externalRemovals":[{"cutName":"Duchy of Bavaria","externalName":"County of Abensberg","overlapKm2":563.98},{"cutName":"Duchy of Bavaria","externalName":"County of Holland","overlapKm2":5901.53},{"cutName":"Duchy of Bavaria","externalName":"County of Schaunberg","overlapKm2":81.31},{"cutName":"Duchy of Bavaria","externalName":"Duchy of Austria","overlapKm2":51.38},{"cutName":"Duchy of Bavaria","externalName":"Duchy of Guelders","overlapKm2":221.44},{"cutName":"Duchy of Bavaria","externalName":"Imperial Abbey of Berchtesgaden","overlapKm2":244.57},{"cutName":"Duchy of Bavaria","externalName":"Prince-Archbishopric of Salzburg","overlapKm2":687.84},{"cutName":"Duchy of Bavaria","externalName":"Prince-Bishopric of Eichstätt","overlapKm2":1017.52},{"cutName":"Duchy of Bavaria","externalName":"Prince-Bishopric of Freising","overlapKm2":278.06},{"cutName":"Duchy of Bavaria","externalName":"Prince-Bishopric of Passau","overlapKm2":183.36},{"cutName":"Duchy of Bavaria","externalName":"Prince-Bishopric of Utrecht","overlapKm2":503.86},{"cutName":"Duchy of Bavaria","externalName":"Princely Abbey of Kempten","overlapKm2":134.8},{"cutName":"Duchy of Bavaria","externalName":"Principality of Ansbach","overlapKm2":585.77},{"cutName":"Kingdom of Bohemia","externalName":"Duchy of Austria","overlapKm2":151.01},{"cutName":"Kingdom of Bohemia","externalName":"Electorate of Saxony(-Wittenberg)","overlapKm2":483.52},{"cutName":"Kingdom of Bohemia","externalName":"Moravia","overlapKm2":1343.21},{"cutName":"Kingdom of Bohemia","externalName":"Prince-Archbishopric of Magdeburg","overlapKm2":23.41},{"cutName":"Kingdom of Bohemia","externalName":"Prince-Bishopric of Passau","overlapKm2":48.82},{"cutName":"Kingdom of Bohemia","externalName":"Principality of Bayreuth","overlapKm2":45.32},{"cutName":"Margraviate of Brandenburg","externalName":"Duchy of Pomerania-Stettin","overlapKm2":1723.82},{"cutName":"Margraviate of Brandenburg","externalName":"Electorate of Saxony(-Wittenberg)","overlapKm2":295.13},{"cutName":"Margraviate of Brandenburg","externalName":"Lordship of Ruppin","overlapKm2":1752.83},{"cutName":"Margraviate of Brandenburg","externalName":"Prince-Archbishopric of Magdeburg","overlapKm2":390.08},{"cutName":"Margraviate of Brandenburg","externalName":"Prince-Bishopric of Cammin","overlapKm2":83.7}],"source":"Cliopatria (Seshat Global History Databank)","sourceUrl":"https://github.com/Seshat-Global-History-Databank/cliopatria","license":"CC BY 4.0","commit":"ad28a691b7c07c1fca89d0e0636d324667d2a258","borderPrecision":"史料地図のデジタイズ（概略。手描き地図の自動抽出を 0.07 度で平滑化）"}}