{"type":"FeatureCollection","features":[{"type":"Feature","properties":{"NAME":"Duchy of Bavaria","SUBJECTO":"Holy Roman Empire","PARTOF":"Holy Roman Empire","START_DATE":"1459","END_DATE":"1506","CLIOPATRIA_NAME":"Duchy of Bavaria","CLIOPATRIA_SESHAT_ID":"","CLIOPATRIA_AREA_KM2":36100,"WIKIDATA":"Q47261","WIKIPEDIA":"Duchy of Bavaria","SNAPSHOT_YEAR":1492},"geometry":{"type":"MultiPolygon","coordinates":[[[[10.027,49.078],[10.028,48.985],[10.278,48.853],[10.278,48.72],[10.445,48.588],[10.529,48.258],[10.529,48.192],[10.482,47.967],[10.487,47.968],[10.478,47.943],[10.491,47.932],[10.472,47.913],[10.491,47.908],[10.483,47.885],[10.501,47.904],[10.537,47.893],[10.573,47.868],[10.564,47.849],[10.613,47.836],[10.6,47.77],[10.574,47.762],[10.695,47.73],[10.612,47.598],[10.695,47.598],[11.116,47.55],[11.136,47.552],[11.319,47.552],[11.412,47.496],[11.385,47.474],[11.395,47.466],[11.437,47.466],[11.437,47.335],[11.601,47.269],[11.746,47.269],[11.745,47.283],[11.787,47.352],[11.889,47.379],[11.911,47.368],[12.015,47.532],[12.262,47.532],[12.288,47.469],[12.342,47.458],[12.362,47.412],[12.342,47.379],[12.339,47.344],[12.343,47.335],[12.508,47.401],[12.511,47.664],[12.598,47.664],[12.606,47.674],[12.784,47.672],[12.765,47.654],[12.783,47.624],[12.78,47.634],[12.822,47.657],[12.851,47.646],[12.837,47.666],[12.898,47.692],[12.952,47.706],[12.909,47.695],[12.904,47.727],[12.925,47.752],[12.925,47.768],[12.89,47.745],[12.848,47.755],[12.831,47.779],[12.766,47.788],[12.685,47.901],[12.71,47.925],[12.646,47.969],[12.544,47.996],[12.545,48.014],[12.576,48.03],[12.589,48.065],[12.666,48.075],[12.714,48.111],[12.749,48.107],[12.764,48.079],[12.765,48.192],[12.929,48.06],[13.177,48.06],[13.715,48.378],[13.686,48.407],[13.702,48.42],[13.686,48.447],[13.697,48.473],[13.696,48.472],[13.637,48.528],[13.639,48.544],[13.657,48.544],[13.649,48.551],[13.591,48.569],[13.573,48.561],[13.517,48.588],[13.508,48.588],[13.475,48.556],[13.45,48.564],[13.436,48.553],[13.457,48.511],[13.447,48.494],[13.387,48.473],[13.362,48.488],[13.362,48.531],[13.39,48.542],[13.401,48.567],[13.45,48.576],[13.381,48.588],[13.269,48.588],[13.248,48.659],[13.234,48.671],[13.243,48.676],[13.19,48.853],[13.356,48.853],[13.358,48.985],[13.03,49.25],[12.861,49.118],[12.611,49.118],[12.524,48.853],[12.358,48.853],[12.274,48.787],[12.275,48.919],[12.109,48.985],[11.693,48.919],[11.527,49.118],[11.446,49.14],[11.485,49.108],[11.534,49.095],[11.535,49.043],[11.595,49.017],[11.517,48.972],[11.517,48.954],[11.484,48.959],[11.501,48.932],[11.492,48.921],[11.387,48.899],[11.405,48.849],[11.331,48.812],[11.325,48.787],[11.348,48.777],[11.326,48.76],[11.232,48.775],[11.127,48.814],[11.078,48.79],[11.032,48.795],[11.014,48.824],[11.148,48.83],[11.141,48.848],[10.999,48.841],[11.008,48.86],[10.998,48.87],[11.037,48.9],[11.076,48.905],[11.055,48.922],[11.089,48.954],[11.068,48.976],[11.068,49.002],[11.091,49.023],[10.986,49.028],[11.013,49.059],[10.937,49.075],[10.93,49.056],[10.958,49.04],[10.917,49.029],[11.027,48.985],[10.988,48.924],[11.035,48.91],[10.977,48.857],[10.948,48.86],[10.944,48.853],[10.713,48.899],[10.709,48.896],[10.671,48.907],[10.611,48.919],[10.537,49.017],[10.534,49.013],[10.412,49.02],[10.338,49.06],[10.365,49.075],[10.313,49.09],[10.294,49.066],[10.262,49.086],[10.242,49.077],[10.255,49.103],[10.225,49.104],[10.196,49.08],[10.157,49.075],[10.161,49.066],[10.111,49.074],[10.097,49.102],[10.05,49.077],[10.027,49.078]],[[11.271,48.343],[11.308,48.364],[11.32,48.341],[11.284,48.331],[11.271,48.343]],[[11.337,48.411],[11.374,48.421],[11.403,48.409],[11.394,48.393],[11.36,48.388],[11.337,48.411]],[[11.543,48.438],[11.56,48.455],[11.613,48.433],[11.567,48.395],[11.552,48.398],[11.563,48.422],[11.543,48.438]],[[11.607,48.158],[11.68,48.247],[11.7,48.321],[11.736,48.37],[11.735,48.399],[11.711,48.423],[11.743,48.433],[11.786,48.413],[11.753,48.404],[11.821,48.406],[11.75,48.241],[11.712,48.203],[11.668,48.196],[11.652,48.152],[11.607,48.158]],[[12.025,48.197],[12.091,48.221],[12.094,48.185],[12.029,48.178],[12.025,48.197]],[[12.465,48.239],[12.534,48.276],[12.578,48.241],[12.536,48.221],[12.486,48.222],[12.465,48.239]],[[13.288,48.338],[13.357,48.369],[13.376,48.357],[13.32,48.319],[13.288,48.338]]],[[[10.192,49.126],[10.222,49.118],[10.255,49.13],[10.218,49.161],[10.192,49.126]]],[[[10.366,49.11],[10.39,49.093],[10.427,49.102],[10.366,49.11]]],[[[10.419,49.024],[10.459,49.024],[10.455,49.043],[10.419,49.039],[10.419,49.024]]],[[[10.47,49.055],[10.491,49.041],[10.507,49.051],[10.47,49.055]]],[[[11.068,49.117],[11.073,49.099],[11.099,49.079],[11.207,49.084],[11.189,49.108],[11.222,49.15],[11.304,49.068],[11.288,49.097],[11.323,49.143],[11.414,49.148],[11.278,49.184],[11.068,49.117]]],[[[11.091,49.023],[11.189,49.029],[11.206,49.034],[11.191,49.051],[11.17,49.049],[11.168,49.031],[11.091,49.023]]],[[[11.802,47.279],[11.804,47.269],[11.82,47.269],[11.837,47.292],[11.866,47.298],[11.885,47.328],[11.837,47.323],[11.802,47.279]]],[[[13.727,48.509],[13.83,48.446],[13.847,48.456],[13.779,48.569],[13.755,48.564],[13.744,48.528],[13.727,48.509]]]]}},{"type":"Feature","properties":{"NAME":"Electorate of Brandenburg","SUBJECTO":"Holy Roman Empire","PARTOF":"Holy Roman Empire","START_DATE":"1492","END_DATE":"1528","CLIOPATRIA_NAME":"Electorate of Brandenburg","CLIOPATRIA_SESHAT_ID":"de_hohenzollern_1","CLIOPATRIA_AREA_KM2":42293,"WIKIDATA":"Q148499","WIKIPEDIA":"Margraviate of Brandenburg","SNAPSHOT_YEAR":1492},"geometry":{"type":"MultiPolygon","coordinates":[[[[11.044,52.855],[11.127,52.519],[11.897,52.586],[12.013,52.641],[12.01,52.661],[12.039,52.726],[12.023,52.812],[12.066,52.818],[12.109,52.783],[12.141,52.783],[12.166,52.804],[12.213,52.795],[12.224,52.776],[12.206,52.761],[12.222,52.74],[12.218,52.737],[12.311,52.78],[12.282,52.796],[12.326,52.797],[12.351,52.842],[12.33,52.855],[12.364,52.847],[12.414,52.902],[12.456,52.922],[12.483,52.917],[12.518,52.963],[12.617,52.977],[12.653,53.003],[12.61,53.013],[12.627,53.07],[12.498,53.137],[12.511,53.146],[12.545,53.155],[12.739,53.119],[12.82,53.15],[12.912,53.154],[12.943,53.196],[12.968,53.199],[12.942,53.175],[12.98,53.163],[13.019,53.185],[13.061,53.157],[13.087,53.164],[13.132,53.134],[13.114,53.127],[13.106,53.099],[13.151,53.097],[13.234,53.056],[13.279,53.062],[13.236,53.053],[13.22,53.029],[13.238,53.014],[13.169,52.977],[13.184,52.956],[13.241,52.953],[13.245,52.937],[13.191,52.913],[13.154,52.921],[13.127,52.907],[13.155,52.866],[13.097,52.864],[13.094,52.841],[12.971,52.829],[12.986,52.829],[12.928,52.791],[12.856,52.785],[12.791,52.827],[12.726,52.823],[12.547,52.772],[12.539,52.753],[12.402,52.754],[12.396,52.771],[12.333,52.768],[12.327,52.771],[12.325,52.657],[12.334,52.652],[12.332,52.648],[12.578,52.452],[12.44,52.345],[12.466,52.328],[12.458,52.318],[12.405,52.312],[12.403,52.195],[12.435,52.196],[12.443,52.178],[12.99,52.106],[12.982,52.129],[12.952,52.143],[12.984,52.147],[13.098,52.218],[13.107,52.245],[13.17,52.268],[13.218,52.235],[13.192,52.191],[13.194,52.155],[13.222,52.12],[13.274,52.085],[13.327,52.077],[13.327,52.061],[13.422,52.049],[13.425,52.183],[13.94,52.318],[14.361,52.116],[14.372,52.116],[14.367,52.12],[14.383,52.123],[14.399,52.116],[14.616,52.116],[14.713,51.997],[14.715,51.997],[14.714,51.995],[14.779,51.915],[14.869,52.049],[14.883,52.049],[14.881,52.055],[14.796,52.086],[14.806,52.091],[14.795,52.108],[14.816,52.116],[14.811,52.138],[14.835,52.149],[14.827,52.184],[14.908,52.209],[15.123,52.23],[15.132,52.25],[15.164,52.244],[15.237,52.293],[15.268,52.295],[15.318,52.281],[15.279,52.234],[15.293,52.218],[15.47,52.183],[15.646,52.318],[15.489,52.654],[15.575,52.654],[16.097,52.855],[16.024,53.125],[16.11,53.125],[16.119,53.327],[16.294,53.395],[16.301,53.53],[16.421,53.576],[16.352,53.636],[16.283,53.653],[16.248,53.681],[16.265,53.72],[16.245,53.751],[16.185,53.764],[16.106,53.703],[16.046,53.682],[16.049,53.665],[15.965,53.687],[15.964,53.685],[15.908,53.674],[15.886,53.708],[15.794,53.732],[15.725,53.681],[15.783,53.661],[15.8,53.64],[15.781,53.637],[15.773,53.612],[15.822,53.603],[15.76,53.563],[15.75,53.544],[15.781,53.462],[15.516,53.515],[15.517,53.513],[15.426,53.509],[15.425,53.507],[15.429,53.496],[15.415,53.493],[15.382,53.445],[15.385,53.444],[15.376,53.435],[15.367,53.422],[15.383,53.414],[15.461,53.419],[15.478,53.405],[15.594,53.397],[15.573,53.364],[15.509,53.355],[15.553,53.316],[15.546,53.27],[15.473,53.234],[15.382,53.25],[15.362,53.241],[15.352,53.209],[15.38,53.199],[15.348,53.113],[15.401,53.089],[15.389,53.063],[15.421,53.052],[15.458,53.01],[15.412,52.98],[15.395,53.001],[15.359,52.989],[15.375,52.977],[15.282,52.965],[15.228,53.029],[15.202,53.036],[15.212,53.068],[15.199,53.085],[15.131,53.03],[15.082,53.04],[15.072,53.058],[15.025,53.053],[15.018,53.078],[15.051,53.103],[15.041,53.113],[15.008,53.113],[14.969,53.087],[14.885,53.122],[14.85,53.103],[14.85,53.063],[14.81,53.033],[14.816,53.018],[14.732,53.037],[14.651,52.984],[14.521,52.963],[14.427,53.001],[14.428,53.022],[14.371,53.039],[14.34,53.075],[14.354,53.079],[14.371,53.136],[14.325,53.155],[14.301,53.185],[14.264,53.121],[14.121,53.164],[14.107,53.185],[14.093,53.222],[14.107,53.281],[14.227,53.364],[14.244,53.394],[14.229,53.436],[14.257,53.442],[14.241,53.455],[14.212,53.479],[14.171,53.476],[14.166,53.514],[14.105,53.52],[14.045,53.498],[14.024,53.466],[13.969,53.482],[13.96,53.496],[13.974,53.499],[13.894,53.514],[13.893,53.499],[13.88,53.504],[13.898,53.533],[13.883,53.542],[13.902,53.569],[13.868,53.581],[13.786,53.563],[13.817,53.592],[13.776,53.598],[13.761,53.622],[13.861,53.67],[13.702,53.695],[13.549,53.665],[13.196,53.327],[12.166,53.395],[11.91,53.597],[11.738,53.597],[11.564,53.395],[11.306,53.462],[11.133,53.327],[11.218,53.192],[11.39,53.192],[11.388,53.057],[11.217,53.057],[11.044,52.855]],[[13.04,53.194],[13.072,53.2],[13.056,53.179],[13.04,53.194]]],[[[13.933,52.049],[14.264,51.917],[14.268,51.918],[14.19,52.116],[13.935,52.116],[13.933,52.049]]],[[[14.741,53.111],[14.748,53.068],[14.79,53.079],[14.771,53.116],[14.741,53.111]]],[[[15.189,53.116],[15.23,53.133],[15.217,53.147],[15.19,53.142],[15.189,53.116]]],[[[16.16,53.989],[16.175,53.973],[16.283,53.958],[16.17,53.981],[16.16,53.989]]]]}},{"type":"Feature","properties":{"NAME":"Electorate of Saxony","SUBJECTO":"Holy Roman Empire","PARTOF":"Holy Roman Empire","START_DATE":"1492","END_DATE":"1501","CLIOPATRIA_NAME":"Electorate of Saxony","CLIOPATRIA_SESHAT_ID":"","CLIOPATRIA_AREA_KM2":34252,"WIKIDATA":"Q156199","WIKIPEDIA":"Electorate of Saxony","SNAPSHOT_YEAR":1492},"geometry":{"type":"MultiPolygon","coordinates":[[[[9.936,50.912],[10.092,50.887],[10.137,50.907],[10.143,50.894],[10.17,50.902],[10.179,50.883],[10.211,50.894],[10.214,50.88],[10.195,50.871],[10.358,50.845],[10.358,50.765],[10.37,50.768],[10.378,50.78],[10.362,50.794],[10.406,50.822],[10.416,50.849],[10.468,50.851],[10.518,50.821],[10.475,50.79],[10.533,50.796],[10.559,50.784],[10.575,50.741],[10.628,50.725],[10.78,50.845],[10.611,51.046],[10.358,51.112],[10.527,51.246],[10.865,51.179],[10.696,51.179],[10.696,51.112],[10.865,51.112],[10.93,51.095],[10.95,51.101],[10.951,51.125],[10.97,51.124],[10.981,51.097],[10.972,51.084],[11.031,51.069],[11.044,51.08],[11.085,51.065],[11.128,51.082],[11.133,51.058],[11.177,51.07],[11.206,51.036],[11.195,51.021],[11.237,51.007],[11.226,50.997],[11.241,50.985],[11.266,50.985],[11.267,50.971],[11.221,50.95],[11.253,50.889],[11.246,50.875],[11.222,50.879],[11.285,50.779],[11.032,50.712],[10.872,50.522],[10.871,50.518],[10.867,50.516],[10.863,50.512],[10.856,50.512],[10.822,50.498],[10.819,50.462],[10.774,50.452],[10.719,50.471],[10.677,50.46],[10.598,50.402],[10.673,50.375],[10.646,50.35],[10.594,50.336],[10.601,50.334],[10.592,50.27],[10.604,50.272],[10.612,50.224],[10.66,50.231],[10.724,50.205],[10.733,50.251],[10.769,50.241],[10.801,50.252],[10.837,50.221],[10.827,50.238],[10.852,50.251],[10.931,50.233],[10.921,50.211],[10.787,50.177],[10.868,50.197],[10.921,50.156],[10.903,50.15],[10.993,50.177],[11.007,50.2],[10.988,50.213],[11.033,50.219],[11.114,50.201],[11.114,50.246],[11.221,50.246],[11.189,50.271],[11.198,50.292],[11.262,50.275],[11.252,50.293],[11.26,50.319],[11.2,50.512],[11.284,50.579],[11.536,50.512],[11.706,50.712],[11.959,50.712],[12.045,50.845],[12.213,50.779],[12.211,50.645],[11.958,50.579],[11.956,50.404],[11.984,50.389],[11.98,50.349],[12.099,50.33],[12.091,50.324],[12.126,50.306],[12.136,50.274],[12.098,50.256],[12.122,50.246],[12.29,50.246],[12.376,50.379],[12.796,50.379],[13.052,50.579],[14.154,50.845],[14.327,50.979],[14.334,51.246],[14.161,51.112],[13.994,51.179],[14.079,51.179],[14.082,51.313],[13.915,51.38],[14.084,51.573],[14.069,51.612],[14.099,51.629],[14.107,51.664],[14.139,51.636],[14.164,51.639],[14.165,51.66],[14.164,51.71],[14.139,51.74],[14.111,51.74],[14.101,51.754],[14.122,51.79],[14.116,51.814],[14.073,51.827],[14.077,51.848],[13.909,51.848],[13.911,51.84],[13.89,51.839],[13.887,51.848],[13.837,51.848],[13.84,51.836],[13.807,51.84],[13.803,51.848],[13.757,51.848],[13.591,51.982],[13.506,51.982],[13.507,52.049],[13.422,52.049],[13.327,52.061],[13.327,52.058],[13.361,52.042],[13.356,51.998],[13.315,51.989],[13.32,51.973],[13.363,51.958],[13.373,51.973],[13.435,51.975],[13.451,51.967],[13.454,51.927],[13.482,51.933],[13.508,51.915],[13.589,51.915],[13.565,51.896],[13.575,51.889],[13.541,51.878],[13.508,51.853],[13.51,51.845],[13.671,51.781],[13.667,51.647],[13.582,51.647],[13.244,51.714],[13.247,51.848],[13.316,51.848],[13.336,51.91],[13.373,51.915],[13.378,51.93],[13.353,51.947],[13.255,51.94],[13.269,51.901],[13.222,51.878],[13.162,51.883],[13.159,51.861],[13.132,51.882],[13.085,51.874],[13.083,51.906],[13.032,51.901],[13.039,51.918],[13.058,51.915],[13.057,51.936],[12.994,51.948],[12.97,51.975],[12.918,51.961],[12.907,51.982],[12.932,51.993],[12.879,52.014],[12.904,52.036],[12.976,52.025],[12.909,52.064],[12.939,52.107],[12.993,52.096],[12.99,52.106],[12.443,52.178],[12.443,52.177],[12.42,52.152],[12.358,52.137],[12.295,52.155],[12.294,52.155],[12.257,52.134],[12.277,52.104],[12.266,52.1],[12.212,52.103],[12.178,52.077],[12.163,52.075],[12.229,51.915],[12.398,51.848],[12.395,51.714],[12.311,51.714],[12.309,51.58],[12.129,51.58],[12.165,51.576],[12.16,51.551],[12.078,51.534],[12.128,51.517],[12.071,51.512],[12.054,51.494],[12.088,51.485],[12.039,51.488],[12.077,51.454],[12.151,51.459],[12.17,51.423],[12.165,51.407],[12.117,51.418],[12.09,51.423],[12.083,51.391],[12.064,51.388],[12.047,51.393],[12.052,51.38],[11.881,51.313],[11.374,51.313],[11.545,51.513],[11.46,51.58],[11.377,51.714],[10.867,51.647],[10.867,51.628],[10.893,51.606],[10.867,51.575],[10.867,51.553],[10.87,51.535],[10.901,51.531],[10.908,51.509],[10.959,51.492],[10.982,51.469],[11.205,51.513],[11.29,51.513],[11.12,51.38],[11.289,51.313],[11.12,51.313],[10.714,51.367],[10.717,51.365],[10.701,51.332],[10.633,51.362],[10.628,51.378],[10.619,51.379],[10.585,51.367],[10.586,51.37],[10.104,51.179],[10.02,51.179],[9.936,50.912]],[[11.061,51.15],[11.08,51.149],[11.116,51.184],[11.16,51.159],[11.174,51.128],[11.175,51.106],[11.138,51.092],[11.093,51.112],[11.097,51.128],[11.064,51.129],[11.061,51.15]],[[11.226,51.071],[11.266,51.073],[11.263,51.052],[11.312,51.054],[11.274,51.026],[11.229,51.049],[11.226,51.071]],[[11.255,51.103],[11.256,51.131],[11.287,51.127],[11.282,51.102],[11.255,51.103]],[[11.289,50.867],[11.353,50.895],[11.344,50.927],[11.381,50.925],[11.395,50.902],[11.418,50.898],[11.379,50.865],[11.409,50.857],[11.405,50.833],[11.364,50.832],[11.355,50.815],[11.307,50.804],[11.289,50.867]],[[11.879,51.112],[12.051,51.313],[12.22,51.313],[12.216,51.046],[11.963,51.046],[11.964,51.112],[11.879,51.112]],[[12.55,50.779],[12.552,50.912],[12.722,50.979],[12.807,50.979],[12.718,50.712],[12.774,50.701],[12.632,50.645],[12.634,50.779],[12.55,50.779]],[[12.644,51.38],[12.645,51.447],[12.9,51.447],[12.898,51.38],[12.897,51.313],[12.728,51.313],[12.729,51.38],[12.644,51.38]],[[12.885,50.645],[12.886,50.679],[13.054,50.645],[12.885,50.645]],[[13.892,51.814],[13.905,51.823],[13.919,51.819],[13.901,51.808],[13.892,51.814]],[[13.972,51.836],[14.001,51.829],[13.986,51.822],[13.972,51.836]],[[13.998,51.736],[14.01,51.741],[14.034,51.723],[14.015,51.717],[13.998,51.736]],[[14.032,51.699],[14.076,51.721],[14.107,51.713],[14.105,51.699],[14.047,51.679],[14.032,51.699]]],[[[10.436,50.172],[10.468,50.177],[10.45,50.196],[10.436,50.172]]],[[[10.571,50.095],[10.636,50.069],[10.595,50.097],[10.571,50.095]]],[[[10.657,50.061],[10.68,50.052],[10.684,50.054],[10.683,50.07],[10.663,50.074],[10.657,50.061]]],[[[10.771,50.204],[10.827,50.214],[10.837,50.221],[10.771,50.204]]],[[[10.866,51.447],[10.968,51.467],[10.866,51.483],[10.866,51.447]]],[[[11.124,51.036],[11.139,51.013],[11.151,51.004],[11.188,51.022],[11.155,51.037],[11.124,51.036]]],[[[12.037,51.415],[12.045,51.396],[12.05,51.422],[12.037,51.415]]],[[[14.159,51.58],[14.237,51.58],[14.227,51.581],[14.235,51.61],[14.26,51.609],[14.262,51.665],[14.223,51.681],[14.181,51.668],[14.184,51.647],[14.24,51.64],[14.188,51.59],[14.159,51.58]]],[[[14.176,51.753],[14.208,51.753],[14.181,51.768],[14.176,51.753]]],[[[14.192,51.684],[14.22,51.691],[14.215,51.71],[14.192,51.716],[14.192,51.684]]]]}},{"type":"Feature","properties":{"NAME":"Kingdom of Bohemia","SUBJECTO":"Holy Roman Empire","PARTOF":"Holy Roman Empire","START_DATE":"1492","END_DATE":"1501","CLIOPATRIA_NAME":"Kingdom of Bohemia","CLIOPATRIA_SESHAT_ID":"cz_bohemian_k_2","CLIOPATRIA_AREA_KM2":128617,"WIKIDATA":"Q42585","WIKIPEDIA":"Kingdom of Bohemia","SNAPSHOT_YEAR":1492},"geometry":{"type":"MultiPolygon","coordinates":[[[[12.122,50.235],[12.188,50.2],[12.216,50.168],[12.195,50.143],[12.199,50.117],[12.219,50.101],[12.273,50.074],[12.266,50.064],[12.371,49.98],[12.368,49.714],[12.534,49.648],[12.532,49.515],[13.03,49.25],[13.358,48.985],[13.525,48.985],[13.525,48.968],[13.587,48.966],[13.662,48.89],[13.678,48.881],[13.732,48.887],[13.765,48.834],[14.1,48.654],[14.597,48.588],[14.85,48.72],[14.941,48.985],[15.488,48.937],[15.474,48.947],[15.35,48.984],[15.301,48.98],[15.286,49.016],[15.212,49.059],[15.227,49.085],[15.264,49.078],[15.234,49.089],[15.26,49.119],[15.226,49.151],[15.235,49.176],[15.209,49.184],[15.276,49.203],[15.21,49.212],[15.182,49.173],[15.137,49.187],[15.191,49.236],[15.22,49.227],[15.238,49.254],[15.279,49.247],[15.269,49.249],[15.278,49.277],[15.335,49.271],[15.346,49.315],[15.384,49.319],[15.358,49.337],[15.413,49.318],[15.467,49.345],[15.513,49.41],[15.587,49.41],[15.609,49.432],[15.64,49.428],[15.648,49.454],[15.692,49.431],[15.7,49.45],[15.779,49.45],[15.792,49.47],[15.813,49.468],[15.883,49.559],[15.878,49.588],[15.949,49.592],[15.984,49.611],[15.987,49.632],[15.947,49.638],[15.916,49.663],[15.931,49.679],[15.979,49.671],[16.021,49.707],[16.05,49.708],[16.096,49.671],[16.139,49.691],[16.195,49.676],[16.223,49.665],[16.23,49.631],[16.349,49.612],[16.406,49.572],[16.424,49.595],[16.443,49.586],[16.465,49.605],[16.532,49.608],[16.514,49.655],[16.477,49.666],[16.474,49.686],[16.367,49.717],[16.412,49.789],[16.504,49.789],[16.533,49.741],[16.574,49.743],[16.57,49.835],[16.626,49.86],[16.655,49.852],[16.653,49.896],[16.683,49.904],[16.693,49.93],[16.734,49.955],[16.695,50.053],[16.805,50.052],[16.817,50.088],[16.801,50.132],[16.841,50.201],[16.872,50.199],[16.847,50.207],[16.703,50.096],[16.632,50.114],[16.562,50.163],[16.558,50.213],[16.539,50.237],[16.437,50.321],[16.383,50.329],[16.362,50.35],[16.359,50.38],[16.305,50.383],[16.279,50.368],[16.237,50.414],[16.215,50.405],[16.196,50.436],[16.211,50.45],[16.23,50.443],[16.223,50.459],[16.259,50.48],[16.298,50.484],[16.298,50.503],[16.346,50.496],[16.393,50.525],[16.392,50.543],[16.411,50.549],[16.407,50.569],[16.449,50.573],[16.38,50.638],[16.41,50.654],[16.442,50.648],[16.487,50.68],[16.58,50.629],[16.634,50.57],[16.626,50.563],[16.684,50.515],[16.703,50.479],[16.736,50.477],[16.771,50.425],[16.809,50.401],[16.859,50.407],[16.909,50.39],[16.945,50.318],[17.012,50.292],[17.018,50.271],[17.003,50.253],[17.025,50.228],[16.999,50.218],[17.001,50.216],[17.03,50.23],[17.074,50.187],[17.113,50.181],[17.154,50.124],[17.22,50.102],[17.239,50.055],[17.316,50.013],[17.322,49.984],[17.385,49.938],[17.411,49.948],[17.399,49.972],[17.429,49.969],[17.46,49.96],[17.475,49.926],[17.494,49.932],[17.539,49.901],[17.559,49.908],[17.6,49.877],[17.694,49.907],[17.71,49.895],[17.738,49.912],[17.804,49.916],[17.854,49.932],[17.847,49.958],[17.876,49.956],[17.882,49.937],[17.849,49.908],[17.837,49.873],[17.653,49.866],[17.655,49.819],[17.641,49.805],[17.699,49.725],[17.757,49.712],[17.763,49.693],[17.744,49.677],[17.766,49.647],[17.836,49.607],[17.868,49.607],[17.841,49.642],[17.93,49.621],[17.88,49.656],[17.846,49.656],[17.87,49.701],[17.843,49.731],[17.871,49.783],[17.891,49.781],[17.917,49.712],[17.98,49.736],[17.991,49.687],[18.009,49.678],[18.185,49.755],[18.195,49.782],[18.222,49.796],[18.214,49.825],[18.227,49.853],[18.276,49.867],[18.3,49.835],[18.275,49.801],[18.299,49.779],[18.306,49.728],[18.365,49.657],[18.357,49.61],[18.369,49.562],[18.459,49.459],[18.498,49.465],[18.52,49.469],[18.541,49.493],[18.543,49.47],[18.884,49.515],[19.238,49.847],[19.166,50.046],[19.146,50.046],[19.117,50.003],[19.119,49.96],[19.046,49.955],[18.961,49.92],[18.911,49.935],[18.826,49.938],[18.777,49.922],[18.713,49.931],[18.72,49.897],[18.665,49.881],[18.618,49.906],[18.631,49.921],[18.621,49.939],[18.666,49.957],[18.622,49.96],[18.592,49.999],[18.613,50.018],[18.652,50.02],[18.774,50.001],[18.774,50.02],[18.75,50.026],[18.754,50.054],[18.73,50.06],[18.734,50.085],[18.759,50.101],[18.742,50.103],[18.73,50.155],[18.751,50.159],[18.747,50.172],[18.717,50.203],[18.77,50.198],[18.802,50.155],[18.823,50.192],[18.85,50.202],[18.796,50.246],[18.928,50.229],[18.956,50.239],[18.964,50.276],[19.009,50.264],[19.02,50.279],[19.059,50.269],[19.098,50.282],[19.176,50.214],[19.185,50.365],[19.172,50.344],[19.138,50.337],[19.143,50.289],[19.085,50.281],[19.046,50.301],[19.056,50.349],[18.959,50.383],[18.98,50.39],[18.97,50.412],[19.002,50.482],[19.025,50.489],[19.03,50.579],[18.701,50.712],[18.709,50.845],[18.049,51.112],[17.972,51.246],[17.549,51.246],[17.32,51.714],[16.98,51.714],[16.719,51.58],[16.556,51.714],[16.131,51.714],[16.137,51.848],[15.808,52.116],[15.814,52.25],[15.646,52.318],[15.47,52.183],[15.293,52.218],[15.313,52.195],[15.292,52.148],[15.306,52.131],[15.398,52.115],[15.536,52.161],[15.575,52.152],[15.644,52.174],[15.671,52.161],[15.725,52.169],[15.764,52.133],[15.738,52.106],[15.81,52.065],[15.77,52.02],[15.678,52],[15.605,52.01],[15.583,52.033],[15.498,52.039],[15.406,51.997],[15.33,52.005],[15.322,52.051],[15.265,52.063],[15.278,52.022],[15.258,52.004],[15.279,51.972],[15.337,51.971],[15.367,51.934],[15.28,51.907],[15.211,51.9],[15.194,51.856],[15.173,51.858],[15.177,51.871],[15.158,51.883],[15.064,51.864],[15.051,51.837],[15.01,51.833],[14.987,51.81],[15.024,51.797],[14.972,51.777],[14.989,51.748],[14.937,51.741],[14.956,51.755],[14.922,51.781],[14.965,51.807],[14.942,51.832],[14.909,51.839],[14.898,51.873],[14.967,51.874],[14.972,51.885],[14.932,51.896],[14.964,51.929],[14.943,51.931],[14.95,51.944],[14.919,51.963],[14.883,52.049],[14.869,52.049],[14.779,51.915],[14.714,51.995],[14.702,51.979],[14.682,51.981],[14.687,51.997],[14.713,51.997],[14.616,52.116],[14.399,52.116],[14.432,52.101],[14.401,52.095],[14.372,52.116],[14.361,52.116],[13.94,52.318],[13.425,52.183],[13.422,52.049],[13.507,52.049],[13.506,51.982],[13.591,51.982],[13.757,51.848],[13.803,51.848],[13.792,51.867],[13.825,51.878],[13.833,51.862],[13.837,51.848],[13.887,51.848],[13.883,51.861],[13.906,51.863],[13.909,51.848],[14.077,51.848],[14.082,51.873],[14.164,51.859],[14.215,51.869],[14.224,51.904],[14.264,51.917],[13.933,52.049],[13.935,52.116],[14.19,52.116],[14.268,51.918],[14.319,51.935],[14.41,51.938],[14.46,51.966],[14.542,51.957],[14.525,51.931],[14.552,51.896],[14.593,51.877],[14.545,51.846],[14.542,51.826],[14.564,51.808],[14.506,51.783],[14.568,51.745],[14.511,51.74],[14.529,51.694],[14.589,51.676],[14.559,51.651],[14.455,51.643],[14.429,51.66],[14.328,51.638],[14.262,51.665],[14.26,51.609],[14.321,51.606],[14.332,51.581],[14.301,51.577],[14.309,51.545],[14.268,51.538],[14.266,51.577],[14.259,51.578],[14.257,51.513],[14.255,51.447],[14.253,51.38],[14.252,51.313],[14.336,51.313],[14.334,51.246],[14.327,50.979],[14.154,50.845],[13.052,50.579],[12.796,50.379],[12.376,50.379],[12.29,50.246],[12.122,50.246],[12.122,50.235]],[[13.704,51.903],[13.715,51.906],[13.737,51.907],[13.728,51.891],[13.704,51.903]],[[13.785,51.901],[13.786,51.916],[13.818,51.929],[13.835,51.898],[13.785,51.901]],[[14.274,51.627],[14.301,51.638],[14.315,51.622],[14.274,51.627]],[[14.619,51.912],[14.662,51.919],[14.668,51.899],[14.629,51.892],[14.619,51.912]],[[17.425,50.234],[17.434,50.253],[17.487,50.274],[17.584,50.278],[17.612,50.266],[17.682,50.297],[17.693,50.327],[17.718,50.321],[17.747,50.294],[17.727,50.256],[17.765,50.236],[17.759,50.207],[17.62,50.171],[17.606,50.189],[17.542,50.189],[17.518,50.212],[17.427,50.205],[17.425,50.234]],[[17.792,49.758],[17.802,49.767],[17.823,49.756],[17.792,49.758]],[[17.796,49.969],[17.828,49.962],[17.808,49.956],[17.796,49.969]],[[17.948,50.07],[17.951,50.108],[17.974,50.127],[18.065,50.113],[18.123,50.065],[18.095,50.06],[18.081,50.092],[18.077,50.068],[18.076,50.083],[18.05,50.081],[18.005,50.05],[17.948,50.07]],[[17.954,49.795],[17.988,49.806],[18.006,49.786],[17.966,49.779],[17.954,49.795]],[[17.98,49.922],[17.994,49.902],[17.981,49.886],[17.98,49.922]],[[18.001,49.718],[18.06,49.728],[18.063,49.703],[18.034,49.696],[18.001,49.718]]],[[[13.244,51.714],[13.582,51.647],[13.667,51.647],[13.671,51.781],[13.586,51.781],[13.587,51.815],[13.51,51.845],[13.513,51.831],[13.469,51.847],[13.402,51.817],[13.31,51.831],[13.316,51.848],[13.247,51.848],[13.244,51.714]]],[[[14.232,51.786],[14.238,51.768],[14.282,51.782],[14.275,51.793],[14.232,51.786]]],[[[14.283,51.72],[14.293,51.707],[14.325,51.698],[14.333,51.717],[14.283,51.72]]],[[[15.123,52.23],[15.149,52.233],[15.164,52.244],[15.132,52.25],[15.123,52.23]]],[[[15.797,48.875],[15.955,48.811],[15.96,48.821],[15.933,48.82],[15.93,48.834],[15.851,48.858],[15.837,48.877],[15.797,48.875]]],[[[16.113,48.747],[16.18,48.72],[16.845,48.72],[16.891,48.725],[16.867,48.788],[16.606,48.781],[16.544,48.811],[16.462,48.809],[16.438,48.769],[16.384,48.731],[16.113,48.747]]],[[[17.02,48.74],[17.43,48.787],[17.51,48.818],[17.45,48.846],[17.4,48.815],[17.359,48.815],[17.322,48.845],[17.192,48.874],[17.146,48.837],[17.106,48.833],[17.088,48.787],[17.044,48.765],[17.02,48.74]]],[[[17.903,48.972],[17.938,48.985],[17.972,49.02],[17.922,49.018],[17.903,48.972]]],[[[18.142,49.199],[18.237,49.299],[18.189,49.289],[18.183,49.269],[18.149,49.249],[18.153,49.221],[18.142,49.199]]],[[[19.14,50.187],[19.175,50.19],[19.175,50.2],[19.14,50.187]]]]}},{"type":"Feature","properties":{"NAME":"Principality of Moldavia","SUBJECTO":"Ottoman Empire","PARTOF":"Ottoman Empire","START_DATE":"1487","END_DATE":"1506","CLIOPATRIA_NAME":"Principality of Moldavia","CLIOPATRIA_SESHAT_ID":"md_moldavia_principality_1","CLIOPATRIA_AREA_KM2":82069,"WIKIDATA":"Q10957559","WIKIPEDIA":"Moldavia","SNAPSHOT_YEAR":1492},"geometry":{"type":"MultiPolygon","coordinates":[[[[29.222,47.269],[28.982,47.335],[28.93,47.598],[29.028,47.73],[28.878,47.862],[28.555,47.928],[28.57,48.06],[28.42,48.192],[27.538,48.456],[27.394,48.654],[25.981,48.654],[25.509,48.919],[25.342,48.919],[25.246,48.787],[25.559,48.588],[25.54,48.39],[25.012,48.06],[24.988,47.796],[24.905,47.796],[24.881,47.532],[25.034,47.401],[25.017,47.203],[25.669,47.137],[25.727,46.874],[25.967,46.809],[25.942,46.546],[26.478,46.152],[26.44,45.759],[26.102,45.628],[26.24,45.366],[26.416,45.497],[26.66,45.497],[27.631,45.431],[27.861,45.3],[28.119,45.431],[28.147,45.693],[28.31,45.693],[28.331,45.89],[28.508,46.021],[28.44,46.152],[28.886,46.48],[29.572,46.743],[29.579,46.809],[29.348,46.94],[29.363,47.072],[29.214,47.203],[29.222,47.269]]]]}}],"metadata":{"generatedBy":"scripts/build-fief-flat.ts","input":"data/cliopatria_fiefs_1492.geojson","year":1492,"cutPolicy":"keep-smaller","containmentCoverageThreshold":0.9,"minOverlapAreaM2":1000,"sliverAreaLimitM2":1000000000,"resolutions":[{"kind":"sliver","cutName":"Kingdom of Bohemia","keptName":"Electorate of Saxony","overlapKm2":10.88,"coverageOfSmaller":0.0003}],"externalInputs":["data/italy_fiefs_flat_1492.geojson","data/hre_fiefs_flat_1492.geojson"],"externalRemovals":[{"cutName":"Duchy of Bavaria","externalName":"County of Schaunberg","overlapKm2":81.31},{"cutName":"Duchy of Bavaria","externalName":"Imperial Abbey of Berchtesgaden","overlapKm2":244.57},{"cutName":"Duchy of Bavaria","externalName":"Prince-Archbishopric of Salzburg","overlapKm2":687.84},{"cutName":"Duchy of Bavaria","externalName":"Prince-Bishopric of Eichstätt","overlapKm2":1017.52},{"cutName":"Duchy of Bavaria","externalName":"Prince-Bishopric of Freising","overlapKm2":292.55},{"cutName":"Duchy of Bavaria","externalName":"Prince-Bishopric of Passau","overlapKm2":183.48},{"cutName":"Duchy of Bavaria","externalName":"Princely Abbey of Kempten","overlapKm2":134.8},{"cutName":"Duchy of Bavaria","externalName":"Principality of Ansbach","overlapKm2":585.77},{"cutName":"Electorate of Brandenburg","externalName":"Duchy of Crossen","overlapKm2":362.01},{"cutName":"Electorate of Brandenburg","externalName":"Duchy of Pomerania","overlapKm2":2962.94},{"cutName":"Electorate of Brandenburg","externalName":"Lordship of Cottbus","overlapKm2":1.07},{"cutName":"Electorate of Brandenburg","externalName":"Lordship of Ruppin","overlapKm2":1752.83},{"cutName":"Electorate of Brandenburg","externalName":"Prince-Archbishopric of Magdeburg","overlapKm2":399.72},{"cutName":"Electorate of Brandenburg","externalName":"Prince-Bishopric of Cammin","overlapKm2":83.66},{"cutName":"Electorate of Saxony","externalName":"County of Henneberg-Schleusingen","overlapKm2":675.7},{"cutName":"Electorate of Saxony","externalName":"County of Hohnstein","overlapKm2":52.16},{"cutName":"Electorate of Saxony","externalName":"Erfurt Territory","overlapKm2":238.26},{"cutName":"Electorate of Saxony","externalName":"Imperial Abbey of Hersfeld","overlapKm2":15.32},{"cutName":"Electorate of Saxony","externalName":"Lordship of Cottbus","overlapKm2":188.78},{"cutName":"Electorate of Saxony","externalName":"Prince-Archbishopric of Magdeburg","overlapKm2":892.35},{"cutName":"Electorate of Saxony","externalName":"Prince-Bishopric of Bamberg","overlapKm2":256.47},{"cutName":"Electorate of Saxony","externalName":"Prince-Bishopric of Würzburg","overlapKm2":803.27},{"cutName":"Electorate of Saxony","externalName":"Principality of Bayreuth","overlapKm2":86.71},{"cutName":"Kingdom of Bohemia","externalName":"County of Kladsko","overlapKm2":1636.52},{"cutName":"Kingdom of Bohemia","externalName":"Duchy of Crossen","overlapKm2":1328.46},{"cutName":"Kingdom of Bohemia","externalName":"Duchy of Pless","overlapKm2":1009.64},{"cutName":"Kingdom of Bohemia","externalName":"Duchy of Siewierz","overlapKm2":163.23},{"cutName":"Kingdom of Bohemia","externalName":"Lordship of Cottbus","overlapKm2":814.03},{"cutName":"Kingdom of Bohemia","externalName":"Moravia","overlapKm2":22093.81},{"cutName":"Kingdom of Bohemia","externalName":"Prince-Archbishopric of Magdeburg","overlapKm2":27.39},{"cutName":"Kingdom of Bohemia","externalName":"Prince-Bishopric of Passau","overlapKm2":48.82},{"cutName":"Kingdom of Bohemia","externalName":"Principality of Bayreuth","overlapKm2":45.32}],"source":"Cliopatria (Seshat Global History Databank)","sourceUrl":"https://github.com/Seshat-Global-History-Databank/cliopatria","license":"CC BY 4.0","commit":"ad28a691b7c07c1fca89d0e0636d324667d2a258","borderPrecision":"史料地図のデジタイズ（概略。手描き地図の自動抽出を 0.07 度で平滑化）"}}