{"type":"FeatureCollection","features":[{"type":"Feature","properties":{"NAME":"Principality of Moldavia","SUBJECTO":"Ottoman Empire","PARTOF":"Ottoman Empire","START_DATE":"1595","END_DATE":"1599","CLIOPATRIA_NAME":"Principality of Moldavia","CLIOPATRIA_SESHAT_ID":"md_moldavia_principality_2","CLIOPATRIA_AREA_KM2":81506,"WIKIDATA":"Q10957559","WIKIPEDIA":"Moldavia","SNAPSHOT_YEAR":1600,"BORROWED_FROM":{"targetYear":1600,"fromYear":1595,"toYear":1599,"dataset":"Cliopatria (Seshat Global History Databank)","commit":"ad28a691b7c07c1fca89d0e0636d324667d2a258","seshatId":"md_moldavia_principality_2","license":"CC BY 4.0","reason":"Cliopatria の [1600-1601] はミハイ勇敢公が一時支配したモルダヴィア・ワラキア・トランシルヴァニア三公国を一枚にした 256,733 km² の合成面で、同君連合を構成政体の消滅・領土統合として扱わない本アプリの政体モデルと両立しない。既存のワラキア公国を独立した面として保つため、直前に隣接する[1595-1599]（81,506 km²）の座標を無改変で借用する（#450 / ADR-0044）。"}},"geometry":{"type":"MultiPolygon","coordinates":[[[[29.22186,47.26897],[28.9824,47.33479],[28.93032,47.59821],[29.02819,47.73],[28.87833,47.86186],[28.55527,47.92781],[28.57043,48.05975],[28.42004,48.19175],[27.53788,48.45594],[27.39371,48.65424],[26.47292,48.58812],[25.9813,48.65424],[25.34238,48.91887],[25.24631,48.78652],[25.55941,48.58812],[25.54009,48.38987],[25.01179,48.05975],[24.98762,47.79593],[24.905,47.79593],[24.88127,47.53233],[25.03433,47.40062],[25.01661,47.20317],[25.66891,47.13737],[25.72661,46.87434],[25.96681,46.80862],[25.94214,46.54585],[26.47793,46.15209],[26.44038,45.75877],[26.10192,45.62776],[26.24045,45.36588],[26.41556,45.4968],[26.65989,45.4968],[27.63057,45.43133],[27.86131,45.30044],[28.11904,45.43133],[28.14653,45.69326],[28.30961,45.69326],[28.33055,45.88983],[28.50797,46.02094],[28.44041,46.15209],[28.88568,46.48019],[29.57166,46.7429],[29.57933,46.80862],[29.34822,46.94008],[29.36349,47.07159],[29.21423,47.20317],[29.22186,47.26897]]]]}}],"metadata":{"generatedBy":"scripts/build-cliopatria-fiefs.ts","year":1600,"featureCount":1,"archiveUrl":"https://raw.githubusercontent.com/Seshat-Global-History-Databank/cliopatria/ad28a691b7c07c1fca89d0e0636d324667d2a258/cliopatria.geojson.zip","archiveSha256":"d01ae3a20d358cc5d54f69d9d725d390767d9c8759ac89ad6f90c58d106f3370","doi":"10.5281/zenodo.14714684","citation":"Bennett, J., Mutch, E., Chalstrey, E. et al. (2025) Cliopatria: A geospatial database of world-wide political entities from 3400BCE to 2024CE. Scientific Data.","selected":[{"name":"Principality of Moldavia","upstreamName":"Principality of Moldavia","fromYear":1595,"toYear":1599,"upstreamAreaKm2":81506}],"borrowedFrom":[{"name":"Principality of Moldavia","upstreamName":"Principality of Moldavia","targetYear":1600,"fromYear":1595,"toYear":1599,"dataset":"Cliopatria (Seshat Global History Databank)","commit":"ad28a691b7c07c1fca89d0e0636d324667d2a258","seshatId":"md_moldavia_principality_2","license":"CC BY 4.0","reason":"Cliopatria の [1600-1601] はミハイ勇敢公が一時支配したモルダヴィア・ワラキア・トランシルヴァニア三公国を一枚にした 256,733 km² の合成面で、同君連合を構成政体の消滅・領土統合として扱わない本アプリの政体モデルと両立しない。既存のワラキア公国を独立した面として保つため、直前に隣接する[1595-1599]（81,506 km²）の座標を無改変で借用する（#450 / ADR-0044）。"}],"source":"Cliopatria (Seshat Global History Databank)","sourceUrl":"https://github.com/Seshat-Global-History-Databank/cliopatria","license":"CC BY 4.0","commit":"ad28a691b7c07c1fca89d0e0636d324667d2a258","borderPrecision":"史料地図のデジタイズ（概略。手描き地図の自動抽出を 0.07 度で平滑化）"}}