{"type":"FeatureCollection","features":[{"type":"Feature","properties":{"NAME":"County of Armagnac","START_DATE":"1279","END_DATE":"1332","CLIOPATRIA_NAME":"County of Armagnac","CLIOPATRIA_SESHAT_ID":"fr_capetian_k_2","CLIOPATRIA_AREA_KM2":6985,"WIKIDATA":"Q676745","WIKIPEDIA":"County of Armagnac","SNAPSHOT_YEAR":1300},"geometry":{"type":"MultiPolygon","coordinates":[[[[-0.281,43.994],[-0.329,43.472],[0.009,43.212],[0.089,43.212],[0.082,43.342],[0.403,43.342],[0.476,43.472],[0.637,43.472],[0.948,43.668],[0.922,44.124],[0.284,43.994],[0.038,44.059],[0.042,43.994],[-0.039,43.994],[-0.12,43.994],[-0.2,43.994],[-0.281,43.994]]]]}},{"type":"Feature","properties":{"NAME":"County of Auvergne","START_DATE":"1272","END_DATE":"1332","CLIOPATRIA_NAME":"County of Auvergne","CLIOPATRIA_SESHAT_ID":"fr_capetian_k_2","CLIOPATRIA_AREA_KM2":19408,"WIKIDATA":"Q1152","WIKIPEDIA":"Auvergne","SNAPSHOT_YEAR":1300},"geometry":{"type":"MultiPolygon","coordinates":[[[[1.425,50.712],[1.518,50.579],[1.602,50.579],[1.842,50.779],[1.58,50.912],[1.496,50.912],[1.509,50.712],[1.425,50.712]]],[[[2.101,44.777],[2.276,44.516],[2.516,44.581],[2.584,44.843],[2.747,44.843],[2.918,44.647],[3.158,44.712],[3.231,44.908],[3.474,44.908],[3.561,44.777],[3.966,44.777],[3.961,44.908],[4.123,44.908],[4.357,45.17],[4.354,45.235],[4.352,45.3],[4.27,45.3],[3.942,45.366],[4.013,45.628],[3.931,45.628],[3.923,45.824],[3.676,45.89],[3.67,46.021],[3.343,46.021],[3.349,45.89],[3.267,45.89],[3.013,46.087],[2.771,46.021],[2.729,46.053],[2.723,46.05],[2.674,46.004],[2.615,45.978],[2.572,45.975],[2.564,45.966],[2.536,45.824],[2.482,45.763],[2.486,45.742],[2.442,45.707],[2.432,45.706],[2.305,45.562],[2.403,45.235],[2.169,45.039],[2.101,44.777]]],[[[2.598,46.134],[2.635,46.126],[2.601,46.152],[2.598,46.134]]]]}},{"type":"Feature","properties":{"NAME":"County of Foix","START_DATE":"1294","END_DATE":"1332","CLIOPATRIA_NAME":"County of Foix","CLIOPATRIA_SESHAT_ID":"fr_capetian_k_2","CLIOPATRIA_AREA_KM2":8648,"WIKIDATA":"Q1481436","WIKIPEDIA":"County of Foix","SNAPSHOT_YEAR":1300},"geometry":{"type":"MultiPolygon","coordinates":[[[[0.995,42.821],[0.984,43.017],[0.813,43.212],[0.966,43.342],[0.637,43.472],[0.948,43.668],[1.277,43.538],[1.305,43.017],[1.873,42.886],[1.726,42.626],[1.646,42.626],[1.566,42.626],[1.486,42.626],[1.075,42.821],[0.995,42.821]]],[[[0.013,43.147],[-0.296,42.951],[-0.292,42.886],[-0.288,42.821],[-0.858,42.951],[-0.871,43.147],[-1.044,43.342],[-0.655,43.538],[-0.329,43.472],[0.009,43.212],[0.013,43.147]]]]}},{"type":"Feature","properties":{"NAME":"County of Nevers","START_DATE":"1285","END_DATE":"1325","CLIOPATRIA_NAME":"County of Nevers","CLIOPATRIA_SESHAT_ID":"fr_capetian_k_2","CLIOPATRIA_AREA_KM2":13355,"WIKIDATA":"Q2070440","WIKIPEDIA":"County of Nevers","SNAPSHOT_YEAR":1300},"geometry":{"type":"MultiPolygon","coordinates":[[[[2.357,47.664],[2.368,47.466],[2.619,47.401],[2.794,47.203],[2.985,46.677],[3.571,46.561],[3.591,46.602],[3.696,46.643],[3.66,46.668],[3.626,46.761],[3.531,46.696],[3.426,46.691],[3.398,46.717],[3.265,46.731],[3.19,46.68],[3.052,46.739],[3.032,46.767],[3.065,46.859],[3.047,46.954],[3.07,46.99],[3.037,47.088],[3.03,47.135],[2.999,47.204],[2.982,47.265],[2.881,47.328],[2.93,47.448],[2.841,47.564],[2.759,47.602],[2.699,47.66],[2.597,47.685],[2.522,47.655],[2.457,47.717],[2.461,47.734],[2.435,47.747],[2.44,47.664],[2.357,47.664]]],[[[2.429,47.862],[2.433,47.781],[2.502,47.811],[2.697,47.761],[2.752,47.788],[2.887,47.752],[2.937,47.723],[3.06,47.731],[3.12,47.775],[3.214,47.762],[3.276,47.797],[3.213,47.8],[3.213,47.877],[3.076,47.979],[3.008,47.862],[2.763,47.796],[2.429,47.862]]],[[[3.6,47.892],[3.626,47.874],[3.649,47.877],[3.634,47.889],[3.6,47.892]]],[[[4.382,49.869],[4.429,49.869],[4.583,49.837],[4.599,49.837],[4.577,49.914],[4.493,49.914],[4.382,49.869]]]]}},{"type":"Feature","properties":{"NAME":"County of Périgord","START_DATE":"1272","END_DATE":"1332","CLIOPATRIA_NAME":"County of Périgord","CLIOPATRIA_SESHAT_ID":"fr_capetian_k_2","CLIOPATRIA_AREA_KM2":8547,"WIKIDATA":"Q1947408","WIKIPEDIA":"County of Périgord","SNAPSHOT_YEAR":1300},"geometry":{"type":"MultiPolygon","coordinates":[[[[-0.178,44.908],[0.224,44.973],[0.683,45.431],[1.102,45.235],[1.198,44.973],[1.449,44.843],[1.378,44.647],[1.065,44.451],[-0.072,44.516],[-0.178,44.908]]]]}},{"type":"Feature","properties":{"NAME":"Duchy of Aquitaine","START_DATE":"1250","END_DATE":"1304","CLIOPATRIA_NAME":"Duchy of Aquitaine","CLIOPATRIA_SESHAT_ID":"fr_capetian_k_2","CLIOPATRIA_AREA_KM2":9626,"WIKIDATA":"Q7703611","WIKIPEDIA":"Duchy of Aquitaine","SNAPSHOT_YEAR":1300},"geometry":{"type":"Polygon","coordinates":[[[0.683,45.431],[1.102,45.235],[1.198,44.973],[1.449,44.843],[2.101,44.777],[2.169,45.039],[2.403,45.235],[2.305,45.562],[0.954,45.815],[0.937,45.804],[0.967,45.727],[0.931,45.647],[0.85,45.622],[0.683,45.431]]]}},{"type":"Feature","properties":{"NAME":"Duchy of Bavaria","SUBJECTO":"Holy Roman Empire","PARTOF":"Holy Roman Empire","START_DATE":"1294","END_DATE":"1304","CLIOPATRIA_NAME":"Duchy of Bavaria","CLIOPATRIA_SESHAT_ID":"de_empire_3","CLIOPATRIA_AREA_KM2":35301,"WIKIDATA":"Q47261","WIKIPEDIA":"Duchy of Bavaria","SNAPSHOT_YEAR":1300},"geometry":{"type":"MultiPolygon","coordinates":[[[[7.015,49.582],[7.357,49.25],[7.526,49.318],[7.524,49.333],[7.56,49.357],[7.582,49.345],[7.583,49.341],[7.688,49.383],[7.848,49.136],[7.865,49.144],[7.863,49.156],[7.875,49.153],[7.901,49.175],[7.91,49.164],[7.899,49.149],[7.921,49.129],[7.906,49.118],[7.86,49.117],[7.862,49.051],[8.113,48.985],[8.275,49.25],[8.774,49.316],[8.606,49.449],[8.355,49.449],[8.321,49.551],[8.317,49.55],[8.311,49.555],[8.319,49.558],[8.307,49.594],[8.29,49.591],[8.283,49.608],[8.275,49.609],[8.278,49.616],[8.3,49.616],[8.267,49.714],[8.209,49.714],[8.203,49.713],[8.202,49.714],[7.902,49.714],[7.891,49.702],[7.9,49.693],[7.907,49.696],[7.908,49.686],[7.878,49.662],[7.857,49.662],[7.839,49.683],[7.843,49.706],[7.862,49.706],[7.864,49.714],[7.849,49.714],[7.761,49.914],[7.51,49.914],[7.601,49.582],[7.015,49.582]],[[7.701,49.498],[7.716,49.504],[7.755,49.491],[7.754,49.476],[7.738,49.473],[7.701,49.498]],[[7.761,49.545],[7.811,49.587],[7.848,49.594],[7.867,49.619],[7.863,49.628],[7.885,49.622],[7.886,49.609],[7.9,49.603],[7.943,49.604],[7.941,49.604],[7.944,49.606],[7.977,49.608],[7.97,49.595],[7.938,49.588],[7.944,49.567],[7.874,49.562],[7.863,49.545],[7.77,49.534],[7.761,49.545]],[[7.831,49.373],[7.833,49.387],[7.88,49.41],[7.891,49.402],[7.921,49.42],[7.93,49.421],[7.939,49.409],[7.919,49.388],[7.905,49.394],[7.885,49.388],[7.876,49.376],[7.848,49.367],[7.831,49.373]],[[7.888,49.191],[7.918,49.21],[7.951,49.186],[7.938,49.177],[7.915,49.178],[7.906,49.189],[7.888,49.191]],[[7.943,49.453],[7.957,49.463],[7.95,49.484],[7.957,49.489],[8.002,49.499],[8.011,49.509],[8.042,49.519],[8.08,49.533],[8.042,49.523],[8.08,49.545],[8.101,49.554],[8.094,49.563],[8.124,49.568],[8.128,49.574],[8.115,49.585],[8.087,49.576],[8.078,49.59],[8.088,49.611],[8.121,49.621],[8.129,49.612],[8.188,49.619],[8.184,49.635],[8.194,49.636],[8.191,49.652],[8.207,49.653],[8.232,49.618],[8.205,49.612],[8.215,49.602],[8.234,49.604],[8.21,49.594],[8.21,49.583],[8.186,49.581],[8.19,49.555],[8.205,49.556],[8.216,49.525],[8.168,49.526],[8.174,49.517],[8.189,49.518],[8.192,49.504],[8.184,49.501],[8.195,49.495],[8.258,49.495],[8.251,49.482],[8.219,49.468],[8.221,49.463],[8.161,49.455],[8.159,49.463],[8.134,49.467],[8.115,49.461],[8.132,49.453],[8.087,49.438],[8.06,49.402],[8.024,49.397],[8.044,49.389],[8.049,49.375],[8.024,49.366],[7.988,49.391],[8.019,49.392],[8.025,49.423],[8.011,49.418],[7.995,49.423],[8.021,49.433],[7.995,49.433],[8.028,49.446],[8.017,49.458],[8.007,49.448],[7.996,49.449],[7.995,49.442],[7.982,49.443],[7.978,49.451],[7.959,49.442],[7.943,49.453]],[[7.948,49.619],[7.979,49.619],[7.969,49.613],[7.949,49.608],[7.948,49.619]],[[8.033,49.685],[8.054,49.699],[8.116,49.687],[8.078,49.678],[8.033,49.685]],[[8.051,49.252],[8.083,49.256],[8.109,49.247],[8.076,49.244],[8.051,49.252]],[[8.212,49.587],[8.233,49.588],[8.281,49.587],[8.275,49.539],[8.24,49.537],[8.233,49.548],[8.22,49.546],[8.213,49.556],[8.222,49.56],[8.212,49.587]],[[8.276,49.423],[8.28,49.434],[8.308,49.43],[8.291,49.394],[8.283,49.393],[8.276,49.423]]],[[[10.027,49.078],[10.028,48.985],[10.278,48.853],[10.278,48.72],[10.445,48.588],[10.446,48.324],[10.528,48.324],[10.473,47.967],[10.487,47.968],[10.478,47.943],[10.491,47.932],[10.473,47.925],[10.472,47.913],[10.491,47.908],[10.479,47.901],[10.483,47.885],[10.49,47.885],[10.501,47.904],[10.511,47.893],[10.556,47.891],[10.574,47.877],[10.564,47.849],[10.591,47.836],[10.616,47.844],[10.605,47.828],[10.612,47.815],[10.602,47.808],[10.605,47.798],[10.615,47.796],[10.6,47.77],[10.583,47.76],[10.695,47.73],[10.612,47.598],[10.695,47.598],[11.116,47.55],[11.136,47.552],[11.172,47.543],[11.175,47.543],[11.319,47.552],[11.412,47.496],[11.385,47.474],[11.409,47.466],[11.437,47.466],[11.437,47.335],[11.601,47.269],[11.848,47.269],[12.015,47.532],[12.262,47.532],[12.343,47.335],[12.508,47.401],[12.593,47.664],[12.595,47.796],[12.43,47.862],[12.432,48.06],[11.937,48.192],[11.855,48.324],[11.788,48.324],[11.787,48.322],[11.757,48.272],[11.75,48.241],[11.712,48.203],[11.671,48.199],[11.652,48.152],[11.607,48.158],[11.685,48.252],[11.68,48.262],[11.699,48.294],[11.702,48.323],[11.703,48.324],[10.86,48.324],[10.943,48.456],[11.275,48.522],[11.443,48.853],[11.568,48.878],[11.564,48.891],[11.553,48.895],[11.569,48.917],[11.562,48.922],[11.572,48.927],[11.69,48.93],[11.711,48.937],[11.736,48.926],[11.762,48.937],[11.843,48.927],[11.864,48.942],[11.887,48.931],[11.922,48.935],[11.924,48.934],[12.267,49.011],[12.256,49.021],[12.219,49.029],[12.184,49.008],[12.152,49.021],[12.156,49.049],[12.223,49.087],[12.276,49.096],[12.319,49.125],[12.358,49.114],[12.325,49.082],[12.377,49.063],[12.428,49.077],[12.459,49.072],[12.457,49.062],[12.78,49.316],[12.368,49.714],[12.371,49.98],[12.266,50.064],[12.258,50.052],[12.241,50.036],[12.198,50.033],[12.198,49.999],[12.146,49.992],[12.14,50.008],[12.116,50.031],[12.076,50.022],[12.077,50.013],[12.047,50.016],[12.044,50.008],[12.076,49.995],[12.05,49.989],[11.962,49.992],[11.922,49.984],[11.887,49.999],[11.874,50.016],[11.858,50.022],[11.821,50.023],[11.816,50.004],[11.796,50.009],[11.788,49.998],[11.8,49.982],[11.792,49.964],[11.798,49.951],[11.787,49.942],[11.762,49.947],[11.747,49.928],[11.716,49.924],[11.714,49.906],[11.73,49.899],[11.712,49.891],[11.736,49.876],[11.712,49.869],[11.706,49.847],[11.675,49.832],[11.673,49.819],[11.686,49.805],[11.668,49.806],[11.649,49.785],[11.58,49.761],[11.588,49.751],[11.577,49.74],[11.574,49.704],[11.55,49.699],[11.567,49.676],[11.562,49.654],[11.569,49.645],[11.563,49.635],[11.596,49.606],[11.564,49.574],[11.54,49.602],[11.513,49.608],[11.517,49.627],[11.472,49.632],[11.423,49.62],[11.399,49.636],[11.406,49.648],[11.44,49.657],[11.441,49.674],[11.474,49.686],[11.471,49.712],[11.429,49.72],[11.435,49.732],[11.417,49.711],[11.343,49.678],[11.318,49.685],[11.279,49.675],[11.261,49.694],[11.225,49.698],[11.222,49.697],[11.279,49.515],[11.028,49.449],[11.028,49.433],[11.03,49.43],[11.046,49.429],[11.059,49.414],[11.028,49.413],[11.028,49.376],[11.035,49.371],[11.079,49.365],[11.107,49.374],[11.116,49.367],[11.097,49.35],[11.093,49.337],[11.1,49.334],[11.123,49.343],[11.143,49.364],[11.194,49.34],[11.251,49.337],[11.27,49.346],[11.268,49.357],[11.312,49.354],[11.356,49.322],[11.327,49.3],[11.307,49.298],[11.291,49.312],[11.262,49.312],[11.255,49.323],[11.231,49.323],[11.239,49.309],[11.231,49.306],[11.211,49.317],[11.177,49.283],[11.225,49.25],[11.278,49.25],[11.277,49.118],[11.264,49.116],[11.288,49.097],[11.288,49.079],[11.304,49.068],[11.252,49.049],[11.216,49.056],[11.223,49.039],[11.206,49.034],[11.191,49.051],[11.17,49.049],[11.168,49.031],[11.138,49.033],[11.091,49.023],[10.986,49.022],[11.017,49.052],[11.013,49.059],[10.987,49.063],[10.977,49.07],[10.932,49.062],[10.93,49.056],[10.958,49.04],[10.939,49.03],[10.914,49.03],[11.027,48.985],[10.99,48.927],[10.996,48.929],[11.035,48.91],[11.037,48.9],[10.998,48.87],[10.979,48.872],[10.977,48.857],[10.947,48.857],[10.944,48.853],[10.713,48.899],[10.709,48.896],[10.671,48.907],[10.611,48.919],[10.536,49.018],[10.534,49.013],[10.412,49.02],[10.353,49.052],[10.332,49.054],[10.365,49.075],[10.313,49.09],[10.299,49.082],[10.294,49.066],[10.282,49.066],[10.262,49.086],[10.242,49.077],[10.255,49.103],[10.237,49.097],[10.225,49.104],[10.193,49.088],[10.196,49.08],[10.157,49.075],[10.161,49.066],[10.143,49.067],[10.142,49.076],[10.111,49.074],[10.095,49.092],[10.097,49.102],[10.05,49.077],[10.027,49.078]],[[11.339,49.58],[11.35,49.596],[11.379,49.606],[11.403,49.595],[11.383,49.565],[11.36,49.567],[11.359,49.576],[11.339,49.58]],[[11.444,49.52],[11.518,49.513],[11.502,49.502],[11.472,49.502],[11.444,49.52]],[[11.699,49.657],[11.755,49.673],[11.776,49.668],[11.777,49.68],[11.82,49.688],[11.819,49.678],[11.839,49.677],[11.851,49.683],[11.843,49.689],[11.851,49.691],[11.891,49.681],[11.904,49.666],[11.905,49.626],[11.925,49.63],[11.944,49.609],[11.919,49.602],[11.908,49.594],[11.874,49.59],[11.826,49.596],[11.793,49.617],[11.753,49.625],[11.741,49.62],[11.699,49.657]],[[11.734,49.832],[11.765,49.848],[11.776,49.873],[11.763,49.891],[11.774,49.905],[11.804,49.896],[11.812,49.881],[11.811,49.853],[11.834,49.842],[11.833,49.811],[11.789,49.801],[11.767,49.816],[11.738,49.809],[11.734,49.832]]],[[[10.149,49.112],[10.155,49.108],[10.17,49.113],[10.153,49.12],[10.149,49.112]]],[[[10.176,49.104],[10.194,49.097],[10.2,49.102],[10.185,49.111],[10.176,49.104]]],[[[10.192,49.126],[10.222,49.118],[10.255,49.13],[10.248,49.149],[10.218,49.161],[10.217,49.149],[10.206,49.147],[10.192,49.126]]],[[[10.345,49.225],[10.367,49.22],[10.38,49.224],[10.365,49.244],[10.353,49.243],[10.345,49.225]]],[[[10.366,49.11],[10.39,49.093],[10.427,49.102],[10.415,49.111],[10.377,49.117],[10.366,49.11]]],[[[10.419,49.024],[10.459,49.024],[10.455,49.043],[10.419,49.039],[10.419,49.024]]],[[[10.47,49.055],[10.491,49.041],[10.507,49.045],[10.507,49.051],[10.476,49.06],[10.47,49.055]]],[[[11.02,49.077],[11.042,49.062],[11.06,49.083],[11.02,49.077]]],[[[11.075,49.064],[11.093,49.038],[11.131,49.053],[11.109,49.074],[11.075,49.064]]],[[[11.088,49.088],[11.099,49.079],[11.207,49.084],[11.192,49.104],[11.088,49.088]]],[[[11.209,49.781],[11.241,49.776],[11.266,49.787],[11.307,49.785],[11.295,49.807],[11.21,49.785],[11.209,49.781]]],[[[11.469,49.827],[11.484,49.822],[11.485,49.81],[11.496,49.805],[11.47,49.772],[11.477,49.758],[11.503,49.757],[11.526,49.773],[11.523,49.795],[11.513,49.803],[11.535,49.818],[11.499,49.839],[11.471,49.838],[11.471,49.848],[11.469,49.827]]]]}},{"type":"Feature","properties":{"NAME":"Kingdom of Bohemia","SUBJECTO":"Holy Roman Empire","PARTOF":"Holy Roman Empire","START_DATE":"1294","END_DATE":"1304","CLIOPATRIA_NAME":"Kingdom of Bohemia","CLIOPATRIA_SESHAT_ID":"cz_bohemian_k_1","CLIOPATRIA_AREA_KM2":107598,"WIKIDATA":"Q42585","WIKIPEDIA":"Kingdom of Bohemia","SNAPSHOT_YEAR":1300},"geometry":{"type":"MultiPolygon","coordinates":[[[[12.122,50.235],[12.123,50.234],[12.15,50.233],[12.16,50.211],[12.175,50.213],[12.183,50.199],[12.194,50.198],[12.189,50.196],[12.215,50.165],[12.195,50.143],[12.199,50.117],[12.211,50.108],[12.241,50.096],[12.272,50.074],[12.266,50.064],[12.371,49.98],[12.368,49.714],[12.78,49.316],[13.113,49.25],[13.358,48.985],[13.525,48.985],[13.525,48.969],[13.58,48.971],[13.606,48.941],[13.625,48.949],[13.624,48.937],[13.659,48.898],[13.707,48.879],[13.719,48.879],[13.733,48.887],[13.749,48.862],[13.937,48.787],[14,48.709],[14.005,48.708],[14.036,48.677],[14.057,48.675],[14.06,48.666],[14.052,48.653],[14.046,48.653],[14.09,48.599],[14.093,48.599],[14.111,48.589],[14.112,48.589],[14.13,48.598],[14.149,48.593],[14.453,48.623],[14.455,48.627],[14.444,48.643],[14.467,48.646],[14.494,48.632],[14.496,48.627],[14.714,48.649],[14.713,48.651],[14.726,48.685],[14.736,48.698],[14.78,48.715],[14.804,48.733],[14.801,48.747],[14.812,48.764],[14.809,48.779],[14.824,48.784],[14.817,48.796],[14.858,48.828],[14.879,48.869],[14.892,48.912],[14.9,48.909],[14.941,48.985],[14.981,48.981],[14.983,48.985],[14.998,48.992],[14.994,49.012],[15.023,49.02],[15.041,49.012],[15.061,49.015],[15.068,48.999],[15.157,48.992],[15.152,48.98],[15.168,48.965],[15.226,48.96],[15.228,48.96],[15.263,48.957],[15.282,48.981],[15.279,48.995],[15.29,48.987],[15.291,48.984],[15.286,49.016],[15.249,49.029],[15.255,49.041],[15.248,49.048],[15.207,49.059],[15.23,49.086],[15.265,49.075],[15.238,49.091],[15.251,49.098],[15.26,49.122],[15.226,49.145],[15.238,49.172],[15.206,49.181],[15.221,49.194],[15.267,49.194],[15.282,49.203],[15.26,49.201],[15.255,49.212],[15.214,49.211],[15.183,49.186],[15.183,49.173],[15.163,49.179],[15.164,49.188],[15.137,49.188],[15.135,49.197],[15.166,49.203],[15.168,49.217],[15.192,49.236],[15.225,49.225],[15.233,49.24],[15.227,49.248],[15.235,49.254],[15.279,49.247],[15.269,49.25],[15.28,49.278],[15.295,49.282],[15.299,49.274],[15.335,49.271],[15.331,49.284],[15.345,49.314],[15.387,49.316],[15.381,49.325],[15.386,49.326],[15.357,49.337],[15.388,49.334],[15.418,49.318],[15.492,49.364],[15.491,49.374],[15.504,49.382],[15.5,49.395],[15.516,49.405],[15.512,49.408],[15.548,49.418],[15.584,49.406],[15.608,49.428],[15.604,49.433],[15.639,49.425],[15.644,49.439],[15.634,49.446],[15.648,49.454],[15.688,49.432],[15.698,49.449],[15.779,49.45],[15.789,49.453],[15.785,49.462],[15.792,49.47],[15.824,49.467],[15.821,49.481],[15.842,49.503],[15.858,49.542],[15.887,49.555],[15.885,49.569],[15.875,49.567],[15.869,49.575],[15.871,49.588],[15.949,49.592],[15.992,49.618],[15.987,49.632],[15.974,49.638],[15.95,49.637],[15.92,49.65],[15.917,49.663],[15.928,49.679],[15.947,49.667],[15.973,49.668],[15.997,49.696],[16.015,49.706],[16.05,49.708],[16.064,49.688],[16.079,49.685],[16.091,49.67],[16.104,49.684],[16.139,49.691],[16.149,49.678],[16.19,49.678],[16.207,49.666],[16.222,49.666],[16.218,49.66],[16.228,49.642],[16.223,49.63],[16.298,49.625],[16.345,49.613],[16.406,49.572],[16.418,49.596],[16.443,49.586],[16.459,49.605],[16.49,49.6],[16.497,49.61],[16.529,49.607],[16.515,49.655],[16.481,49.663],[16.474,49.686],[16.445,49.7],[16.366,49.708],[16.376,49.735],[16.388,49.743],[16.388,49.758],[16.408,49.774],[16.406,49.785],[16.42,49.791],[16.455,49.787],[16.469,49.797],[16.497,49.791],[16.507,49.785],[16.506,49.764],[16.528,49.756],[16.534,49.741],[16.572,49.741],[16.582,49.753],[16.581,49.768],[16.565,49.787],[16.573,49.811],[16.569,49.835],[16.627,49.86],[16.662,49.853],[16.66,49.874],[16.644,49.894],[16.683,49.904],[16.683,49.919],[16.694,49.931],[16.734,49.953],[16.735,49.969],[16.708,50.005],[16.696,50.053],[16.761,50.055],[16.78,50.047],[16.81,50.055],[16.814,50.058],[16.8,50.071],[16.82,50.087],[16.801,50.11],[16.8,50.13],[16.822,50.17],[16.841,50.186],[16.841,50.201],[16.849,50.208],[16.879,50.199],[16.888,50.216],[16.913,50.225],[16.957,50.223],[16.962,50.237],[16.978,50.243],[16.997,50.216],[17.033,50.23],[17.057,50.196],[17.076,50.183],[17.109,50.185],[17.119,50.161],[17.158,50.12],[17.218,50.104],[17.231,50.084],[17.231,50.06],[17.288,50.019],[17.312,50.017],[17.322,49.984],[17.349,49.967],[17.355,49.953],[17.386,49.937],[17.411,49.948],[17.396,49.962],[17.4,49.973],[17.431,49.969],[17.465,49.957],[17.461,49.94],[17.468,49.927],[17.502,49.931],[17.507,49.913],[17.531,49.904],[17.532,49.898],[17.559,49.908],[17.599,49.877],[17.616,49.889],[17.643,49.889],[17.696,49.908],[17.714,49.897],[17.738,49.911],[17.81,49.917],[17.827,49.929],[17.857,49.934],[17.847,49.958],[17.871,49.962],[17.884,49.937],[17.867,49.936],[17.865,49.918],[17.851,49.913],[17.851,49.888],[17.837,49.873],[17.818,49.864],[17.714,49.867],[17.684,49.874],[17.659,49.868],[17.648,49.854],[17.658,49.842],[17.658,49.822],[17.64,49.811],[17.653,49.778],[17.694,49.751],[17.69,49.737],[17.697,49.726],[17.717,49.728],[17.755,49.716],[17.765,49.693],[17.748,49.692],[17.74,49.679],[17.768,49.654],[17.778,49.633],[17.788,49.635],[17.836,49.607],[17.863,49.606],[17.871,49.612],[17.835,49.638],[17.838,49.642],[17.93,49.62],[17.924,49.634],[17.884,49.657],[17.854,49.647],[17.845,49.651],[17.845,49.666],[17.87,49.701],[17.84,49.737],[17.864,49.764],[17.866,49.783],[17.901,49.776],[17.89,49.761],[17.902,49.754],[17.899,49.74],[17.918,49.708],[17.955,49.719],[17.98,49.736],[17.987,49.728],[17.982,49.71],[17.992,49.707],[17.992,49.685],[18.01,49.678],[18.12,49.717],[18.19,49.757],[18.196,49.782],[18.218,49.79],[18.219,49.825],[18.214,49.825],[18.225,49.829],[18.227,49.853],[18.276,49.867],[18.3,49.835],[18.275,49.801],[18.309,49.766],[18.303,49.733],[18.319,49.699],[18.36,49.669],[18.368,49.654],[18.367,49.624],[18.354,49.615],[18.367,49.599],[18.367,49.562],[18.377,49.56],[18.397,49.536],[18.394,49.532],[18.423,49.504],[18.421,49.494],[18.442,49.466],[18.454,49.461],[18.525,49.472],[18.527,49.494],[18.541,49.493],[18.534,49.486],[18.543,49.475],[18.8,49.515],[18.651,49.847],[18.075,50.046],[17.992,50.046],[17.988,49.98],[17.904,49.98],[17.908,50.046],[17.656,50.046],[17.579,50.179],[17.437,50.207],[17.429,50.205],[17.425,50.21],[17.246,50.246],[15.923,50.779],[15.417,50.779],[15.255,50.979],[14.578,50.912],[14.497,51.046],[14.328,51.046],[14.327,50.979],[14.242,50.979],[14.24,50.912],[14.156,50.912],[14.154,50.845],[13.985,50.845],[13.222,50.645],[12.796,50.379],[12.376,50.379],[12.29,50.246],[12.122,50.246],[12.122,50.235]],[[17.792,49.758],[17.794,49.767],[17.823,49.762],[17.822,49.756],[17.809,49.758],[17.803,49.749],[17.792,49.758]],[[17.792,49.966],[17.796,49.969],[17.815,49.97],[17.825,49.962],[17.803,49.957],[17.792,49.966]],[[17.954,49.795],[17.964,49.806],[17.985,49.808],[18.01,49.791],[17.976,49.777],[17.954,49.795]],[[17.973,49.888],[17.976,49.926],[17.98,49.922],[17.994,49.91],[17.988,49.886],[17.973,49.888]],[[18,49.711],[18.027,49.732],[18.06,49.728],[18.061,49.701],[18.021,49.696],[18,49.711]]],[[[16.109,48.749],[16.117,48.746],[16.237,48.743],[16.109,48.749]]],[[[17.03,48.747],[17.339,48.828],[17.33,48.833],[17.322,48.845],[17.302,48.845],[17.277,48.861],[17.222,48.874],[17.195,48.875],[17.178,48.867],[17.177,48.857],[17.168,48.86],[17.151,48.848],[17.148,48.838],[17.119,48.84],[17.11,48.834],[17.092,48.789],[17.046,48.768],[17.03,48.747]]],[[[17.905,48.976],[17.938,48.985],[17.977,49.026],[17.922,49.018],[17.905,48.976]]],[[[18.132,49.19],[18.132,49.189],[18.231,49.293],[18.184,49.285],[18.185,49.27],[18.149,49.249],[18.153,49.216],[18.132,49.19]]],[[[18.625,50.845],[18.709,50.845],[18.705,50.779],[18.701,50.712],[19.03,50.579],[19.022,50.446],[19.106,50.446],[19.186,50.379],[19.158,49.914],[19.393,49.648],[19.389,49.582],[19.866,49.184],[20.212,49.383],[21.381,49.383],[21.391,49.515],[21.641,49.515],[21.991,49.714],[21.514,50.046],[21.525,50.179],[21.288,50.379],[21.036,50.379],[20.893,50.712],[20.209,50.579],[20.218,50.712],[20.05,50.712],[19.975,50.845],[19.553,50.845],[19.397,51.046],[19.14,50.979],[18.979,51.112],[18.637,51.046],[18.625,50.845]]]]}},{"type":"Feature","properties":{"NAME":"Margraviate of Brandenburg","SUBJECTO":"Holy Roman Empire","PARTOF":"Holy Roman Empire","START_DATE":"1272","END_DATE":"1304","CLIOPATRIA_NAME":"Margraviate of Brandenburg","CLIOPATRIA_SESHAT_ID":"de_empire_3","CLIOPATRIA_AREA_KM2":41413,"WIKIDATA":"Q148499","WIKIPEDIA":"Margraviate of Brandenburg","SNAPSHOT_YEAR":1300},"geometry":{"type":"MultiPolygon","coordinates":[[[[11.042,52.654],[11.214,52.654],[11.087,52.457],[11.092,52.451],[11.146,52.419],[11.147,52.397],[11.983,52.491],[11.982,52.498],[11.96,52.519],[11.98,52.537],[11.987,52.572],[12.016,52.625],[12.01,52.661],[12.015,52.682],[12.042,52.734],[12.023,52.812],[12.072,52.817],[12.078,52.8],[12.106,52.795],[12.109,52.783],[12.141,52.783],[12.166,52.804],[12.213,52.795],[12.224,52.787],[12.224,52.776],[12.206,52.761],[12.22,52.749],[12.219,52.736],[12.201,52.728],[12.207,52.725],[12.199,52.717],[12.218,52.707],[12.222,52.688],[12.231,52.686],[12.227,52.682],[12.241,52.665],[12.271,52.669],[12.283,52.662],[12.297,52.672],[12.334,52.655],[12.319,52.636],[12.315,52.612],[12.322,52.607],[12.315,52.599],[12.329,52.591],[12.322,52.58],[12.33,52.569],[12.313,52.562],[12.312,52.555],[12.324,52.549],[12.304,52.545],[12.308,52.531],[12.335,52.528],[12.353,52.51],[12.386,52.516],[12.412,52.501],[12.415,52.509],[12.441,52.503],[12.454,52.492],[12.438,52.467],[12.493,52.452],[12.49,52.318],[12.464,52.318],[12.409,52.309],[12.463,52.175],[12.493,52.17],[12.506,52.179],[12.495,52.199],[12.52,52.191],[12.54,52.2],[12.52,52.222],[12.536,52.248],[12.568,52.252],[12.576,52.26],[12.571,52.268],[12.623,52.24],[12.784,52.204],[12.827,52.229],[12.82,52.236],[12.836,52.247],[12.813,52.246],[12.808,52.265],[12.782,52.269],[12.788,52.289],[12.854,52.304],[12.897,52.297],[12.911,52.274],[12.839,52.248],[12.845,52.245],[12.855,52.205],[12.849,52.192],[12.855,52.188],[12.823,52.185],[12.826,52.158],[12.819,52.152],[12.832,52.14],[12.822,52.125],[12.798,52.118],[12.797,52.116],[12.986,52.116],[12.982,52.129],[12.952,52.143],[12.984,52.147],[13.094,52.215],[13.095,52.217],[13.128,52.237],[13.098,52.219],[13.107,52.245],[13.135,52.262],[13.17,52.268],[13.212,52.239],[13.425,52.183],[13.684,52.318],[13.688,52.452],[14.623,52.318],[14.708,52.318],[14.713,52.452],[15.054,52.452],[15.313,52.519],[15.233,52.654],[16.008,52.788],[16.011,52.855],[16.281,53.125],[16.714,53.192],[16.724,53.395],[16.904,53.53],[16.66,53.8],[16.314,53.8],[16.397,53.973],[16.383,53.969],[16.365,53.981],[16.369,53.986],[16.346,53.981],[16.314,53.989],[16.281,53.982],[16.283,53.958],[16.244,53.971],[16.175,53.973],[16.16,53.989],[16.184,53.994],[16.195,54.005],[16.13,54.028],[16.136,54.043],[16.146,54.045],[15.982,54.071],[16.049,53.665],[15.794,53.732],[15.704,53.665],[15.781,53.462],[15.44,53.53],[15.257,53.26],[15.25,53.259],[15.292,53.25],[15.368,53.251],[15.352,53.209],[15.38,53.199],[15.366,53.175],[15.364,53.146],[15.341,53.118],[15.404,53.094],[15.398,53.091],[15.408,53.083],[15.389,53.072],[15.389,53.063],[15.421,53.052],[15.429,53.033],[15.458,53.01],[15.443,52.99],[15.412,52.98],[15.395,53.001],[15.356,52.997],[15.375,52.977],[15.282,52.965],[15.247,52.995],[15.228,53.029],[15.205,53.03],[15.207,53.053],[15.219,53.076],[15.206,53.082],[15.158,53.06],[15.137,53.029],[15.082,53.04],[15.067,53.059],[15.025,53.053],[15.009,53.074],[15.03,53.082],[15.034,53.093],[15.05,53.094],[15.041,53.113],[15.008,53.113],[15.001,53.095],[14.974,53.086],[14.961,53.099],[14.922,53.097],[14.908,53.118],[14.885,53.122],[14.85,53.103],[14.855,53.071],[14.81,53.042],[14.81,53.033],[14.821,53.029],[14.813,53.025],[14.816,53.018],[14.732,53.037],[14.647,52.981],[14.563,52.977],[14.521,52.963],[14.461,52.993],[14.44,52.991],[14.445,52.998],[14.427,53.001],[14.428,53.022],[14.371,53.039],[14.356,53.065],[14.347,53.065],[14.34,53.075],[14.354,53.079],[14.353,53.104],[14.367,53.11],[14.355,53.114],[14.367,53.115],[14.362,53.124],[14.371,53.136],[14.359,53.152],[14.325,53.155],[14.296,53.186],[14.264,53.121],[14.183,53.151],[14.121,53.164],[14.107,53.185],[14.093,53.222],[14.107,53.281],[14.207,53.344],[14.244,53.394],[14.242,53.422],[14.234,53.431],[14.208,53.446],[14.201,53.461],[14.171,53.476],[14.166,53.514],[14.142,53.508],[14.105,53.52],[14.076,53.514],[14.038,53.494],[14.038,53.476],[14.024,53.466],[13.953,53.493],[13.974,53.499],[13.894,53.514],[13.893,53.499],[13.88,53.504],[13.898,53.533],[13.883,53.542],[13.902,53.569],[13.864,53.581],[13.792,53.559],[13.786,53.563],[13.821,53.587],[13.776,53.598],[13.761,53.622],[13.807,53.649],[13.861,53.67],[13.82,53.684],[13.711,53.696],[13.549,53.665],[13.196,53.327],[12.166,53.395],[11.91,53.597],[11.738,53.597],[11.564,53.395],[11.306,53.462],[11.133,53.327],[11.218,53.192],[11.39,53.192],[11.388,53.057],[11.217,53.057],[11.044,52.855],[11.042,52.654]],[[12.282,52.796],[12.326,52.797],[12.344,52.812],[12.334,52.822],[12.351,52.842],[12.33,52.855],[12.364,52.847],[12.396,52.873],[12.414,52.902],[12.456,52.922],[12.483,52.917],[12.52,52.955],[12.52,52.964],[12.541,52.96],[12.547,52.968],[12.573,52.977],[12.632,52.98],[12.651,52.998],[12.653,53.003],[12.631,53.015],[12.61,53.013],[12.611,53.036],[12.627,53.07],[12.603,53.09],[12.564,53.099],[12.57,53.102],[12.498,53.137],[12.511,53.146],[12.545,53.155],[12.739,53.119],[12.82,53.15],[12.837,53.143],[12.912,53.154],[12.928,53.187],[12.942,53.186],[12.937,53.194],[12.968,53.199],[12.98,53.191],[12.944,53.172],[12.965,53.176],[12.968,53.166],[12.98,53.163],[13.02,53.175],[13.023,53.185],[13.058,53.157],[13.087,53.164],[13.097,53.162],[13.099,53.151],[13.131,53.139],[13.104,53.113],[13.106,53.099],[13.131,53.094],[13.15,53.103],[13.16,53.082],[13.205,53.077],[13.213,53.063],[13.234,53.056],[13.253,53.053],[13.279,53.062],[13.254,53.05],[13.236,53.053],[13.22,53.029],[13.246,53.017],[13.169,52.977],[13.184,52.956],[13.241,52.953],[13.245,52.937],[13.222,52.921],[13.191,52.913],[13.154,52.921],[13.127,52.907],[13.152,52.883],[13.155,52.866],[13.097,52.864],[13.094,52.841],[13.043,52.846],[13.032,52.837],[12.976,52.831],[12.971,52.829],[12.986,52.829],[12.98,52.818],[12.939,52.803],[12.944,52.801],[12.938,52.794],[12.897,52.797],[12.892,52.787],[12.856,52.785],[12.818,52.805],[12.807,52.822],[12.777,52.831],[12.697,52.817],[12.67,52.802],[12.547,52.772],[12.539,52.753],[12.476,52.759],[12.402,52.754],[12.396,52.771],[12.333,52.768],[12.305,52.789],[12.282,52.796]],[[12.454,52.245],[12.465,52.255],[12.456,52.263],[12.52,52.262],[12.538,52.252],[12.519,52.258],[12.496,52.231],[12.475,52.228],[12.454,52.245]],[[13.035,53.192],[13.072,53.2],[13.077,53.191],[13.056,53.179],[13.035,53.192]]],[[[14.739,53.082],[14.748,53.068],[14.79,53.079],[14.791,53.096],[14.771,53.116],[14.741,53.111],[14.739,53.082]]],[[[15.18,53.129],[15.189,53.116],[15.214,53.117],[15.23,53.133],[15.217,53.147],[15.19,53.142],[15.18,53.129]]]]}}],"metadata":{"generatedBy":"scripts/build-fief-flat.ts","input":"data/cliopatria_fiefs_1300.geojson","year":1300,"cutPolicy":"keep-smaller","containmentCoverageThreshold":0.9,"minOverlapAreaM2":1000,"sliverAreaLimitM2":1000000000,"resolutions":[],"externalInputs":["data/france_fiefs_flat_1300.geojson","data/italy_fiefs_flat_1300.geojson","data/hre_fiefs_flat_1300.geojson"],"externalRemovals":[{"cutName":"County of Auvergne","externalName":"County of La Marche","overlapKm2":136.48},{"cutName":"County of Nevers","externalName":"County of Champagne","overlapKm2":1390.69},{"cutName":"County of Nevers","externalName":"Duchy of Burgundy","overlapKm2":8646.67},{"cutName":"Duchy of Aquitaine","externalName":"County of Angoulême","overlapKm2":68.73},{"cutName":"Duchy of Aquitaine","externalName":"County of Poitou","overlapKm2":6.73},{"cutName":"Duchy of Bavaria","externalName":"Burgraviate of Nuremberg","overlapKm2":1687.96},{"cutName":"Duchy of Bavaria","externalName":"County of Abensberg","overlapKm2":68.59},{"cutName":"Duchy of Bavaria","externalName":"County of Falkenstein","overlapKm2":91.65},{"cutName":"Duchy of Bavaria","externalName":"County of Leiningen","overlapKm2":322.9},{"cutName":"Duchy of Bavaria","externalName":"Prince-Bishopric of Bamberg","overlapKm2":386.44},{"cutName":"Duchy of Bavaria","externalName":"Prince-Bishopric of Freising","overlapKm2":171.3},{"cutName":"Duchy of Bavaria","externalName":"Prince-Bishopric of Regensburg","overlapKm2":135.81},{"cutName":"Duchy of Bavaria","externalName":"Prince-Bishopric of Worms","overlapKm2":41.28},{"cutName":"Duchy of Bavaria","externalName":"Princely Abbey of Kempten","overlapKm2":140.09},{"cutName":"Kingdom of Bohemia","externalName":"Burgraviate of Nuremberg","overlapKm2":47.98},{"cutName":"Kingdom of Bohemia","externalName":"Duchy of Austria","overlapKm2":477.99},{"cutName":"Kingdom of Bohemia","externalName":"Moravia","overlapKm2":21697.28},{"cutName":"Kingdom of Bohemia","externalName":"Prince-Bishopric of Passau","overlapKm2":41.47},{"cutName":"Margraviate of Brandenburg","externalName":"Duchy of Pomerania-Stettin","overlapKm2":1704.44},{"cutName":"Margraviate of Brandenburg","externalName":"Duchy of Saxe-Wittenberg","overlapKm2":354.34},{"cutName":"Margraviate of Brandenburg","externalName":"Lordship of Ruppin","overlapKm2":1745.75},{"cutName":"Margraviate of Brandenburg","externalName":"Prince-Archbishopric of Magdeburg","overlapKm2":771.63},{"cutName":"Margraviate of Brandenburg","externalName":"Prince-Bishopric of Cammin","overlapKm2":84.04}],"source":"Cliopatria (Seshat Global History Databank)","sourceUrl":"https://github.com/Seshat-Global-History-Databank/cliopatria","license":"CC BY 4.0","commit":"ad28a691b7c07c1fca89d0e0636d324667d2a258","borderPrecision":"史料地図のデジタイズ（概略。手描き地図の自動抽出を 0.07 度で平滑化）"}}