{"type":"FeatureCollection","features":[{"type":"Feature","properties":{"NAME":"County of Blôis","START_DATE":"1169","END_DATE":"1205","CLIOPATRIA_NAME":"County of Blôis","CLIOPATRIA_SESHAT_ID":"fr_capetian_k_2","CLIOPATRIA_AREA_KM2":7796,"WIKIDATA":"Q19336869","WIKIPEDIA":"County of Blois","SNAPSHOT_YEAR":1200},"geometry":{"type":"MultiPolygon","coordinates":[[[[1.06498,48.52202],[1.06073,48.58812],[1.14377,48.58812],[1.22682,48.58812],[1.30987,48.58812],[1.30572,48.65424],[1.3888,48.65424],[1.56706,48.45594],[1.73301,48.45594],[1.68547,47.86186],[1.76812,47.86186],[1.89226,47.13737],[1.31635,47.13737],[1.19774,47.73],[1.27627,47.79593],[0.92892,48.05975],[0.90757,48.38987],[0.82463,48.38987],[0.98197,48.52202],[1.06498,48.52202]]]]}},{"type":"Feature","properties":{"NAME":"County of Boulogne","START_DATE":"1188","END_DATE":"1235","CLIOPATRIA_NAME":"County of Boulogne","CLIOPATRIA_SESHAT_ID":"fr_capetian_k_2","CLIOPATRIA_AREA_KM2":684,"WIKIDATA":"Q1431527","WIKIPEDIA":"County of Boulogne","SNAPSHOT_YEAR":1200},"geometry":{"type":"MultiPolygon","coordinates":[[[[1.49598,50.9122],[1.50032,50.84549],[1.50466,50.77881],[1.50898,50.71214],[1.42471,50.71214],[1.42906,50.64549],[1.4334,50.57886],[1.68599,50.57886],[1.84609,50.71214],[1.58038,50.9122],[1.49598,50.9122]]]]}},{"type":"Feature","properties":{"NAME":"County of Flanders","START_DATE":"1188","END_DATE":"1215","CLIOPATRIA_NAME":"County of Flanders","CLIOPATRIA_SESHAT_ID":"fr_capetian_k_2","CLIOPATRIA_AREA_KM2":9229,"WIKIDATA":"Q157070","WIKIPEDIA":"County of Flanders","SNAPSHOT_YEAR":1200},"geometry":{"type":"MultiPolygon","coordinates":[[[[3.12435,50.44566],[3.29602,50.37908],[3.3733,50.51225],[3.54161,50.51225],[3.70016,50.71214],[4.03417,50.77881],[4.10309,51.11243],[3.25434,51.17921],[3.15907,51.37968],[3.07438,51.37968],[2.15906,51.11243],[2.07454,51.11243],[2.09488,50.77881],[2.26351,50.77881],[2.27142,50.64549],[2.77683,50.64549],[3.04024,50.44566],[3.12435,50.44566]]]]}},{"type":"Feature","properties":{"NAME":"County of Nevers","START_DATE":"1169","END_DATE":"1205","CLIOPATRIA_NAME":"County of Nevers","CLIOPATRIA_SESHAT_ID":"fr_capetian_k_2","CLIOPATRIA_AREA_KM2":12467,"WIKIDATA":"Q2070440","WIKIPEDIA":"County of Nevers","SNAPSHOT_YEAR":1200},"geometry":{"type":"MultiPolygon","coordinates":[[[[2.7116,47.20317],[2.7939,47.20317],[2.80392,47.00583],[3.06973,46.61152],[3.72864,46.54585],[3.80487,46.67721],[3.9633,46.80862],[3.86679,47.13737],[3.94906,47.13737],[3.94043,47.33479],[3.6079,47.40062],[3.60182,47.53233],[3.76678,47.53233],[3.75481,47.79593],[3.24941,47.99377],[2.76339,47.79593],[2.42935,47.86186],[2.36821,47.46647],[2.61899,47.40062],[2.7116,47.20317]]]]}},{"type":"Feature","properties":{"NAME":"County of Toulouse","START_DATE":"1188","END_DATE":"1205","CLIOPATRIA_NAME":"County of Toulouse","CLIOPATRIA_SESHAT_ID":"fr_capetian_k_2","CLIOPATRIA_AREA_KM2":52816,"WIKIDATA":"Q1334322","WIKIPEDIA":"County of Toulouse","SNAPSHOT_YEAR":1200},"geometry":{"type":"MultiPolygon","coordinates":[[[[4.41231,43.66784],[4.72569,43.92862],[4.4766,44.12432],[4.46952,44.3201],[4.05753,44.51598],[3.96617,44.77729],[3.5607,44.77729],[3.47398,44.90802],[3.23051,44.90802],[3.15816,44.71195],[2.91798,44.64661],[2.74667,44.84265],[2.58442,44.84265],[2.51599,44.58129],[2.27624,44.51598],[2.10101,44.77729],[1.44866,44.84265],[1.3784,44.64661],[1.06172,44.51598],[1.06912,44.38538],[0.83396,44.25483],[0.91853,44.18957],[0.94799,43.66784],[0.63698,43.47235],[0.96608,43.34207],[0.81254,43.21183],[0.98393,43.01654],[0.99452,42.82134],[1.48554,42.62621],[1.56562,42.62621],[1.64571,42.62621],[1.7258,42.62621],[1.72901,42.56119],[1.80907,42.56119],[1.81225,42.49618],[2.04303,42.69125],[2.51784,42.82134],[2.59215,42.95147],[2.99052,43.01654],[2.98772,43.08163],[3.14003,43.27695],[3.61714,43.4072],[3.85089,43.60266],[4.17303,43.60266],[4.17785,43.47235],[4.3388,43.47235],[4.41464,43.60266],[4.41231,43.66784]]]]}},{"type":"Feature","properties":{"NAME":"County of Vermandois","START_DATE":"1188","END_DATE":"1209","CLIOPATRIA_NAME":"County of Vermandois","CLIOPATRIA_SESHAT_ID":"fr_capetian_k_2","CLIOPATRIA_AREA_KM2":19510,"WIKIDATA":"Q26385","WIKIPEDIA":"Vermandois","SNAPSHOT_YEAR":1200},"geometry":{"type":"MultiPolygon","coordinates":[[[[3.98409,50.04647],[3.90021,50.04647],[3.81633,50.04647],[3.81317,50.11296],[3.72925,50.11296],[2.55443,50.11296],[1.95082,50.37908],[1.62296,50.24598],[1.61452,50.37908],[1.44637,50.37908],[1.45068,50.31252],[1.45497,50.24598],[1.81961,49.78071],[1.77241,49.18375],[2.43944,49.18375],[2.61345,49.05127],[3.03341,48.98506],[3.37302,48.85268],[3.61944,48.91887],[3.60354,49.25001],[3.84761,49.38258],[3.83829,49.58157],[4.08309,49.71431],[4.15484,49.98001],[4.071,49.98001],[3.98716,49.98001],[3.98409,50.04647]]]]}},{"type":"Feature","properties":{"NAME":"Kingdom of Bohemia","SUBJECTO":"Holy Roman Empire","PARTOF":"Holy Roman Empire","START_DATE":"1202","END_DATE":"1215","CLIOPATRIA_NAME":"Kingdom of Bohemia","CLIOPATRIA_SESHAT_ID":"cz_bohemian_k_1","CLIOPATRIA_AREA_KM2":70806,"WIKIDATA":"Q42585","WIKIPEDIA":"Kingdom of Bohemia","SNAPSHOT_YEAR":1200,"BORROWED_FROM":{"targetYear":1200,"fromYear":1202,"toYear":1215,"dataset":"Cliopatria (Seshat Global History Databank)","commit":"ad28a691b7c07c1fca89d0e0636d324667d2a258","seshatId":"cz_bohemian_k_1","license":"CC BY 4.0","reason":"1200 年のボヘミアを覆う面が上流のどこにも無い（Cliopatria の Duchy of Bohemia は [.. -1002] で終わり、Kingdom of Bohemia は [1202-1215] から始まる。OHM の Duchy of Bohemia は end_date 1100）。プシェミスル・オタカル 1 世は 1198 年の王号取得から 1230 年まで継続してボヘミア王であり、1200〜1202 年にこの地図の縮尺で有意な領域断絶は無い（借用元 70,806 km² は 1100 年 OHM の Duchy of Bohemia と IoU 84.8%）。年差 2 年で、上流の区間としては対象年の直後に隣接する。"}},"geometry":{"type":"MultiPolygon","coordinates":[[[[18.31621,49.84713],[18.7164,49.51522],[18.37862,49.44889],[17.93814,48.98506],[16.92799,48.72037],[16.17991,48.72037],[15.68774,48.91887],[14.94054,48.98506],[14.76513,48.65424],[14.18205,48.58812],[13.93709,48.78652],[13.60573,48.85268],[13.44295,49.05127],[13.27635,49.05127],[13.11297,49.25001],[12.94614,49.25001],[13.03274,49.44889],[13.36809,49.51522],[13.37058,49.64793],[13.45422,49.64793],[13.37438,49.84713],[13.20808,49.91356],[13.21053,50.04647],[13.71825,50.24598],[13.64019,50.51225],[13.30357,50.51225],[13.39193,50.71214],[14.154,50.84549],[14.32842,51.04567],[14.49738,51.04567],[14.5778,50.9122],[15.25535,50.97892],[15.41695,50.77881],[15.92286,50.77881],[16.08606,50.64549],[16.33876,50.64549],[16.4173,50.51225],[17.08426,50.37908],[17.16204,50.24598],[17.65932,50.11296],[18.31979,49.91356],[18.31621,49.84713]]]]}},{"type":"Feature","properties":{"NAME":"Royal Domain of France","START_DATE":"1188","END_DATE":"1205","CLIOPATRIA_NAME":"Kingdom of France","CLIOPATRIA_SESHAT_ID":"fr_capetian_k_2","CLIOPATRIA_AREA_KM2":37024,"WIKIDATA":"Q207162","WIKIPEDIA":"Kingdom of France","SNAPSHOT_YEAR":1200},"geometry":{"type":"MultiPolygon","coordinates":[[[[4.82807,45.62776],[4.50452,45.56227],[4.6795,45.235],[4.35675,45.16959],[4.26781,45.36588],[3.94229,45.36588],[4.01298,45.62776],[3.93147,45.62776],[3.91776,45.95538],[4.0784,46.02094],[3.98291,46.34892],[4.22584,46.41455],[4.23119,46.28329],[4.73447,45.95538],[4.89544,46.02094],[4.96771,46.28329],[5.29506,46.28329],[5.07259,45.62776],[4.90958,45.62776],[4.82807,45.62776]]],[[[3.91416,47.92781],[3.83147,47.92781],[3.83445,47.86186],[3.7518,47.86186],[3.75481,47.79593],[3.24941,47.99377],[2.76339,47.79593],[2.42935,47.86186],[2.36821,47.46647],[2.61899,47.40062],[2.7116,47.20317],[1.89226,47.13737],[1.76812,47.86186],[1.68547,47.86186],[1.73301,48.45594],[1.56706,48.45594],[1.3888,48.65424],[1.77241,49.18375],[2.43944,49.18375],[2.61345,49.05127],[3.03341,48.98506],[2.79067,48.85268],[2.88429,48.65424],[3.05722,48.52202],[3.47546,48.45594],[3.56472,48.32381],[3.64762,48.32381],[3.91416,47.92781]]],[[[1.95082,50.37908],[1.62296,50.24598],[1.61452,50.37908],[1.44637,50.37908],[1.44206,50.44566],[1.43774,50.51225],[1.4334,50.57886],[1.68599,50.57886],[1.84609,50.71214],[1.58038,50.9122],[1.57606,50.97892],[1.99002,51.11243],[2.07454,51.11243],[2.09488,50.77881],[2.26351,50.77881],[2.27142,50.64549],[2.77683,50.64549],[3.04024,50.44566],[3.12435,50.44566],[3.29602,50.37908],[3.3733,50.51225],[3.54161,50.51225],[3.64209,50.17946],[3.72605,50.17946],[3.72925,50.11296],[2.55443,50.11296],[1.95082,50.37908]]]]}}],"metadata":{"generatedBy":"scripts/build-cliopatria-fiefs.ts","year":1200,"featureCount":8,"archiveUrl":"https://raw.githubusercontent.com/Seshat-Global-History-Databank/cliopatria/ad28a691b7c07c1fca89d0e0636d324667d2a258/cliopatria.geojson.zip","archiveSha256":"d01ae3a20d358cc5d54f69d9d725d390767d9c8759ac89ad6f90c58d106f3370","doi":"10.5281/zenodo.14714684","citation":"Bennett, J., Mutch, E., Chalstrey, E. et al. (2025) Cliopatria: A geospatial database of world-wide political entities from 3400BCE to 2024CE. Scientific Data.","selected":[{"name":"County of Blôis","upstreamName":"County of Blôis","fromYear":1169,"toYear":1205,"upstreamAreaKm2":7796},{"name":"County of Boulogne","upstreamName":"County of Boulogne","fromYear":1188,"toYear":1235,"upstreamAreaKm2":684},{"name":"County of Flanders","upstreamName":"County of Flanders","fromYear":1188,"toYear":1215,"upstreamAreaKm2":9229},{"name":"County of Nevers","upstreamName":"County of Nevers","fromYear":1169,"toYear":1205,"upstreamAreaKm2":12467},{"name":"County of Toulouse","upstreamName":"County of Toulouse","fromYear":1188,"toYear":1205,"upstreamAreaKm2":52816},{"name":"County of Vermandois","upstreamName":"County of Vermandois","fromYear":1188,"toYear":1209,"upstreamAreaKm2":19510},{"name":"Kingdom of Bohemia","upstreamName":"Kingdom of Bohemia","fromYear":1202,"toYear":1215,"upstreamAreaKm2":70806},{"name":"Royal Domain of France","upstreamName":"Kingdom of France","fromYear":1188,"toYear":1205,"upstreamAreaKm2":37024}],"borrowedFrom":[{"name":"Kingdom of Bohemia","upstreamName":"Kingdom of Bohemia","targetYear":1200,"fromYear":1202,"toYear":1215,"dataset":"Cliopatria (Seshat Global History Databank)","commit":"ad28a691b7c07c1fca89d0e0636d324667d2a258","seshatId":"cz_bohemian_k_1","license":"CC BY 4.0","reason":"1200 年のボヘミアを覆う面が上流のどこにも無い（Cliopatria の Duchy of Bohemia は [.. -1002] で終わり、Kingdom of Bohemia は [1202-1215] から始まる。OHM の Duchy of Bohemia は end_date 1100）。プシェミスル・オタカル 1 世は 1198 年の王号取得から 1230 年まで継続してボヘミア王であり、1200〜1202 年にこの地図の縮尺で有意な領域断絶は無い（借用元 70,806 km² は 1100 年 OHM の Duchy of Bohemia と IoU 84.8%）。年差 2 年で、上流の区間としては対象年の直後に隣接する。"}],"source":"Cliopatria (Seshat Global History Databank)","sourceUrl":"https://github.com/Seshat-Global-History-Databank/cliopatria","license":"CC BY 4.0","commit":"ad28a691b7c07c1fca89d0e0636d324667d2a258","borderPrecision":"史料地図のデジタイズ（概略。手描き地図の自動抽出を 0.07 度で平滑化）"}}