{"type":"FeatureCollection","features":[{"type":"Feature","properties":{"NAME":"Duchy of Bavaria","SUBJECTO":"Holy Roman Empire","PARTOF":"Holy Roman Empire","START_DATE":"1459","END_DATE":"1506","CLIOPATRIA_NAME":"Duchy of Bavaria","CLIOPATRIA_SESHAT_ID":"","CLIOPATRIA_AREA_KM2":36100,"WIKIDATA":"Q47261","WIKIPEDIA":"Duchy of Bavaria","SNAPSHOT_YEAR":1492},"geometry":{"type":"MultiPolygon","coordinates":[[[[12.44103,48.85268],[12.52422,48.85268],[12.61076,49.1175],[12.86078,49.1175],[13.02955,49.25001],[13.35848,48.98506],[13.35615,48.85268],[13.18977,48.85268],[13.26854,48.58812],[13.76682,48.58812],[13.84719,48.45594],[13.17725,48.05975],[12.92898,48.05975],[12.76513,48.19175],[12.76263,47.99377],[12.92718,47.92781],[12.92452,47.73],[13.08779,47.59821],[12.83941,47.53233],[12.75854,47.6641],[12.5109,47.6641],[12.50811,47.40062],[12.34267,47.33479],[12.26206,47.53233],[12.01463,47.53233],[11.84801,47.26897],[11.60099,47.26897],[11.43655,47.33479],[11.43703,47.46647],[11.27214,47.46647],[11.27232,47.53233],[10.69491,47.59821],[10.61239,47.59821],[10.69478,47.73],[10.44686,47.79593],[10.52871,48.19175],[10.52859,48.25777],[10.44497,48.58812],[10.27844,48.72037],[10.27802,48.85268],[10.02781,48.98506],[10.02719,49.1175],[10.36024,49.25001],[10.61073,48.91887],[10.94356,48.85268],[11.02701,48.98506],[10.86053,49.05127],[11.27756,49.18375],[11.52733,49.1175],[11.69272,48.91887],[12.10948,48.98506],[12.27532,48.91887],[12.27397,48.78652],[12.35784,48.85268],[12.44103,48.85268]]]]}},{"type":"Feature","properties":{"NAME":"Electorate of Brandenburg","SUBJECTO":"Holy Roman Empire","PARTOF":"Holy Roman Empire","START_DATE":"1492","END_DATE":"1528","CLIOPATRIA_NAME":"Electorate of Brandenburg","CLIOPATRIA_SESHAT_ID":"de_hohenzollern_1","CLIOPATRIA_AREA_KM2":42293,"WIKIDATA":"Q148499","WIKIPEDIA":"Margraviate of Brandenburg","SNAPSHOT_YEAR":1492},"geometry":{"type":"MultiPolygon","coordinates":[[[[13.93471,52.11626],[14.19019,52.11626],[14.26926,51.91513],[13.93284,52.04919],[13.93471,52.11626]]],[[[15.48927,52.65353],[15.64623,52.31758],[15.47028,52.18334],[15.13196,52.25045],[15.03937,52.04919],[14.86914,52.04919],[14.77944,51.91513],[14.616,52.11626],[14.36051,52.11626],[13.94037,52.31758],[13.42535,52.18334],[13.42213,52.04919],[12.40289,52.18334],[12.40509,52.31758],[12.57808,52.45189],[12.3252,52.65353],[12.3274,52.78807],[11.89675,52.5863],[11.12705,52.51908],[11.04376,52.85537],[11.21667,53.0574],[11.38824,53.0574],[11.38952,53.1922],[11.21776,53.1922],[11.1329,53.32709],[11.30606,53.46207],[11.5635,53.39457],[11.73808,53.59714],[11.91039,53.59714],[12.16561,53.39457],[13.19619,53.32709],[13.5492,53.66471],[13.89605,53.7323],[14.31603,53.39457],[14.22566,53.25963],[14.47656,53.0574],[14.64814,53.0574],[14.82465,53.1922],[15.25675,53.25963],[15.43993,53.52959],[15.78133,53.46207],[15.70427,53.66471],[15.79355,53.7323],[16.04909,53.66471],[15.98204,54.07063],[16.41101,54.00291],[16.31441,53.79992],[16.40071,53.79992],[16.47667,53.59714],[16.30103,53.52959],[16.29441,53.39457],[16.11918,53.32709],[16.10966,53.12479],[16.02382,53.12479],[16.09714,52.85537],[15.57478,52.65353],[15.48927,52.65353]]]]}},{"type":"Feature","properties":{"NAME":"Electorate of Saxony","SUBJECTO":"Holy Roman Empire","PARTOF":"Holy Roman Empire","START_DATE":"1492","END_DATE":"1501","CLIOPATRIA_NAME":"Electorate of Saxony","CLIOPATRIA_SESHAT_ID":"","CLIOPATRIA_AREA_KM2":34252,"WIKIDATA":"Q156199","WIKIPEDIA":"Electorate of Saxony","SNAPSHOT_YEAR":1492},"geometry":{"type":"Polygon","coordinates":[[[9.93586,50.9122],[10.35789,50.84549],[10.35804,50.64549],[10.52651,50.64549],[10.77968,50.84549],[10.61124,51.04567],[10.35777,51.11243],[10.52695,51.24602],[10.86514,51.17921],[10.69601,51.17921],[10.69586,51.11243],[10.86491,51.11243],[11.11813,51.04567],[11.28542,50.77881],[11.03219,50.71214],[10.86308,50.51225],[10.35815,50.51225],[10.35853,50.17946],[10.69422,50.04647],[11.11387,50.11296],[11.1144,50.24598],[11.28239,50.24598],[11.1997,50.51225],[11.28424,50.57886],[11.53632,50.51225],[11.7064,50.71214],[11.95923,50.71214],[12.04505,50.84549],[12.21291,50.77881],[12.21122,50.64549],[11.9578,50.57886],[11.95503,50.31252],[12.12234,50.24598],[12.29033,50.24598],[12.37608,50.37908],[12.79645,50.37908],[13.05234,50.57886],[14.154,50.84549],[14.32651,50.97892],[14.33422,51.24602],[14.1613,51.11243],[13.99402,51.17921],[14.07859,51.17921],[14.08224,51.31284],[13.9147,51.37968],[14.08967,51.58032],[14.25931,51.58032],[14.26325,51.71418],[14.09727,51.84813],[13.75732,51.84813],[13.59068,51.98215],[13.50561,51.98215],[13.50725,52.04919],[13.42213,52.04919],[12.40289,52.18334],[12.14631,52.11626],[12.2285,51.91513],[12.39751,51.84813],[12.3954,51.71418],[12.3105,51.71418],[12.30851,51.58032],[11.96925,51.58032],[12.05152,51.37968],[11.88139,51.31284],[11.3735,51.31284],[11.54456,51.51342],[11.46035,51.58032],[11.37658,51.71418],[10.86689,51.64724],[10.86611,51.44654],[11.20546,51.51342],[11.2903,51.51342],[11.11993,51.37968],[11.28885,51.31284],[11.11956,51.31284],[10.61179,51.37968],[10.10406,51.17921],[10.0195,51.17921],[9.93586,50.9122]],[[11.87918,51.11243],[12.05069,51.31284],[12.21998,51.31284],[12.21638,51.04567],[11.96294,51.04567],[11.96371,51.11243],[11.87918,51.11243]],[[12.55018,50.77881],[12.55223,50.9122],[12.72215,50.97892],[12.80659,50.97892],[12.71772,50.71214],[12.77372,50.70103],[12.6324,50.64549],[12.63449,50.77881],[12.55018,50.77881]],[[12.64435,51.37968],[12.64549,51.44654],[12.89968,51.44654],[12.89842,51.37968],[12.89717,51.31284],[12.72787,51.31284],[12.72904,51.37968],[12.64435,51.37968]],[[12.8851,50.64549],[12.88569,50.67881],[13.05357,50.64549],[12.8851,50.64549]],[[13.24443,51.71418],[13.24739,51.84813],[13.50235,51.84813],[13.67063,51.78114],[13.66726,51.64724],[13.5824,51.64724],[13.24443,51.71418]],[[13.50236,51.84814],[13.50397,51.91513],[13.58901,51.91513],[13.50236,51.84814]]]}},{"type":"Feature","properties":{"NAME":"Kingdom of Bohemia","SUBJECTO":"Holy Roman Empire","PARTOF":"Holy Roman Empire","START_DATE":"1492","END_DATE":"1501","CLIOPATRIA_NAME":"Kingdom of Bohemia","CLIOPATRIA_SESHAT_ID":"cz_bohemian_k_2","CLIOPATRIA_AREA_KM2":128617,"WIKIDATA":"Q42585","WIKIPEDIA":"Kingdom of Bohemia","SNAPSHOT_YEAR":1492},"geometry":{"type":"MultiPolygon","coordinates":[[[[19.0899,50.17946],[19.08589,50.11296],[19.0819,50.04647],[19.16577,50.04647],[19.23756,49.84713],[18.88354,49.51522],[18.37862,49.44889],[17.93814,48.98506],[17.42964,48.78652],[16.84487,48.72037],[16.17991,48.72037],[15.68774,48.91887],[14.94054,48.98506],[14.85001,48.72037],[14.59729,48.58812],[14.10047,48.65424],[13.607,48.91887],[13.52377,48.91887],[13.52501,48.98506],[13.44174,48.98506],[13.35848,48.98506],[13.02955,49.25001],[12.53241,49.51522],[12.53414,49.64793],[12.36765,49.71431],[12.37092,49.98001],[12.1216,50.17946],[12.12234,50.24598],[12.29033,50.24598],[12.37608,50.37908],[12.79645,50.37908],[13.05234,50.57886],[14.154,50.84549],[14.32651,50.97892],[14.33422,51.24602],[14.33618,51.31284],[14.25153,51.31284],[14.25346,51.37968],[14.2554,51.44654],[14.25735,51.51342],[14.25931,51.58032],[14.26325,51.71418],[14.09727,51.84813],[13.75732,51.84813],[13.59068,51.98215],[13.50561,51.98215],[13.50725,52.04919],[13.42213,52.04919],[13.42535,52.18334],[13.94037,52.31758],[14.36051,52.11626],[14.616,52.11626],[14.77944,51.91513],[14.86914,52.04919],[15.03937,52.04919],[15.13196,52.25045],[15.47028,52.18334],[15.64623,52.31758],[15.81395,52.25045],[15.80826,52.11626],[16.13699,51.84813],[16.1311,51.71418],[16.55562,51.71418],[16.719,51.58032],[16.98013,51.71418],[17.31974,51.71418],[17.54926,51.24602],[17.97229,51.24602],[18.04935,51.11243],[18.70932,50.84549],[18.70133,50.71214],[19.03019,50.57886],[19.02203,50.44566],[19.18613,50.37908],[19.17385,50.17946],[19.0899,50.17946]],[[14.26926,51.91513],[14.19019,52.11626],[13.93471,52.11626],[13.93284,52.04919],[14.26926,51.91513]]],[[[13.5824,51.64724],[13.24443,51.71418],[13.24739,51.84813],[13.50235,51.84813],[13.58734,51.84813],[13.58568,51.78114],[13.67063,51.78114],[13.66894,51.71418],[13.66726,51.64724],[13.5824,51.64724]]]]}},{"type":"Feature","properties":{"NAME":"Principality of Moldavia","SUBJECTO":"Ottoman Empire","PARTOF":"Ottoman Empire","START_DATE":"1487","END_DATE":"1506","CLIOPATRIA_NAME":"Principality of Moldavia","CLIOPATRIA_SESHAT_ID":"md_moldavia_principality_1","CLIOPATRIA_AREA_KM2":82069,"WIKIDATA":"Q10957559","WIKIPEDIA":"Moldavia","SNAPSHOT_YEAR":1492},"geometry":{"type":"MultiPolygon","coordinates":[[[[29.22186,47.26897],[28.9824,47.33479],[28.93032,47.59821],[29.02819,47.73],[28.87833,47.86186],[28.55527,47.92781],[28.57043,48.05975],[28.42004,48.19175],[27.53788,48.45594],[27.39371,48.65424],[25.9813,48.65424],[25.50884,48.91887],[25.34238,48.91887],[25.24631,48.78652],[25.55941,48.58812],[25.54009,48.38987],[25.01179,48.05975],[24.98762,47.79593],[24.905,47.79593],[24.88127,47.53233],[25.03433,47.40062],[25.01661,47.20317],[25.66891,47.13737],[25.72661,46.87434],[25.96681,46.80862],[25.94214,46.54585],[26.47793,46.15209],[26.44038,45.75877],[26.10192,45.62776],[26.24045,45.36588],[26.41556,45.4968],[26.65989,45.4968],[27.63057,45.43133],[27.86131,45.30044],[28.11904,45.43133],[28.14653,45.69326],[28.30961,45.69326],[28.33055,45.88983],[28.50797,46.02094],[28.44041,46.15209],[28.88568,46.48019],[29.57166,46.7429],[29.57933,46.80862],[29.34822,46.94008],[29.36349,47.07159],[29.21423,47.20317],[29.22186,47.26897]]]]}}],"metadata":{"generatedBy":"scripts/build-cliopatria-fiefs.ts","year":1492,"featureCount":5,"archiveUrl":"https://raw.githubusercontent.com/Seshat-Global-History-Databank/cliopatria/ad28a691b7c07c1fca89d0e0636d324667d2a258/cliopatria.geojson.zip","archiveSha256":"d01ae3a20d358cc5d54f69d9d725d390767d9c8759ac89ad6f90c58d106f3370","doi":"10.5281/zenodo.14714684","citation":"Bennett, J., Mutch, E., Chalstrey, E. et al. (2025) Cliopatria: A geospatial database of world-wide political entities from 3400BCE to 2024CE. Scientific Data.","selected":[{"name":"Duchy of Bavaria","upstreamName":"Duchy of Bavaria","fromYear":1459,"toYear":1506,"upstreamAreaKm2":36100},{"name":"Electorate of Brandenburg","upstreamName":"Electorate of Brandenburg","fromYear":1492,"toYear":1528,"upstreamAreaKm2":42293},{"name":"Electorate of Saxony","upstreamName":"Electorate of Saxony","fromYear":1492,"toYear":1501,"upstreamAreaKm2":34252},{"name":"Kingdom of Bohemia","upstreamName":"Kingdom of Bohemia","fromYear":1492,"toYear":1501,"upstreamAreaKm2":128617},{"name":"Principality of Moldavia","upstreamName":"Principality of Moldavia","fromYear":1487,"toYear":1506,"upstreamAreaKm2":82069}],"source":"Cliopatria (Seshat Global History Databank)","sourceUrl":"https://github.com/Seshat-Global-History-Databank/cliopatria","license":"CC BY 4.0","commit":"ad28a691b7c07c1fca89d0e0636d324667d2a258","borderPrecision":"史料地図のデジタイズ（概略。手描き地図の自動抽出を 0.07 度で平滑化）"}}