{"type":"FeatureCollection","features":[{"type":"Feature","properties":{"NAME":"(Kingdom of Poland)","SUBJECTO":"Poland","PARTOF":"Poland","CLIOPATRIA_COMPOSITE":"parent","CLIOPATRIA_BASE_POWER":"Poland","START_DATE":"0990","END_DATE":"1002","CLIOPATRIA_NAME":"(Kingdom of Poland)","CLIOPATRIA_SESHAT_ID":"pl_piast_dyn_1","CLIOPATRIA_AREA_KM2":248543,"WIKIDATA":"Q577867","WIKIPEDIA":"Kingdom of Poland","SNAPSHOT_YEAR":1000},"geometry":{"type":"MultiPolygon","coordinates":[[[[19.00419,54.00291],[19.35503,54.07063],[19.46219,54.34171],[18.68685,54.40955],[18.44533,54.68112],[18.45948,54.88506],[17.50172,54.88506],[16.44256,54.61319],[15.99177,54.27391],[15.0361,54.20612],[14.50935,54.00291],[14.4998,53.7323],[13.8138,53.86756],[13.8098,53.7323],[13.97814,53.59714],[13.88795,53.46207],[14.05798,53.39457],[14.05381,53.25963],[14.22566,53.25963],[14.22134,53.12479],[14.04763,53.0574],[14.04153,52.85537],[14.5486,52.65353],[14.5441,52.51908],[14.45867,52.51908],[14.53742,52.31758],[14.53521,52.25045],[14.78632,52.11626],[15.21213,52.11626],[15.27959,51.64724],[15.53417,51.64724],[15.52896,51.51342],[15.69319,51.37968],[15.68012,51.04567],[15.93087,50.97892],[15.92286,50.77881],[16.08606,50.64549],[16.33876,50.64549],[16.4173,50.51225],[17.08426,50.37908],[17.32684,50.17946],[17.5787,50.17946],[17.65599,50.04647],[18.32339,49.98001],[18.31621,49.84713],[18.7164,49.51522],[19.04685,49.44889],[19.03927,49.31629],[19.28963,49.31629],[19.61141,49.1175],[20.11991,49.25001],[20.21194,49.38258],[20.95871,49.31629],[21.38568,49.44889],[21.39056,49.51522],[22.15849,49.71431],[22.25832,49.91356],[22.86211,50.11296],[22.94603,50.11296],[22.91514,50.71214],[23.0898,50.77881],[23.10827,50.97892],[23.02383,50.97892],[23.04241,51.17921],[22.87944,51.24602],[22.99545,51.58032],[22.66858,51.71418],[22.68736,51.91513],[22.34723,51.91513],[22.10417,52.04919],[22.2929,52.25045],[22.42241,52.72079],[22.34323,52.78807],[22.42883,52.78807],[22.64623,53.25963],[22.56031,53.25963],[22.30254,53.25963],[22.50092,53.52959],[22.1695,53.66471],[21.98426,53.52959],[21.81835,53.59714],[21.71968,53.46207],[21.38149,53.52959],[21.01949,53.32709],[20.58405,53.25963],[20.48711,53.12479],[19.97212,53.12479],[19.98258,53.25963],[19.56304,53.39457],[19.49214,53.59714],[18.97999,53.66471],[18.99932,53.93523],[19.00419,54.00291]]]]}},{"type":"Feature","properties":{"NAME":"County of Blôis","START_DATE":"0990","END_DATE":"1027","CLIOPATRIA_NAME":"County of Blôis","CLIOPATRIA_SESHAT_ID":"fr_capetian_k_1","CLIOPATRIA_AREA_KM2":11241,"WIKIDATA":"Q19336869","WIKIPEDIA":"County of Blois","SNAPSHOT_YEAR":1000},"geometry":{"type":"MultiPolygon","coordinates":[[[[1.3203,47.07159],[1.89226,47.13737],[1.76812,47.86186],[1.68547,47.86186],[1.73301,48.45594],[1.56706,48.45594],[1.3888,48.65424],[1.30572,48.65424],[1.30987,48.58812],[1.22682,48.58812],[1.14377,48.58812],[1.06073,48.58812],[1.06498,48.52202],[0.98197,48.52202],[0.8203,48.45594],[0.92467,48.12574],[1.27627,47.79593],[1.19774,47.73],[1.29644,47.46647],[1.21399,47.46647],[1.13155,47.46647],[1.04911,47.46647],[0.96666,47.46647],[0.88422,47.46647],[0.80177,47.46647],[0.71933,47.46647],[0.48932,47.20317],[0.58016,47.07159],[1.1718,46.80862],[1.3321,46.87434],[1.32424,47.00583],[1.3203,47.07159]]]]}},{"type":"Feature","properties":{"NAME":"County of Champagne","START_DATE":"0990","END_DATE":"1002","CLIOPATRIA_NAME":"County of Champagne","CLIOPATRIA_SESHAT_ID":"fr_capetian_k_1","CLIOPATRIA_AREA_KM2":25321,"WIKIDATA":"Q546266","WIKIPEDIA":"County of Champagne","SNAPSHOT_YEAR":1000},"geometry":{"type":"MultiPolygon","coordinates":[[[[5.30566,48.32381],[5.47377,48.25777],[5.48066,48.05975],[5.64618,48.05975],[5.81812,47.86186],[5.82026,47.79593],[5.82238,47.73],[5.7398,47.73],[5.65722,47.73],[5.65941,47.6641],[5.57686,47.6641],[5.24903,47.59821],[4.82116,47.99377],[4.57299,47.99377],[4.57833,47.86186],[4.33864,47.6641],[4.17355,47.6641],[3.9171,47.86186],[3.81947,48.19175],[3.73664,48.19175],[3.47546,48.45594],[3.05722,48.52202],[2.88429,48.65424],[2.79067,48.85268],[3.03341,48.98506],[3.45621,48.85268],[3.53941,48.85268],[3.61944,48.91887],[3.60034,49.31629],[3.84761,49.38258],[3.83829,49.58157],[4.08309,49.71431],[4.15484,49.98001],[4.57682,49.91356],[4.6798,49.44889],[5.02672,49.1175],[4.86527,48.98506],[4.88344,48.52202],[5.30327,48.38987],[5.30566,48.32381]]]]}},{"type":"Feature","properties":{"NAME":"County of Flanders","START_DATE":"0990","END_DATE":"1009","CLIOPATRIA_NAME":"County of Flanders","CLIOPATRIA_SESHAT_ID":"fr_capetian_k_1","CLIOPATRIA_AREA_KM2":19129,"WIKIDATA":"Q157070","WIKIPEDIA":"County of Flanders","SNAPSHOT_YEAR":1000},"geometry":{"type":"MultiPolygon","coordinates":[[[[3.63231,50.37908],[3.54824,50.37908],[3.53828,50.57886],[4.03417,50.77881],[4.26307,51.31284],[3.50464,51.24602],[3.40968,51.44654],[3.32495,51.44654],[2.73941,51.31284],[2.57783,51.17921],[1.65622,51.04567],[1.49598,50.9122],[1.4334,50.57886],[1.77852,50.44566],[1.78267,50.37908],[2.55443,50.11296],[3.72925,50.11296],[3.72605,50.17946],[3.64209,50.17946],[3.63884,50.24598],[3.63558,50.31252],[3.63231,50.37908]]]]}},{"type":"Feature","properties":{"NAME":"County of Rouergue","START_DATE":"0990","END_DATE":"1039","CLIOPATRIA_NAME":"County of Rouergue","CLIOPATRIA_SESHAT_ID":"fr_capetian_k_1","CLIOPATRIA_AREA_KM2":27863,"WIKIDATA":"Q590016","WIKIPEDIA":"Rouergue","SNAPSHOT_YEAR":1000},"geometry":{"type":"MultiPolygon","coordinates":[[[[4.3388,43.47235],[4.40998,43.73302],[4.57117,43.73302],[4.72569,43.92862],[4.4766,44.12432],[4.46952,44.3201],[4.05753,44.51598],[3.81463,44.51598],[3.57991,44.3201],[3.58532,44.18957],[3.34288,44.18957],[3.08298,44.58129],[2.74667,44.84265],[2.58442,44.84265],[2.51599,44.58129],[2.19527,44.51598],[2.12417,44.3201],[1.73006,44.12432],[2.05645,44.05907],[2.15329,43.73302],[2.47874,43.66784],[2.40434,43.5375],[1.84409,43.47235],[1.85389,43.27695],[2.10135,43.14672],[1.95661,42.82134],[2.12006,42.75629],[2.99052,43.01654],[2.98772,43.08163],[3.14003,43.27695],[3.61714,43.4072],[3.85089,43.60266],[4.17303,43.60266],[4.25832,43.47235],[4.3388,43.47235]]]]}},{"type":"Feature","properties":{"NAME":"County of Toulouse","START_DATE":"0990","END_DATE":"1027","CLIOPATRIA_NAME":"County of Toulouse","CLIOPATRIA_SESHAT_ID":"fr_capetian_k_1","CLIOPATRIA_AREA_KM2":21359,"WIKIDATA":"Q1334322","WIKIPEDIA":"County of Toulouse","SNAPSHOT_YEAR":1000},"geometry":{"type":"MultiPolygon","coordinates":[[[[2.12006,42.75629],[1.95661,42.82134],[2.10135,43.14672],[1.85389,43.27695],[1.84409,43.47235],[2.40434,43.5375],[2.47874,43.66784],[2.15329,43.73302],[2.05645,44.05907],[1.73006,44.12432],[2.12417,44.3201],[2.19527,44.51598],[2.10101,44.77729],[1.44866,44.84265],[1.3784,44.64661],[1.06172,44.51598],[1.06912,44.38538],[0.91106,44.3201],[0.83396,44.25483],[0.91853,44.18957],[0.94799,43.66784],[0.63698,43.47235],[0.96608,43.34207],[0.81254,43.21183],[0.98393,43.01654],[0.99452,42.82134],[1.48554,42.62621],[1.56562,42.62621],[1.89228,42.49618],[2.12315,42.69125],[2.12006,42.75629]]]]}},{"type":"Feature","properties":{"NAME":"County of Vermandois","START_DATE":"0990","END_DATE":"1033","CLIOPATRIA_NAME":"County of Vermandois","CLIOPATRIA_SESHAT_ID":"fr_capetian_k_1","CLIOPATRIA_AREA_KM2":17404,"WIKIDATA":"Q26385","WIKIPEDIA":"Vermandois","SNAPSHOT_YEAR":1000},"geometry":{"type":"MultiPolygon","coordinates":[[[[3.98409,50.04647],[3.90021,50.04647],[3.81633,50.04647],[3.81317,50.11296],[3.72925,50.11296],[2.55443,50.11296],[1.78267,50.37908],[1.79095,50.24598],[1.44637,50.37908],[1.45068,50.31252],[1.45497,50.24598],[1.81961,49.78071],[1.77241,49.18375],[1.85579,49.18375],[1.93916,49.18375],[2.02254,49.18375],[2.10592,49.18375],[2.1893,49.18375],[2.43944,49.18375],[2.61345,49.05127],[2.94319,49.1175],[3.10987,49.1175],[3.34998,49.31629],[3.60034,49.31629],[3.84761,49.38258],[3.83829,49.58157],[4.08309,49.71431],[4.15484,49.98001],[4.071,49.98001],[3.98716,49.98001],[3.98409,50.04647]]]]}},{"type":"Feature","properties":{"NAME":"County of Vexin","START_DATE":"0990","END_DATE":"1065","CLIOPATRIA_NAME":"County of Vexin","CLIOPATRIA_SESHAT_ID":"fr_capetian_k_1","CLIOPATRIA_AREA_KM2":4286,"WIKIDATA":"Q1476089","WIKIPEDIA":"Vexin","SNAPSHOT_YEAR":1000},"geometry":{"type":"MultiPolygon","coordinates":[[[[1.68903,49.18375],[1.77241,49.18375],[1.85579,49.18375],[1.93916,49.18375],[2.02254,49.18375],[2.10592,49.18375],[2.1893,49.18375],[2.12513,48.85268],[1.80027,48.72037],[1.73301,48.45594],[1.56706,48.45594],[1.3888,48.65424],[1.69308,49.1175],[1.68903,49.18375]]],[[[3.45621,48.85268],[3.03341,48.98506],[3.02997,49.05127],[2.94667,49.05127],[2.94319,49.1175],[3.10987,49.1175],[3.34998,49.31629],[3.60034,49.31629],[3.61944,48.91887],[3.53941,48.85268],[3.45621,48.85268]]]]}},{"type":"Feature","properties":{"NAME":"Duchy of Aquitaine","START_DATE":"0990","END_DATE":"1002","CLIOPATRIA_NAME":"Duchy of Aquitaine","CLIOPATRIA_SESHAT_ID":"fr_aquitania_duc_2","CLIOPATRIA_AREA_KM2":106377,"WIKIDATA":"Q7703611","WIKIPEDIA":"Duchy of Aquitaine","SNAPSHOT_YEAR":1000},"geometry":{"type":"MultiPolygon","coordinates":[[[[3.98291,46.34892],[4.06478,46.34892],[4.14665,46.34892],[4.14394,46.41455],[4.22584,46.41455],[4.05097,46.67721],[3.06017,46.80862],[2.80392,47.00583],[2.7939,47.20317],[1.89226,47.13737],[1.3203,47.07159],[1.32424,47.00583],[1.3321,46.87434],[1.1718,46.80862],[0.58016,47.07159],[0.58441,47.00583],[0.5022,47.00583],[0.42,47.00583],[0.3378,47.00583],[0.34213,46.94008],[0.25996,46.94008],[0.17779,46.94008],[-1.04986,46.87434],[-1.38849,47.00583],[-2.12833,47.00583],[-2.21053,47.00583],[-2.19441,46.80862],[-1.66604,46.34892],[-1.25181,46.28329],[-1.22274,45.88983],[-1.1411,45.88983],[-1.21314,45.75877],[-1.04058,45.62776],[-1.03589,45.56227],[-0.86833,45.4968],[-0.76868,45.235],[-0.11388,45.16959],[-0.09693,44.90802],[-0.17808,44.90802],[-0.24221,44.64661],[0.337,44.45068],[0.57591,44.51598],[0.91106,44.3201],[1.06912,44.38538],[1.06172,44.51598],[1.3784,44.64661],[1.44866,44.84265],[2.10101,44.77729],[2.19527,44.51598],[2.51599,44.58129],[2.58442,44.84265],[2.74667,44.84265],[3.08298,44.58129],[3.34288,44.18957],[3.58532,44.18957],[3.57991,44.3201],[3.81463,44.51598],[4.05753,44.51598],[3.96092,44.90802],[4.12323,44.90802],[4.35925,45.10418],[4.35172,45.30044],[3.94229,45.36588],[4.01298,45.62776],[3.93147,45.62776],[3.91776,45.95538],[4.0784,46.02094],[3.98568,46.28329],[3.98291,46.34892]]]]}},{"type":"Feature","properties":{"NAME":"Duchy of Gascony","START_DATE":"0990","END_DATE":"1017","CLIOPATRIA_NAME":"Duchy of Gascony","CLIOPATRIA_SESHAT_ID":"fr_capetian_k_1","CLIOPATRIA_AREA_KM2":40078,"WIKIDATA":"Q2295939","WIKIPEDIA":"Duchy of Gascony","SNAPSHOT_YEAR":1000},"geometry":{"type":"MultiPolygon","coordinates":[[[[0.57591,44.51598],[0.337,44.45068],[-0.24221,44.64661],[-0.17808,44.90802],[-0.09693,44.90802],[-0.11388,45.16959],[-0.76868,45.235],[-0.86833,45.4968],[-1.03589,45.56227],[-1.03121,45.4968],[-1.18937,45.43133],[-1.17057,45.16959],[-1.25186,45.16959],[-1.20538,44.51598],[-1.28634,44.51598],[-1.26796,44.25483],[-1.3488,44.25483],[-1.32139,43.86341],[-1.40205,43.86341],[-1.45988,43.5375],[-1.69217,43.4072],[-1.68757,43.34207],[-0.96385,43.34207],[-0.85792,42.95147],[-0.124,42.75629],[0.60095,42.69125],[0.67382,42.82134],[0.99452,42.82134],[0.98393,43.01654],[0.81254,43.21183],[0.96608,43.34207],[0.63698,43.47235],[0.94799,43.66784],[0.91853,44.18957],[0.83396,44.25483],[0.91106,44.3201],[0.57591,44.51598]]]]}},{"type":"Feature","properties":{"NAME":"Kingdom of Poland","SUBJECTO":"Poland","PARTOF":"Poland","CLIOPATRIA_COMPOSITE":"child","CLIOPATRIA_BASE_POWER":"Poland","START_DATE":"0990","END_DATE":"1002","CLIOPATRIA_NAME":"Kingdom of Poland","CLIOPATRIA_SESHAT_ID":"pl_piast_dyn_1","CLIOPATRIA_AREA_KM2":248543,"WIKIDATA":"Q577867","WIKIPEDIA":"Kingdom of Poland","SNAPSHOT_YEAR":1000},"geometry":{"type":"MultiPolygon","coordinates":[[[[19.00419,54.00291],[19.35503,54.07063],[19.46219,54.34171],[18.68685,54.40955],[18.44533,54.68112],[18.45948,54.88506],[17.50172,54.88506],[16.44256,54.61319],[15.99177,54.27391],[15.0361,54.20612],[14.50935,54.00291],[14.4998,53.7323],[13.8138,53.86756],[13.8098,53.7323],[13.97814,53.59714],[13.88795,53.46207],[14.05798,53.39457],[14.05381,53.25963],[14.22566,53.25963],[14.22134,53.12479],[14.04763,53.0574],[14.04153,52.85537],[14.5486,52.65353],[14.5441,52.51908],[14.45867,52.51908],[14.53742,52.31758],[14.53521,52.25045],[14.78632,52.11626],[15.21213,52.11626],[15.27959,51.64724],[15.53417,51.64724],[15.52896,51.51342],[15.69319,51.37968],[15.68012,51.04567],[15.93087,50.97892],[15.92286,50.77881],[16.08606,50.64549],[16.33876,50.64549],[16.4173,50.51225],[17.08426,50.37908],[17.32684,50.17946],[17.5787,50.17946],[17.65599,50.04647],[18.32339,49.98001],[18.31621,49.84713],[18.7164,49.51522],[19.04685,49.44889],[19.03927,49.31629],[19.28963,49.31629],[19.61141,49.1175],[20.11991,49.25001],[20.21194,49.38258],[20.95871,49.31629],[21.38568,49.44889],[21.39056,49.51522],[22.15849,49.71431],[22.25832,49.91356],[22.86211,50.11296],[22.94603,50.11296],[22.91514,50.71214],[23.0898,50.77881],[23.10827,50.97892],[23.02383,50.97892],[23.04241,51.17921],[22.87944,51.24602],[22.99545,51.58032],[22.66858,51.71418],[22.68736,51.91513],[22.34723,51.91513],[22.10417,52.04919],[22.2929,52.25045],[22.42241,52.72079],[22.34323,52.78807],[22.42883,52.78807],[22.64623,53.25963],[22.56031,53.25963],[22.30254,53.25963],[22.50092,53.52959],[22.1695,53.66471],[21.98426,53.52959],[21.81835,53.59714],[21.71968,53.46207],[21.38149,53.52959],[21.01949,53.32709],[20.58405,53.25963],[20.48711,53.12479],[19.97212,53.12479],[19.98258,53.25963],[19.56304,53.39457],[19.49214,53.59714],[18.97999,53.66471],[18.99932,53.93523],[19.00419,54.00291]]]]}},{"type":"Feature","properties":{"NAME":"Royal Domain of France","START_DATE":"0990","END_DATE":"1002","CLIOPATRIA_NAME":"Kingdom of France","CLIOPATRIA_SESHAT_ID":"fr_capetian_k_1","CLIOPATRIA_AREA_KM2":49071,"WIKIDATA":"Q207162","WIKIPEDIA":"Kingdom of France","SNAPSHOT_YEAR":1000},"geometry":{"type":"MultiPolygon","coordinates":[[[[3.81947,48.19175],[3.9171,47.86186],[4.17355,47.6641],[4.33864,47.6641],[4.57833,47.86186],[4.57299,47.99377],[4.82116,47.99377],[5.24903,47.59821],[5.57686,47.6641],[5.5945,47.13737],[5.43221,47.07159],[5.43669,46.94008],[5.27694,46.80862],[5.03302,46.7429],[4.88347,46.34892],[4.48438,46.08651],[4.23119,46.28329],[4.22584,46.41455],[4.05097,46.67721],[3.06017,46.80862],[2.80392,47.00583],[2.7939,47.20317],[1.89226,47.13737],[1.76812,47.86186],[1.68547,47.86186],[1.73301,48.45594],[1.80027,48.72037],[2.12513,48.85268],[2.1893,49.18375],[2.43944,49.18375],[2.61345,49.05127],[2.94319,49.1175],[2.94667,49.05127],[3.02997,49.05127],[3.03341,48.98506],[2.79067,48.85268],[2.88429,48.65424],[3.05722,48.52202],[3.47546,48.45594],[3.73664,48.19175],[3.81947,48.19175]]],[[[1.77852,50.44566],[1.78267,50.37908],[1.79095,50.24598],[1.44637,50.37908],[1.44206,50.44566],[1.4334,50.57886],[1.60179,50.57886],[1.6944,50.44566],[1.77852,50.44566]]]]}}],"metadata":{"generatedBy":"scripts/build-cliopatria-fiefs.ts","year":1000,"featureCount":12,"archiveUrl":"https://raw.githubusercontent.com/Seshat-Global-History-Databank/cliopatria/ad28a691b7c07c1fca89d0e0636d324667d2a258/cliopatria.geojson.zip","archiveSha256":"d01ae3a20d358cc5d54f69d9d725d390767d9c8759ac89ad6f90c58d106f3370","doi":"10.5281/zenodo.14714684","citation":"Bennett, J., Mutch, E., Chalstrey, E. et al. (2025) Cliopatria: A geospatial database of world-wide political entities from 3400BCE to 2024CE. Scientific Data.","selected":[{"name":"(Kingdom of Poland)","upstreamName":"(Kingdom of Poland)","fromYear":990,"toYear":1002,"upstreamAreaKm2":248543},{"name":"County of Blôis","upstreamName":"County of Blôis","fromYear":990,"toYear":1027,"upstreamAreaKm2":11241},{"name":"County of Champagne","upstreamName":"County of Champagne","fromYear":990,"toYear":1002,"upstreamAreaKm2":25321},{"name":"County of Flanders","upstreamName":"County of Flanders","fromYear":990,"toYear":1009,"upstreamAreaKm2":19129},{"name":"County of Rouergue","upstreamName":"County of Rouergue","fromYear":990,"toYear":1039,"upstreamAreaKm2":27863},{"name":"County of Toulouse","upstreamName":"County of Toulouse","fromYear":990,"toYear":1027,"upstreamAreaKm2":21359},{"name":"County of Vermandois","upstreamName":"County of Vermandois","fromYear":990,"toYear":1033,"upstreamAreaKm2":17404},{"name":"County of Vexin","upstreamName":"County of Vexin","fromYear":990,"toYear":1065,"upstreamAreaKm2":4286},{"name":"Duchy of Aquitaine","upstreamName":"Duchy of Aquitaine","fromYear":990,"toYear":1002,"upstreamAreaKm2":106377},{"name":"Duchy of Gascony","upstreamName":"Duchy of Gascony","fromYear":990,"toYear":1017,"upstreamAreaKm2":40078},{"name":"Kingdom of Poland","upstreamName":"Kingdom of Poland","fromYear":990,"toYear":1002,"upstreamAreaKm2":248543},{"name":"Royal Domain of France","upstreamName":"Kingdom of France","fromYear":990,"toYear":1002,"upstreamAreaKm2":49071}],"compositeParents":[{"name":"(Kingdom of Poland)","targetYear":1000,"fromYear":990,"toYear":1002,"seshatId":"pl_piast_dyn_1","wikidata":"Q577867","basePowerName":"Poland","childNames":["Kingdom of Poland"],"dataset":"Cliopatria (Seshat Global History Databank)","commit":"ad28a691b7c07c1fca89d0e0636d324667d2a258","license":"CC BY 4.0","reason":"base（historical-basemaps・BORDERPRECISION=1）の 1000 年 Poland は 最長線分 312.4 km の概略ポリゴンで、外周が定規で引いたような直線に なる。上流の [990-1002] は 1000 年を直接覆い、最長線分 74.4 km・100 km 超 0 本まで下がる（#352）。"}],"source":"Cliopatria (Seshat Global History Databank)","sourceUrl":"https://github.com/Seshat-Global-History-Databank/cliopatria","license":"CC BY 4.0","commit":"ad28a691b7c07c1fca89d0e0636d324667d2a258","borderPrecision":"史料地図のデジタイズ（概略。手描き地図の自動抽出を 0.07 度で平滑化）"}}