{"type":"FeatureCollection","features":[{"type":"Feature","properties":{"NAME":"County of Blôis","START_DATE":"1085","END_DATE":"1110","CLIOPATRIA_NAME":"County of Blôis","CLIOPATRIA_SESHAT_ID":"fr_capetian_k_1","CLIOPATRIA_AREA_KM2":32981,"WIKIDATA":"Q19336869","WIKIPEDIA":"County of Blois","SNAPSHOT_YEAR":1100},"geometry":{"type":"Polygon","coordinates":[[[1.026,48.522],[1.056,48.513],[1.096,48.483],[1.202,48.457],[1.219,48.406],[1.255,48.388],[1.277,48.359],[1.274,48.315],[1.335,48.245],[1.332,48.222],[1.277,48.188],[1.145,48.177],[1.06,48.083],[1.051,48.034],[1.032,48.025],[1.243,47.827],[1.248,47.827],[1.248,47.823],[1.276,47.796],[1.245,47.769],[1.244,47.761],[1.218,47.713],[1.207,47.706],[1.296,47.466],[1.3,47.401],[1.31,47.238],[1.37,47.196],[1.346,47.145],[1.356,47.137],[1.892,47.137],[1.768,47.862],[1.685,47.862],[1.733,48.456],[1.567,48.456],[1.389,48.654],[1.306,48.654],[1.31,48.588],[1.061,48.588],[1.065,48.522],[1.026,48.522]]]}},{"type":"Feature","properties":{"NAME":"County of Champagne","START_DATE":"1094","END_DATE":"1125","CLIOPATRIA_NAME":"County of Champagne","CLIOPATRIA_SESHAT_ID":"fr_capetian_k_1","CLIOPATRIA_AREA_KM2":25276,"WIKIDATA":"Q546266","WIKIPEDIA":"County of Champagne","SNAPSHOT_YEAR":1100},"geometry":{"type":"Polygon","coordinates":[[[2.791,48.853],[2.884,48.654],[3.057,48.522],[3.475,48.456],[3.565,48.324],[3.648,48.324],[3.914,47.928],[3.928,47.914],[3.934,47.937],[4.045,47.931],[4.095,47.873],[4.121,47.878],[4.112,47.934],[4.212,47.967],[4.246,47.989],[4.411,48.004],[4.433,47.975],[4.426,47.938],[4.474,47.877],[4.578,47.875],[4.577,47.876],[4.551,47.915],[4.576,47.922],[4.573,47.994],[4.613,47.994],[4.682,47.999],[4.719,48.022],[4.716,48.074],[4.857,48.047],[4.9,48.076],[4.967,48.061],[4.979,48.02],[5.004,47.991],[5.027,47.913],[5.061,47.878],[5.059,47.84],[5.072,47.81],[5.113,47.777],[5.142,47.704],[5.187,47.69],[5.225,47.718],[5.388,47.759],[5.457,47.795],[5.494,47.796],[5.512,47.778],[5.671,47.786],[5.665,47.733],[5.612,47.692],[5.538,47.679],[5.422,47.676],[5.386,47.655],[5.377,47.624],[5.577,47.664],[5.822,47.73],[5.818,47.862],[5.646,48.06],[5.623,48.06],[5.613,48.059],[5.613,48.06],[5.481,48.06],[5.478,48.135],[5.471,48.136],[5.464,48.164],[5.477,48.158],[5.457,48.168],[5.464,48.188],[5.474,48.226],[5.436,48.273],[5.306,48.324],[5.305,48.344],[5.254,48.356],[5.254,48.405],[4.883,48.522],[4.865,48.985],[5.027,49.118],[5.017,49.128],[4.941,49.148],[4.822,49.166],[4.732,49.201],[4.791,49.284],[4.79,49.344],[4.68,49.449],[4.619,49.726],[4.618,49.727],[4.577,49.914],[4.155,49.98],[4.083,49.714],[3.838,49.582],[3.848,49.383],[3.604,49.25],[3.619,48.919],[3.373,48.853],[3.033,48.985],[2.791,48.853]],[[5.58,47.959],[5.589,47.97],[5.602,47.966],[5.599,47.941],[5.583,47.939],[5.58,47.959]],[[5.597,47.988],[5.602,47.999],[5.624,48.001],[5.689,47.994],[5.694,47.987],[5.685,47.98],[5.63,47.991],[5.597,47.988]]]}},{"type":"Feature","properties":{"NAME":"County of Flanders","START_DATE":"1010","END_DATE":"1151","CLIOPATRIA_NAME":"County of Flanders","CLIOPATRIA_SESHAT_ID":"fr_capetian_k_1","CLIOPATRIA_AREA_KM2":17591,"WIKIDATA":"Q157070","WIKIPEDIA":"County of Flanders","SNAPSHOT_YEAR":1100},"geometry":{"type":"Polygon","coordinates":[[[1.433,50.579],[1.779,50.446],[1.782,50.388],[1.799,50.387],[1.814,50.368],[1.937,50.326],[1.949,50.334],[1.98,50.322],[1.978,50.312],[2.554,50.113],[3.093,50.113],[3.091,50.121],[3.131,50.181],[3.186,50.19],[3.433,50.113],[3.729,50.113],[3.538,50.579],[4.034,50.779],[4.086,51.032],[3.466,50.771],[3.555,50.819],[3.576,50.822],[3.624,50.854],[3.631,50.881],[3.678,50.89],[3.688,50.908],[3.659,50.92],[3.65,50.955],[3.687,50.958],[3.722,51],[3.738,51.047],[3.769,51.049],[3.816,50.991],[3.92,51.017],[4.009,51.006],[4.067,51.049],[4.088,51.042],[4.103,51.112],[3.254,51.179],[3.159,51.38],[3.074,51.38],[2.578,51.179],[1.656,51.046],[1.496,50.912],[1.433,50.579]],[[1.968,50.42],[1.991,50.431],[1.989,50.456],[2.021,50.495],[2.026,50.516],[2.105,50.489],[2.157,50.492],[2.181,50.474],[2.238,50.485],[2.335,50.476],[2.353,50.443],[2.391,50.405],[2.394,50.365],[2.42,50.339],[2.468,50.309],[2.466,50.264],[2.477,50.222],[2.438,50.232],[2.395,50.225],[2.337,50.243],[2.207,50.242],[2.203,50.274],[2.176,50.29],[2.186,50.32],[2.176,50.34],[2.177,50.367],[2.193,50.391],[2.19,50.405],[2.173,50.409],[2.107,50.391],[2.083,50.398],[2.061,50.389],[1.969,50.403],[1.968,50.42]]]}},{"type":"Feature","properties":{"NAME":"County of Nevers","START_DATE":"1056","END_DATE":"1138","CLIOPATRIA_NAME":"County of Nevers","CLIOPATRIA_SESHAT_ID":"fr_capetian_k_1","CLIOPATRIA_AREA_KM2":12490,"WIKIDATA":"Q2070440","WIKIPEDIA":"County of Nevers","SNAPSHOT_YEAR":1100},"geometry":{"type":"MultiPolygon","coordinates":[[[[2.368,47.466],[2.619,47.401],[2.712,47.203],[2.794,47.203],[2.804,47.006],[3.07,46.612],[3.568,46.555],[3.568,46.556],[3.591,46.602],[3.696,46.643],[3.66,46.668],[3.626,46.761],[3.531,46.696],[3.426,46.691],[3.398,46.717],[3.265,46.731],[3.19,46.68],[3.052,46.739],[3.032,46.767],[3.065,46.859],[3.047,46.954],[3.07,46.99],[3.037,47.088],[3.03,47.135],[2.999,47.204],[2.982,47.265],[2.881,47.328],[2.93,47.448],[2.841,47.564],[2.759,47.602],[2.699,47.66],[2.597,47.685],[2.522,47.655],[2.457,47.717],[2.461,47.734],[2.413,47.758],[2.368,47.466]]],[[[2.415,47.774],[2.502,47.811],[2.697,47.761],[2.752,47.788],[2.887,47.752],[2.937,47.723],[3.06,47.731],[3.12,47.775],[3.214,47.762],[3.277,47.797],[3.339,47.865],[3.481,47.903],[3.249,47.994],[2.763,47.796],[2.429,47.862],[2.415,47.774]]],[[[3.727,47.789],[3.755,47.786],[3.755,47.796],[3.73,47.806],[3.727,47.789]]]]}},{"type":"Feature","properties":{"NAME":"County of Toulouse","START_DATE":"1066","END_DATE":"1146","CLIOPATRIA_NAME":"County of Toulouse","CLIOPATRIA_SESHAT_ID":"fr_capetian_k_1","CLIOPATRIA_AREA_KM2":52864,"WIKIDATA":"Q1334322","WIKIPEDIA":"County of Toulouse","SNAPSHOT_YEAR":1100},"geometry":{"type":"MultiPolygon","coordinates":[[[[4.412,43.668],[4.726,43.929],[4.477,44.124],[4.47,44.32],[4.058,44.516],[3.966,44.777],[3.561,44.777],[3.474,44.908],[3.231,44.908],[3.158,44.712],[2.918,44.647],[2.747,44.843],[2.584,44.843],[2.516,44.581],[2.276,44.516],[2.101,44.777],[1.449,44.843],[1.378,44.647],[1.062,44.516],[1.069,44.385],[0.834,44.255],[0.919,44.19],[0.948,43.668],[0.637,43.472],[0.966,43.342],[0.813,43.212],[0.984,43.017],[0.995,42.821],[1.486,42.626],[1.566,42.626],[1.726,42.626],[1.812,42.496],[1.889,42.561],[1.969,42.561],[2.043,42.691],[2.518,42.821],[2.592,42.951],[2.991,43.017],[2.988,43.082],[3.14,43.277],[3.617,43.407],[3.851,43.603],[4.173,43.603],[4.178,43.472],[4.339,43.472],[4.415,43.603],[4.412,43.668]]]]}},{"type":"Feature","properties":{"NAME":"County of Vermandois","START_DATE":"1085","END_DATE":"1146","CLIOPATRIA_NAME":"County of Vermandois","CLIOPATRIA_SESHAT_ID":"fr_capetian_k_1","CLIOPATRIA_AREA_KM2":19332,"WIKIDATA":"Q26385","WIKIPEDIA":"Vermandois","SNAPSHOT_YEAR":1100},"geometry":{"type":"MultiPolygon","coordinates":[[[[1.446,50.379],[1.451,50.313],[1.455,50.246],[1.461,50.239],[1.47,50.246],[1.463,50.281],[1.475,50.368],[1.446,50.379]]],[[[1.719,50.105],[1.747,50.056],[1.721,50.048],[1.729,49.991],[1.766,49.985],[1.777,49.976],[1.732,49.958],[1.722,49.94],[1.731,49.92],[1.804,49.911],[1.813,49.893],[1.842,49.89],[1.86,49.872],[1.849,49.812],[1.791,49.817],[1.82,49.781],[1.797,49.501],[1.799,49.497],[1.797,49.489],[1.791,49.414],[1.829,49.335],[1.802,49.317],[1.814,49.285],[1.78,49.278],[1.772,49.184],[2.439,49.184],[2.613,49.051],[3.033,48.985],[3.373,48.853],[3.619,48.919],[3.604,49.25],[3.848,49.383],[3.838,49.582],[4.083,49.714],[4.155,49.98],[3.987,49.98],[3.984,50.046],[3.816,50.046],[3.813,50.113],[3.433,50.113],[3.648,50.046],[3.531,50.039],[3.468,50.051],[3.362,50.028],[3.261,50.052],[3.136,50.058],[3.103,50.082],[3.093,50.113],[2.554,50.113],[1.978,50.312],[1.975,50.291],[2.085,50.255],[2.06,50.223],[2.011,50.228],[1.986,50.211],[1.932,50.204],[1.934,50.183],[1.951,50.174],[1.994,50.18],[1.987,50.139],[2.015,50.145],[2.031,50.161],[2.065,50.156],[2.085,50.127],[2.153,50.144],[2.19,50.063],[2.22,50.034],[2.167,49.99],[2.164,49.96],[2.183,49.921],[2.18,49.883],[2.144,49.884],[2.12,49.913],[2.118,49.963],[2.143,49.999],[2.142,50.051],[2.129,50.067],[2.103,50.068],[2.088,50.051],[2.083,50.019],[2.025,49.99],[2.034,49.926],[2.014,49.924],[1.985,49.943],[1.95,49.946],[1.922,49.927],[1.873,49.918],[1.856,49.928],[1.855,49.961],[1.914,49.974],[1.926,49.991],[1.925,50.039],[1.937,50.057],[1.884,50.062],[1.872,49.996],[1.846,49.992],[1.804,50.072],[1.772,50.099],[1.719,50.105]]],[[[1.796,50.351],[1.814,50.327],[1.899,50.302],[1.937,50.326],[1.814,50.368],[1.816,50.366],[1.796,50.351]]]]}},{"type":"Feature","properties":{"NAME":"Duchy of Aquitaine","START_DATE":"1085","END_DATE":"1110","CLIOPATRIA_NAME":"Duchy of Aquitaine","CLIOPATRIA_SESHAT_ID":"fr_aquitania_duc_2","CLIOPATRIA_AREA_KM2":141788,"WIKIDATA":"Q7703611","WIKIPEDIA":"Duchy of Aquitaine","SNAPSHOT_YEAR":1100},"geometry":{"type":"MultiPolygon","coordinates":[[[[-2.199,46.866],[-2.194,46.809],[-1.878,46.534],[-1.901,46.59],[-1.938,46.62],[-1.969,46.658],[-2.009,46.674],[-2.032,46.707],[-2.059,46.727],[-2.187,46.803],[-2.198,46.864],[-2.199,46.866]]],[[[-2.169,47.006],[-2.168,46.993],[-2.113,46.966],[-2.096,46.975],[-2.085,47.006],[-2.169,47.006]]],[[[-1.853,43.407],[-1.848,43.342],[-1.768,43.342],[-1.773,43.407],[-1.853,43.407]]],[[[-1.774,46.443],[-1.666,46.349],[-1.506,46.323],[-1.516,46.33],[-1.539,46.372],[-1.67,46.39],[-1.774,46.443]]],[[[-1.692,43.407],[-1.688,43.342],[-0.964,43.342],[-0.858,42.951],[0.04,42.691],[0.601,42.691],[0.674,42.821],[0.995,42.821],[0.984,43.017],[0.813,43.212],[0.966,43.342],[0.637,43.472],[0.948,43.668],[0.919,44.19],[0.834,44.255],[1.069,44.385],[1.062,44.516],[1.378,44.647],[1.449,44.843],[2.101,44.777],[2.276,44.516],[2.516,44.581],[2.584,44.843],[2.747,44.843],[2.918,44.647],[3.158,44.712],[3.231,44.908],[3.474,44.908],[3.561,44.777],[3.966,44.777],[3.961,44.908],[4.123,44.908],[4.359,45.104],[4.268,45.366],[3.942,45.366],[4.013,45.628],[3.931,45.628],[3.918,45.955],[4.078,46.021],[4.017,46.233],[4.014,46.232],[3.984,46.182],[3.957,46.184],[3.962,46.235],[3.925,46.259],[3.926,46.293],[3.86,46.305],[3.847,46.362],[3.764,46.376],[3.737,46.438],[3.587,46.47],[3.568,46.555],[3.07,46.612],[2.804,47.006],[2.794,47.203],[2.712,47.203],[1.892,47.137],[1.356,47.137],[1.39,47.111],[1.358,47.059],[1.32,47.073],[1.32,47.072],[1.328,46.944],[1.346,46.943],[1.428,46.884],[1.408,46.83],[1.373,46.812],[1.333,46.742],[1.166,46.709],[1.084,46.723],[1.001,46.691],[0.897,46.691],[0.889,46.621],[0.937,46.595],[1.024,46.583],[1.031,46.541],[1.13,46.527],[1.193,46.551],[1.29,46.535],[1.41,46.557],[1.48,46.515],[1.524,46.467],[1.717,46.452],[1.758,46.476],[1.984,46.45],[2.144,46.301],[2.232,46.269],[2.302,46.311],[2.354,46.305],[2.402,46.318],[2.49,46.294],[2.538,46.241],[2.508,46.229],[2.564,46.142],[2.652,46.122],[2.689,46.174],[2.754,46.182],[2.786,46.194],[2.831,46.151],[2.818,46.116],[2.791,46.083],[2.723,46.05],[2.674,46.004],[2.615,45.978],[2.572,45.975],[2.471,45.857],[2.429,45.858],[2.398,45.832],[2.428,45.773],[2.479,45.777],[2.486,45.742],[2.442,45.707],[2.374,45.699],[2.28,45.66],[2.19,45.703],[2.168,45.756],[2.092,45.764],[2.008,45.761],[1.994,45.715],[1.946,45.729],[1.908,45.711],[1.866,45.724],[1.885,45.754],[1.886,45.797],[1.756,45.823],[1.789,45.874],[1.645,45.842],[1.619,45.855],[1.664,45.908],[1.674,45.952],[1.604,45.926],[1.553,45.948],[1.494,45.921],[1.432,45.947],[1.28,45.967],[1.158,45.923],[1.132,45.863],[1.101,45.848],[1.053,45.878],[1.012,45.876],[0.986,45.835],[0.937,45.804],[0.967,45.727],[0.931,45.647],[0.84,45.619],[0.824,45.639],[0.816,45.675],[0.791,45.698],[0.718,45.709],[0.643,45.706],[0.593,45.695],[0.552,45.673],[0.511,45.555],[0.411,45.476],[0.358,45.414],[0.379,45.386],[0.35,45.283],[0.295,45.258],[0.264,45.263],[0.168,45.221],[0.019,45.221],[0.007,45.246],[-0.043,45.284],[0.005,45.33],[0.032,45.416],[-0.003,45.437],[-0.036,45.482],[-0.104,45.518],[-0.195,45.532],[-0.272,45.565],[-0.4,45.643],[-0.445,45.755],[-0.427,45.781],[-0.39,45.768],[-0.299,45.778],[-0.303,45.804],[-0.284,45.813],[-0.257,45.778],[-0.173,45.801],[-0.19,45.846],[-0.129,45.879],[-0.119,45.955],[-0.269,46.047],[-0.361,45.991],[-0.417,46.062],[-0.477,46.051],[-0.492,46.072],[-0.468,46.101],[-0.489,46.142],[-0.537,46.154],[-0.547,46.183],[-0.516,46.233],[-0.548,46.337],[-0.636,46.317],[-0.684,46.331],[-0.735,46.318],[-0.775,46.329],[-0.96,46.313],[-1.005,46.321],[-1.085,46.3],[-1.238,46.24],[-1.249,46.243],[-1.223,45.89],[-1.141,45.89],[-1.213,45.759],[-1.045,45.693],[-1.031,45.497],[-1.189,45.431],[-1.171,45.17],[-1.252,45.17],[-1.205,44.516],[-1.286,44.516],[-1.268,44.255],[-1.349,44.255],[-1.321,43.863],[-1.402,43.863],[-1.46,43.538],[-1.692,43.407]]],[[[-1.419,46.31],[-1.364,46.301],[-1.372,46.308],[-1.419,46.31]]]]}},{"type":"Feature","properties":{"NAME":"Kingdom of Poland","SUBJECTO":"Poland","PARTOF":"Poland","CLIOPATRIA_COMPOSITE":"child","CLIOPATRIA_BASE_POWER":"Poland","START_DATE":"1056","END_DATE":"1125","CLIOPATRIA_NAME":"Kingdom of Poland","CLIOPATRIA_SESHAT_ID":"pl_piast_dyn_1","CLIOPATRIA_AREA_KM2":200900,"WIKIDATA":"Q577867","WIKIPEDIA":"Kingdom of Poland","SNAPSHOT_YEAR":1100},"geometry":{"type":"MultiPolygon","coordinates":[[[[14.454,52.385],[14.579,52.283],[14.579,52.287],[14.597,52.273],[14.695,52.255],[14.716,52.234],[14.708,52.211],[14.689,52.195],[14.786,52.116],[15.212,52.116],[15.269,51.725],[15.301,51.647],[15.534,51.647],[15.529,51.513],[15.693,51.38],[15.68,51.046],[15.931,50.979],[15.92,50.712],[15.979,50.695],[15.983,50.696],[15.984,50.694],[16.098,50.661],[16.1,50.663],[16.119,50.655],[16.199,50.632],[16.216,50.635],[16.232,50.671],[16.339,50.665],[16.383,50.638],[16.483,50.679],[16.721,50.483],[17.084,50.379],[17.162,50.246],[17.253,50.231],[17.354,50.253],[17.409,50.239],[17.482,50.195],[17.484,50.194],[17.582,50.209],[17.666,50.183],[17.732,50.173],[17.939,50.264],[18,50.245],[18.041,50.16],[18.082,50.121],[18.122,50.031],[18.175,49.995],[18.184,49.994],[18.266,49.991],[18.277,49.985],[18.323,49.98],[18.322,49.957],[18.345,49.943],[18.321,49.894],[18.318,49.892],[18.316,49.847],[18.716,49.515],[19.047,49.449],[19.039,49.316],[19.29,49.316],[19.611,49.118],[20.12,49.25],[20.212,49.383],[20.959,49.316],[21.386,49.449],[22.158,49.714],[22.258,49.914],[22.946,50.113],[22.975,50.446],[22.891,50.446],[22.915,50.712],[23.09,50.779],[23.108,50.979],[23.024,50.979],[23.042,51.179],[22.879,51.246],[22.995,51.58],[22.669,51.714],[22.687,51.915],[22.347,51.915],[22.104,52.049],[22.293,52.25],[22.422,52.721],[22.343,52.788],[22.429,52.788],[22.646,53.26],[22.303,53.26],[22.501,53.53],[22.17,53.665],[21.984,53.53],[21.818,53.597],[21.72,53.462],[21.381,53.53],[21.019,53.327],[20.584,53.26],[20.487,53.125],[20.149,53.192],[20.063,53.192],[19.972,53.125],[19.902,53.327],[19.563,53.395],[19.492,53.597],[19.061,53.597],[18.985,53.732],[17.95,53.732],[17.765,53.53],[17.511,53.597],[17.065,53.327],[16.721,53.327],[16.714,53.192],[16.456,53.192],[16.535,53.057],[16.364,53.057],[16.272,52.923],[16.018,52.99],[16.011,52.855],[15.321,52.721],[14.971,52.519],[14.722,52.721],[14.549,52.654],[14.456,52.452],[14.454,52.385]]],[[[15.669,52.855],[15.755,52.855],[15.757,52.923],[15.672,52.923],[15.669,52.855]]],[[[16.189,52.99],[16.275,52.99],[16.278,53.057],[16.192,53.057],[16.189,52.99]]],[[[16.278,53.057],[16.364,53.057],[16.367,53.125],[16.281,53.125],[16.278,53.057]]]]}},{"type":"Feature","properties":{"NAME":"Royal Domain of France","START_DATE":"1085","END_DATE":"1138","CLIOPATRIA_NAME":"Kingdom of France","CLIOPATRIA_SESHAT_ID":"fr_capetian_k_1","CLIOPATRIA_AREA_KM2":21966,"WIKIDATA":"Q207162","WIKIPEDIA":"Kingdom of France","SNAPSHOT_YEAR":1100},"geometry":{"type":"MultiPolygon","coordinates":[[[[1.389,48.654],[1.567,48.456],[1.733,48.456],[1.685,47.862],[1.768,47.862],[1.892,47.137],[2.712,47.203],[2.619,47.401],[2.368,47.466],[2.413,47.758],[2.398,47.766],[2.415,47.774],[2.429,47.862],[2.763,47.796],[3.249,47.994],[3.481,47.903],[3.553,47.923],[3.626,47.874],[3.685,47.883],[3.738,47.853],[3.73,47.806],[3.755,47.796],[3.752,47.862],[3.834,47.862],[3.831,47.928],[3.914,47.928],[3.648,48.324],[3.565,48.324],[3.475,48.456],[3.057,48.522],[2.884,48.654],[2.791,48.853],[3.033,48.985],[2.613,49.051],[2.439,49.184],[1.772,49.184],[1.647,49.011],[1.813,48.977],[1.756,48.9],[1.77,48.865],[1.848,48.848],[1.899,48.779],[1.875,48.746],[1.767,48.731],[1.733,48.698],[1.669,48.718],[1.623,48.78],[1.63,48.829],[1.607,48.856],[1.56,48.89],[1.389,48.654]]],[[[1.433,50.579],[1.442,50.446],[1.446,50.379],[1.475,50.368],[1.477,50.38],[1.607,50.367],[1.607,50.388],[1.642,50.394],[1.643,50.434],[1.68,50.437],[1.726,50.411],[1.726,50.393],[1.782,50.388],[1.779,50.446],[1.694,50.446],[1.664,50.49],[1.433,50.579]]]]}}],"metadata":{"generatedBy":"scripts/build-fief-flat.ts","input":"data/cliopatria_fiefs_1100.geojson","year":1100,"cutPolicy":"keep-smaller","containmentCoverageThreshold":0.9,"minOverlapAreaM2":1000,"sliverAreaLimitM2":1000000000,"resolutions":[{"kind":"containment","cutName":"County of Blôis","keptName":"County of Champagne","overlapKm2":25198.78,"coverageOfSmaller":1},{"kind":"sliver","cutName":"Royal Domain of France","keptName":"County of Flanders","overlapKm2":58.78,"coverageOfSmaller":0.0034}],"externalInputs":["data/france_fiefs_flat_1100.geojson","data/italy_fiefs_flat_1100.geojson","data/hre_fiefs_flat_1100.geojson"],"externalRemovals":[{"cutName":"County of Blôis","externalName":"County of Perche","overlapKm2":1205.1},{"cutName":"County of Blôis","externalName":"County of Tours","overlapKm2":31.33},{"cutName":"County of Blôis","externalName":"County of Vendôme","overlapKm2":8.82},{"cutName":"County of Champagne","externalName":"County of Bar","overlapKm2":16.53},{"cutName":"County of Champagne","externalName":"Duchy of Burgundy","overlapKm2":1842.23},{"cutName":"County of Champagne","externalName":"Duchy of Upper Lotharingia","overlapKm2":205.08},{"cutName":"County of Flanders","externalName":"Counts of Saint-Pol","overlapKm2":583.46},{"cutName":"County of Flanders","externalName":"County of Ponthieu","overlapKm2":5.64},{"cutName":"County of Flanders","externalName":"Duchy of Lower Lotharingia","overlapKm2":363.79},{"cutName":"County of Nevers","externalName":"Duchy of Burgundy","overlapKm2":8702.6},{"cutName":"County of Vermandois","externalName":"County of Ponthieu","overlapKm2":1485.51},{"cutName":"County of Vermandois","externalName":"Duchy of Normandy","overlapKm2":26.86},{"cutName":"County of Vermandois","externalName":"Duchy of Lower Lotharingia","overlapKm2":234.64},{"cutName":"Duchy of Aquitaine","externalName":"County of Angoulême","overlapKm2":4490.81},{"cutName":"Duchy of Aquitaine","externalName":"County of La Marche","overlapKm2":9058.31},{"cutName":"Duchy of Aquitaine","externalName":"County of Nantes","overlapKm2":338.68},{"cutName":"Duchy of Aquitaine","externalName":"County of Poitou","overlapKm2":18927.96},{"cutName":"Duchy of Aquitaine","externalName":"County of Tours","overlapKm2":1323.71},{"cutName":"Duchy of Aquitaine","externalName":"Duchy of Burgundy","overlapKm2":1282.92},{"cutName":"Kingdom of Poland","externalName":"Duchy of Bohemia","overlapKm2":1028.85},{"cutName":"Kingdom of Poland","externalName":"Saxon Eastern March","overlapKm2":37.24},{"cutName":"Royal Domain of France","externalName":"County of Ponthieu","overlapKm2":211.51},{"cutName":"Royal Domain of France","externalName":"Duchy of Burgundy","overlapKm2":82.1},{"cutName":"Royal Domain of France","externalName":"Duchy of Normandy","overlapKm2":471.51}],"source":"Cliopatria (Seshat Global History Databank)","sourceUrl":"https://github.com/Seshat-Global-History-Databank/cliopatria","license":"CC BY 4.0","commit":"ad28a691b7c07c1fca89d0e0636d324667d2a258","borderPrecision":"史料地図のデジタイズ（概略。手描き地図の自動抽出を 0.07 度で平滑化）"}}