{"type":"FeatureCollection","features":[{"type":"Feature","properties":{"NAME":"County of Blôis","START_DATE":"1169","END_DATE":"1205","CLIOPATRIA_NAME":"County of Blôis","CLIOPATRIA_SESHAT_ID":"fr_capetian_k_2","CLIOPATRIA_AREA_KM2":7796,"WIKIDATA":"Q19336869","WIKIPEDIA":"County of Blois","SNAPSHOT_YEAR":1200},"geometry":{"type":"Polygon","coordinates":[[[0.997,48.008],[1.052,47.966],[1.062,47.968],[1.101,47.938],[1.096,47.933],[1.237,47.826],[1.248,47.827],[1.247,47.818],[1.276,47.796],[1.245,47.769],[1.244,47.761],[1.218,47.713],[1.203,47.703],[1.294,47.249],[1.37,47.196],[1.346,47.145],[1.356,47.137],[1.892,47.137],[1.768,47.862],[1.685,47.862],[1.733,48.456],[1.567,48.456],[1.389,48.654],[1.306,48.654],[1.31,48.588],[1.061,48.588],[1.065,48.522],[1.026,48.522],[1.056,48.513],[1.096,48.483],[1.202,48.457],[1.219,48.406],[1.255,48.388],[1.277,48.359],[1.274,48.315],[1.335,48.245],[1.332,48.222],[1.277,48.188],[1.145,48.177],[1.06,48.083],[1.051,48.034],[0.997,48.008]]]}},{"type":"Feature","properties":{"NAME":"County of Boulogne","START_DATE":"1188","END_DATE":"1235","CLIOPATRIA_NAME":"County of Boulogne","CLIOPATRIA_SESHAT_ID":"fr_capetian_k_2","CLIOPATRIA_AREA_KM2":684,"WIKIDATA":"Q1431527","WIKIPEDIA":"County of Boulogne","SNAPSHOT_YEAR":1200},"geometry":{"type":"MultiPolygon","coordinates":[[[[1.496,50.912],[1.5,50.845],[1.505,50.779],[1.509,50.712],[1.425,50.712],[1.429,50.645],[1.433,50.579],[1.686,50.579],[1.846,50.712],[1.58,50.912],[1.496,50.912]]]]}},{"type":"Feature","properties":{"NAME":"County of Flanders","START_DATE":"1188","END_DATE":"1215","CLIOPATRIA_NAME":"County of Flanders","CLIOPATRIA_SESHAT_ID":"fr_capetian_k_2","CLIOPATRIA_AREA_KM2":9229,"WIKIDATA":"Q157070","WIKIPEDIA":"County of Flanders","SNAPSHOT_YEAR":1200},"geometry":{"type":"MultiPolygon","coordinates":[[[[3.124,50.446],[3.296,50.379],[3.373,50.512],[3.542,50.512],[3.7,50.712],[4.034,50.779],[4.103,51.112],[3.254,51.179],[3.159,51.38],[3.074,51.38],[2.159,51.112],[2.075,51.112],[2.095,50.779],[2.264,50.779],[2.271,50.645],[2.777,50.645],[3.04,50.446],[3.124,50.446]]]]}},{"type":"Feature","properties":{"NAME":"County of Nevers","START_DATE":"1169","END_DATE":"1205","CLIOPATRIA_NAME":"County of Nevers","CLIOPATRIA_SESHAT_ID":"fr_capetian_k_2","CLIOPATRIA_AREA_KM2":12467,"WIKIDATA":"Q2070440","WIKIPEDIA":"County of Nevers","SNAPSHOT_YEAR":1200},"geometry":{"type":"MultiPolygon","coordinates":[[[[2.368,47.466],[2.619,47.401],[2.712,47.203],[2.794,47.203],[2.804,47.006],[2.961,46.773],[3.039,46.799],[3.032,46.767],[3.065,46.859],[3.047,46.954],[3.07,46.99],[3.037,47.088],[3.03,47.135],[2.999,47.204],[2.982,47.265],[2.881,47.328],[2.93,47.448],[2.841,47.564],[2.759,47.602],[2.699,47.66],[2.597,47.685],[2.522,47.655],[2.457,47.717],[2.461,47.734],[2.413,47.758],[2.368,47.466]]],[[[2.415,47.774],[2.502,47.811],[2.697,47.761],[2.752,47.788],[2.887,47.752],[2.937,47.723],[3.06,47.731],[3.12,47.775],[3.214,47.762],[3.276,47.797],[3.213,47.8],[3.213,47.877],[3.124,47.943],[2.763,47.796],[2.429,47.862],[2.415,47.774]]]]}},{"type":"Feature","properties":{"NAME":"County of Toulouse","START_DATE":"1188","END_DATE":"1205","CLIOPATRIA_NAME":"County of Toulouse","CLIOPATRIA_SESHAT_ID":"fr_capetian_k_2","CLIOPATRIA_AREA_KM2":52816,"WIKIDATA":"Q1334322","WIKIPEDIA":"County of Toulouse","SNAPSHOT_YEAR":1200},"geometry":{"type":"Polygon","coordinates":[[[0.762,43.498],[0.866,43.485],[0.865,43.443],[0.795,43.414],[0.793,43.411],[0.966,43.342],[0.813,43.212],[0.984,43.017],[0.995,42.821],[1.486,42.626],[1.726,42.626],[1.729,42.561],[1.809,42.561],[1.812,42.496],[2.043,42.691],[2.518,42.821],[2.592,42.951],[2.991,43.017],[2.988,43.082],[3.14,43.277],[3.617,43.407],[3.851,43.603],[4.173,43.603],[4.178,43.472],[4.339,43.472],[4.415,43.603],[4.412,43.668],[4.726,43.929],[4.477,44.124],[4.47,44.32],[4.058,44.516],[3.966,44.777],[3.561,44.777],[3.519,44.84],[3.516,44.84],[3.422,44.907],[3.422,44.908],[3.231,44.908],[3.158,44.712],[3.055,44.684],[3.033,44.656],[2.977,44.644],[2.97,44.661],[2.918,44.647],[2.747,44.843],[2.584,44.843],[2.516,44.581],[2.276,44.516],[2.101,44.777],[1.449,44.843],[1.378,44.647],[1.062,44.516],[1.064,44.485],[1.095,44.477],[1.119,44.462],[1.122,44.431],[1.067,44.419],[1.069,44.385],[0.957,44.323],[1.031,44.325],[0.996,44.275],[1.037,44.227],[0.921,44.151],[0.926,44.067],[0.932,44.066],[1.023,44.092],[1.08,44.078],[1.096,44.041],[1.161,43.973],[1.101,43.942],[1.067,43.867],[1.019,43.829],[1.005,43.728],[0.947,43.688],[0.948,43.668],[0.829,43.593],[0.795,43.521],[0.762,43.498]]]}},{"type":"Feature","properties":{"NAME":"County of Vermandois","START_DATE":"1188","END_DATE":"1209","CLIOPATRIA_NAME":"County of Vermandois","CLIOPATRIA_SESHAT_ID":"fr_capetian_k_2","CLIOPATRIA_AREA_KM2":19510,"WIKIDATA":"Q26385","WIKIPEDIA":"Vermandois","SNAPSHOT_YEAR":1200},"geometry":{"type":"MultiPolygon","coordinates":[[[[1.446,50.379],[1.451,50.313],[1.455,50.246],[1.461,50.239],[1.47,50.246],[1.463,50.281],[1.477,50.379],[1.446,50.379]]],[[[1.487,50.379],[1.607,50.367],[1.607,50.379],[1.487,50.379]]],[[[1.719,50.105],[1.747,50.056],[1.721,50.048],[1.729,49.991],[1.766,49.985],[1.777,49.976],[1.732,49.958],[1.722,49.94],[1.731,49.92],[1.804,49.911],[1.813,49.893],[1.842,49.89],[1.86,49.872],[1.849,49.812],[1.791,49.817],[1.82,49.781],[1.797,49.501],[1.799,49.497],[1.797,49.489],[1.772,49.184],[2.439,49.184],[2.613,49.051],[2.862,49.012],[2.889,49.028],[2.947,49.015],[2.973,48.995],[3.021,48.987],[3.04,49.017],[3.196,49.049],[3.22,49.126],[3.262,49.137],[3.376,49.205],[3.425,49.275],[3.295,49.308],[3.273,49.385],[3.359,49.405],[3.451,49.445],[3.588,49.546],[3.638,49.572],[3.807,49.602],[3.881,49.649],[3.932,49.633],[4.057,49.7],[4.048,49.701],[4.033,49.716],[4.068,49.744],[4.07,49.787],[4.061,49.851],[4.121,49.869],[4.125,49.869],[4.155,49.98],[3.987,49.98],[3.984,50.046],[3.816,50.046],[3.813,50.113],[2.554,50.113],[2.261,50.242],[2.207,50.242],[2.204,50.267],[1.951,50.379],[1.819,50.326],[1.899,50.302],[1.949,50.334],[1.98,50.322],[1.975,50.291],[2.085,50.255],[2.06,50.223],[2.011,50.228],[1.986,50.211],[1.932,50.204],[1.934,50.183],[1.951,50.174],[1.994,50.18],[1.987,50.139],[2.015,50.145],[2.031,50.161],[2.065,50.156],[2.085,50.127],[2.153,50.144],[2.19,50.063],[2.22,50.034],[2.167,49.99],[2.164,49.96],[2.183,49.921],[2.18,49.883],[2.144,49.884],[2.12,49.913],[2.118,49.963],[2.143,49.999],[2.142,50.051],[2.129,50.067],[2.103,50.068],[2.088,50.051],[2.083,50.019],[2.025,49.99],[2.034,49.926],[2.014,49.924],[1.985,49.943],[1.95,49.946],[1.922,49.927],[1.873,49.918],[1.856,49.928],[1.855,49.961],[1.914,49.974],[1.926,49.991],[1.925,50.039],[1.937,50.057],[1.884,50.062],[1.872,49.996],[1.846,49.992],[1.804,50.072],[1.772,50.099],[1.719,50.105]]]]}},{"type":"Feature","properties":{"NAME":"Duchy of Greater Poland","SUBJECTO":"Poland","PARTOF":"Poland","CLIOPATRIA_COMPOSITE":"child","CLIOPATRIA_BASE_POWER":"Poland","START_DATE":"1188","END_DATE":"1201","CLIOPATRIA_NAME":"Duchy of Greater Poland","CLIOPATRIA_SESHAT_ID":"pl_piast_dyn_2","CLIOPATRIA_AREA_KM2":34081,"WIKIDATA":"Q1515009","WIKIPEDIA":"Duchy of Greater Poland","SNAPSHOT_YEAR":1200},"geometry":{"type":"MultiPolygon","coordinates":[[[[18.128,52.452],[18.051,52.586],[17.627,52.654],[17.549,52.788],[17.125,52.855],[16.796,53.125],[16.724,53.395],[16.904,53.53],[16.907,53.597],[16.821,53.597],[16.735,53.597],[16.477,53.597],[16.208,53.395],[15.44,53.53],[15.345,53.327],[14.732,52.99],[15.064,52.721],[14.969,52.452],[15.39,52.318],[15.468,52.116],[16.061,52.049],[16.219,51.781],[16.719,51.58],[16.977,51.647],[17.052,51.447],[17.475,51.447],[17.972,51.246],[18.08,51.647],[18.351,51.915],[18.213,52.452],[18.128,52.452]]]]}},{"type":"Feature","properties":{"NAME":"Duchy of Kuyavia","SUBJECTO":"Poland","PARTOF":"Poland","CLIOPATRIA_COMPOSITE":"child","CLIOPATRIA_BASE_POWER":"Poland","START_DATE":"1188","END_DATE":"1201","CLIOPATRIA_NAME":"Duchy of Kuyavia","CLIOPATRIA_SESHAT_ID":"pl_piast_dyn_2","CLIOPATRIA_AREA_KM2":6844,"WIKIDATA":"Q11750543","WIKIPEDIA":"Duchy of Kuyavia","SNAPSHOT_YEAR":1200},"geometry":{"type":"MultiPolygon","coordinates":[[[[20.146,52.049],[20.076,52.25],[19.484,52.318],[19.423,52.654],[19.1,52.923],[18.928,52.923],[18.689,53.192],[18.517,53.192],[18.526,53.327],[18.264,53.26],[18.333,52.99],[18.662,52.788],[18.653,52.654],[19.622,51.848],[19.872,51.781],[20.221,51.915],[20.232,52.049],[20.146,52.049]]]]}},{"type":"Feature","properties":{"NAME":"Duchy of Opole","SUBJECTO":"Poland","PARTOF":"Poland","CLIOPATRIA_COMPOSITE":"child","CLIOPATRIA_BASE_POWER":"Poland","START_DATE":"1177","END_DATE":"1201","CLIOPATRIA_NAME":"Duchy of Opole","CLIOPATRIA_SESHAT_ID":"pl_piast_dyn_2","CLIOPATRIA_AREA_KM2":6625,"WIKIDATA":"Q661980","WIKIPEDIA":"Duchy of Opole","SNAPSHOT_YEAR":1200},"geometry":{"type":"Polygon","coordinates":[[[17.659,50.113],[17.904,49.98],[18.323,49.98],[18.316,49.847],[18.4,49.847],[18.396,49.781],[18.716,49.515],[19.13,49.449],[19.389,49.582],[19.242,49.914],[19.078,49.98],[19.186,50.379],[19.102,50.379],[18.338,50.246],[18.09,50.313],[17.747,50.179],[17.743,50.113],[17.659,50.113]],[[17.948,50.07],[17.959,50.093],[17.951,50.108],[17.974,50.127],[18.015,50.13],[18.065,50.113],[18.087,50.103],[18.103,50.072],[18.123,50.065],[18.095,50.06],[18.081,50.092],[18.077,50.068],[18.076,50.083],[18.05,50.081],[18.005,50.05],[17.991,50.051],[17.987,50.064],[17.948,50.07]]]}},{"type":"Feature","properties":{"NAME":"Duchy of Sandomierz","SUBJECTO":"Poland","PARTOF":"Poland","CLIOPATRIA_COMPOSITE":"child","CLIOPATRIA_BASE_POWER":"Poland","START_DATE":"1192","END_DATE":"1201","CLIOPATRIA_NAME":"Duchy of Sandomierz","CLIOPATRIA_SESHAT_ID":"pl_piast_dyn_2","CLIOPATRIA_AREA_KM2":142235,"WIKIDATA":"Q16933165","WIKIPEDIA":"Duchy of Sandomierz","SNAPSHOT_YEAR":1200},"geometry":{"type":"MultiPolygon","coordinates":[[[[19.335,53.8],[19.269,54.071],[19.355,54.071],[19.462,54.342],[18.687,54.41],[18.445,54.681],[18.459,54.885],[17.502,54.885],[17.498,54.817],[17.489,54.681],[17.576,54.681],[17.535,54.003],[17.777,53.732],[17.765,53.53],[16.904,53.53],[16.724,53.395],[16.796,53.125],[17.125,52.855],[17.549,52.788],[17.627,52.654],[18.051,52.586],[18.128,52.452],[18.213,52.452],[18.351,51.915],[18.08,51.647],[17.972,51.246],[18.049,51.112],[18.709,50.845],[18.701,50.712],[19.03,50.579],[19.102,50.379],[19.186,50.379],[19.078,49.98],[19.242,49.914],[19.389,49.582],[19.866,49.184],[20.212,49.383],[20.959,49.316],[21.386,49.449],[22.158,49.714],[22.258,49.914],[22.946,50.113],[22.975,50.446],[22.891,50.446],[22.915,50.712],[23.09,50.779],[23.108,50.979],[23.024,50.979],[23.042,51.179],[22.879,51.246],[22.995,51.58],[22.669,51.714],[22.687,51.915],[22.347,51.915],[22.104,52.049],[22.293,52.25],[22.422,52.721],[22.343,52.788],[22.429,52.788],[22.646,53.26],[22.56,53.26],[22.303,53.26],[22.501,53.53],[22.17,53.665],[21.984,53.53],[21.818,53.597],[21.72,53.462],[21.381,53.53],[21.019,53.327],[20.584,53.26],[20.487,53.125],[19.972,53.125],[19.902,53.327],[19.563,53.395],[19.421,53.8],[19.335,53.8]],[[20.146,52.049],[20.076,52.25],[19.484,52.318],[19.423,52.654],[19.1,52.923],[18.928,52.923],[18.689,53.192],[18.517,53.192],[18.526,53.327],[18.264,53.26],[18.333,52.99],[18.662,52.788],[18.653,52.654],[19.622,51.848],[19.872,51.781],[20.221,51.915],[20.232,52.049],[20.146,52.049]]]]}},{"type":"Feature","properties":{"NAME":"Duchy of Silesia","SUBJECTO":"Poland","PARTOF":"Poland","CLIOPATRIA_COMPOSITE":"child","CLIOPATRIA_BASE_POWER":"Poland","START_DATE":"1188","END_DATE":"1201","CLIOPATRIA_NAME":"Duchy of Silesia","CLIOPATRIA_SESHAT_ID":"pl_piast_dyn_2","CLIOPATRIA_AREA_KM2":29008,"WIKIDATA":"Q568638","WIKIPEDIA":"Duchy of Silesia","SNAPSHOT_YEAR":1200},"geometry":{"type":"MultiPolygon","coordinates":[[[[17.475,51.447],[17.052,51.447],[16.977,51.647],[16.719,51.58],[16.219,51.781],[16.061,52.049],[15.468,52.116],[15.39,52.318],[14.969,52.452],[15.064,52.721],[14.732,52.99],[14.477,53.057],[14.481,53.192],[14.309,53.192],[14.046,52.99],[14.125,52.788],[14.549,52.654],[14.537,52.318],[14.957,52.116],[14.952,51.982],[14.607,51.848],[14.603,51.714],[14.601,51.647],[14.764,51.447],[14.933,51.447],[15.195,51.647],[15.534,51.647],[15.529,51.513],[15.693,51.38],[15.68,51.046],[15.931,50.979],[15.92,50.712],[16.339,50.645],[16.417,50.512],[17.084,50.379],[17.246,50.246],[17.521,50.712],[18.701,50.712],[18.709,50.845],[18.049,51.112],[17.972,51.246],[17.475,51.447]]]]}},{"type":"Feature","properties":{"NAME":"Duchy of Wrocław","SUBJECTO":"Poland","PARTOF":"Poland","CLIOPATRIA_COMPOSITE":"child","CLIOPATRIA_BASE_POWER":"Poland","START_DATE":"1192","END_DATE":"1201","CLIOPATRIA_NAME":"Duchy of Wrocław","CLIOPATRIA_SESHAT_ID":"pl_piast_dyn_2","CLIOPATRIA_AREA_KM2":5861,"WIKIDATA":"Q568638","WIKIPEDIA":"Duchy of Wrocław","SNAPSHOT_YEAR":1200},"geometry":{"type":"Polygon","coordinates":[[[17.246,50.246],[17.659,50.113],[17.743,50.113],[17.747,50.179],[18.09,50.313],[18.338,50.246],[19.102,50.379],[19.03,50.579],[18.701,50.712],[17.521,50.712],[17.246,50.246]],[[17.422,50.213],[17.425,50.241],[17.434,50.253],[17.453,50.256],[17.459,50.269],[17.491,50.274],[17.562,50.27],[17.587,50.278],[17.61,50.266],[17.627,50.27],[17.695,50.304],[17.687,50.309],[17.691,50.327],[17.719,50.32],[17.731,50.303],[17.751,50.298],[17.726,50.273],[17.726,50.262],[17.745,50.243],[17.762,50.241],[17.759,50.208],[17.738,50.202],[17.72,50.208],[17.703,50.185],[17.62,50.171],[17.606,50.189],[17.542,50.189],[17.517,50.212],[17.485,50.207],[17.463,50.215],[17.429,50.205],[17.422,50.213]]]}},{"type":"Feature","properties":{"NAME":"Kingdom of Bohemia","SUBJECTO":"Holy Roman Empire","PARTOF":"Holy Roman Empire","START_DATE":"1202","END_DATE":"1215","CLIOPATRIA_NAME":"Kingdom of Bohemia","CLIOPATRIA_SESHAT_ID":"cz_bohemian_k_1","CLIOPATRIA_AREA_KM2":70806,"WIKIDATA":"Q42585","WIKIPEDIA":"Kingdom of Bohemia","SNAPSHOT_YEAR":1200,"BORROWED_FROM":{"targetYear":1200,"fromYear":1202,"toYear":1215,"dataset":"Cliopatria (Seshat Global History Databank)","commit":"ad28a691b7c07c1fca89d0e0636d324667d2a258","seshatId":"cz_bohemian_k_1","license":"CC BY 4.0","reason":"1200 年のボヘミアを覆う面が上流のどこにも無い（Cliopatria の Duchy of Bohemia は [.. -1002] で終わり、Kingdom of Bohemia は [1202-1215] から始まる。OHM の Duchy of Bohemia は end_date 1100）。プシェミスル・オタカル 1 世は 1198 年の王号取得から 1230 年まで継続してボヘミア王であり、1200〜1202 年にこの地図の縮尺で有意な領域断絶は無い（借用元 70,806 km² は 1100 年 OHM の Duchy of Bohemia と IoU 84.8%）。年差 2 年で、上流の区間としては対象年の直後に隣接する。"}},"geometry":{"type":"Polygon","coordinates":[[[12.946,49.25],[13.113,49.25],[13.276,49.051],[13.443,49.051],[13.511,48.968],[13.512,48.969],[13.58,48.971],[13.606,48.941],[13.625,48.949],[13.624,48.937],[13.676,48.879],[13.719,48.879],[13.733,48.887],[13.768,48.833],[13.793,48.829],[13.796,48.815],[13.937,48.787],[14.182,48.588],[14.765,48.654],[14.941,48.985],[15.502,48.935],[15.502,48.936],[15.468,48.952],[15.454,48.947],[15.423,48.952],[15.353,48.984],[15.322,48.976],[15.291,48.984],[15.286,49.016],[15.249,49.029],[15.255,49.041],[15.248,49.048],[15.207,49.059],[15.23,49.086],[15.265,49.075],[15.238,49.091],[15.251,49.098],[15.26,49.122],[15.226,49.145],[15.238,49.172],[15.206,49.181],[15.221,49.194],[15.267,49.194],[15.282,49.203],[15.26,49.201],[15.255,49.212],[15.214,49.211],[15.183,49.186],[15.183,49.173],[15.163,49.179],[15.164,49.188],[15.137,49.188],[15.135,49.197],[15.166,49.203],[15.168,49.217],[15.192,49.236],[15.225,49.225],[15.233,49.24],[15.227,49.248],[15.235,49.254],[15.279,49.247],[15.269,49.25],[15.28,49.278],[15.295,49.282],[15.299,49.274],[15.335,49.271],[15.331,49.284],[15.345,49.314],[15.387,49.316],[15.381,49.325],[15.386,49.326],[15.357,49.337],[15.388,49.334],[15.418,49.318],[15.492,49.364],[15.491,49.374],[15.504,49.382],[15.5,49.395],[15.516,49.405],[15.512,49.408],[15.548,49.418],[15.584,49.406],[15.608,49.428],[15.604,49.433],[15.639,49.425],[15.644,49.439],[15.634,49.446],[15.648,49.454],[15.688,49.432],[15.698,49.449],[15.779,49.45],[15.789,49.453],[15.785,49.462],[15.792,49.47],[15.824,49.467],[15.821,49.481],[15.842,49.503],[15.858,49.542],[15.887,49.555],[15.885,49.569],[15.875,49.567],[15.869,49.575],[15.871,49.588],[15.949,49.592],[15.992,49.618],[15.987,49.632],[15.974,49.638],[15.95,49.637],[15.92,49.65],[15.917,49.663],[15.928,49.679],[15.947,49.667],[15.973,49.668],[15.997,49.696],[16.015,49.706],[16.05,49.708],[16.064,49.688],[16.079,49.685],[16.091,49.67],[16.104,49.684],[16.139,49.691],[16.149,49.678],[16.19,49.678],[16.207,49.666],[16.222,49.666],[16.218,49.66],[16.228,49.642],[16.223,49.63],[16.298,49.625],[16.345,49.613],[16.406,49.572],[16.418,49.596],[16.443,49.586],[16.459,49.605],[16.49,49.6],[16.497,49.61],[16.529,49.607],[16.515,49.655],[16.481,49.663],[16.474,49.686],[16.445,49.7],[16.366,49.708],[16.376,49.735],[16.388,49.743],[16.388,49.758],[16.408,49.774],[16.406,49.785],[16.42,49.791],[16.455,49.787],[16.469,49.797],[16.497,49.791],[16.507,49.785],[16.506,49.764],[16.528,49.756],[16.534,49.741],[16.572,49.741],[16.582,49.753],[16.581,49.768],[16.565,49.787],[16.573,49.811],[16.569,49.835],[16.627,49.86],[16.662,49.853],[16.66,49.874],[16.644,49.894],[16.683,49.904],[16.683,49.919],[16.694,49.931],[16.734,49.953],[16.735,49.969],[16.708,50.005],[16.696,50.053],[16.761,50.055],[16.78,50.047],[16.81,50.055],[16.814,50.058],[16.8,50.071],[16.82,50.087],[16.801,50.11],[16.8,50.13],[16.822,50.17],[16.841,50.186],[16.841,50.201],[16.849,50.208],[16.879,50.199],[16.888,50.216],[16.913,50.225],[16.957,50.223],[16.962,50.237],[16.978,50.243],[16.997,50.216],[17.033,50.23],[17.057,50.196],[17.076,50.183],[17.109,50.185],[17.119,50.161],[17.158,50.12],[17.218,50.104],[17.231,50.084],[17.231,50.06],[17.288,50.019],[17.312,50.017],[17.322,49.984],[17.349,49.967],[17.355,49.953],[17.386,49.937],[17.411,49.948],[17.396,49.962],[17.4,49.973],[17.431,49.969],[17.465,49.957],[17.461,49.94],[17.468,49.927],[17.502,49.931],[17.507,49.913],[17.531,49.904],[17.532,49.898],[17.559,49.908],[17.599,49.877],[17.616,49.889],[17.643,49.889],[17.696,49.908],[17.714,49.897],[17.738,49.911],[17.81,49.917],[17.827,49.929],[17.857,49.934],[17.847,49.958],[17.871,49.962],[17.884,49.937],[17.867,49.936],[17.865,49.918],[17.851,49.913],[17.851,49.888],[17.837,49.873],[17.818,49.864],[17.714,49.867],[17.684,49.874],[17.659,49.868],[17.648,49.854],[17.658,49.842],[17.658,49.822],[17.64,49.811],[17.653,49.778],[17.694,49.751],[17.69,49.737],[17.697,49.726],[17.717,49.728],[17.755,49.716],[17.765,49.693],[17.748,49.692],[17.74,49.679],[17.768,49.654],[17.778,49.633],[17.788,49.635],[17.836,49.607],[17.863,49.606],[17.871,49.612],[17.835,49.638],[17.838,49.642],[17.93,49.62],[17.924,49.634],[17.884,49.657],[17.854,49.647],[17.845,49.651],[17.845,49.666],[17.87,49.701],[17.84,49.737],[17.864,49.764],[17.866,49.783],[17.901,49.776],[17.89,49.761],[17.902,49.754],[17.899,49.74],[17.918,49.708],[17.955,49.719],[17.98,49.736],[17.987,49.728],[17.982,49.71],[17.992,49.707],[17.992,49.685],[18.01,49.678],[18.12,49.717],[18.19,49.757],[18.196,49.782],[18.218,49.79],[18.219,49.825],[18.214,49.825],[18.225,49.829],[18.227,49.853],[18.276,49.867],[18.3,49.835],[18.275,49.801],[18.309,49.766],[18.303,49.733],[18.319,49.699],[18.36,49.669],[18.368,49.654],[18.367,49.624],[18.354,49.615],[18.367,49.599],[18.367,49.562],[18.377,49.56],[18.397,49.536],[18.394,49.532],[18.423,49.504],[18.421,49.494],[18.442,49.466],[18.449,49.463],[18.526,49.478],[18.527,49.494],[18.541,49.493],[18.534,49.486],[18.539,49.48],[18.716,49.515],[18.316,49.847],[18.32,49.914],[18.1,49.98],[17.904,49.98],[17.659,50.113],[17.162,50.246],[17.084,50.379],[16.417,50.512],[16.339,50.645],[16.086,50.645],[16.025,50.695],[15.92,50.712],[15.923,50.779],[15.417,50.779],[15.255,50.979],[14.578,50.912],[14.497,51.046],[14.328,51.046],[14.154,50.845],[13.392,50.712],[13.304,50.512],[13.64,50.512],[13.718,50.246],[13.211,50.046],[13.208,49.914],[13.374,49.847],[13.454,49.648],[13.371,49.648],[13.368,49.515],[13.033,49.449],[12.946,49.25]],[[17.792,49.758],[17.794,49.767],[17.823,49.762],[17.822,49.756],[17.809,49.758],[17.803,49.749],[17.792,49.758]],[[17.792,49.966],[17.796,49.969],[17.815,49.97],[17.825,49.962],[17.803,49.957],[17.792,49.966]],[[17.954,49.795],[17.964,49.806],[17.985,49.808],[18.01,49.791],[17.976,49.777],[17.954,49.795]],[[17.973,49.888],[17.976,49.926],[17.98,49.922],[17.994,49.91],[17.988,49.886],[17.973,49.888]],[[18,49.711],[18.027,49.732],[18.06,49.728],[18.061,49.701],[18.021,49.696],[18,49.711]]]}},{"type":"Feature","properties":{"NAME":"Royal Domain of France","START_DATE":"1188","END_DATE":"1205","CLIOPATRIA_NAME":"Kingdom of France","CLIOPATRIA_SESHAT_ID":"fr_capetian_k_2","CLIOPATRIA_AREA_KM2":37024,"WIKIDATA":"Q207162","WIKIPEDIA":"Kingdom of France","SNAPSHOT_YEAR":1200},"geometry":{"type":"MultiPolygon","coordinates":[[[[1.389,48.654],[1.567,48.456],[1.733,48.456],[1.685,47.862],[1.768,47.862],[1.892,47.137],[2.712,47.203],[2.619,47.401],[2.368,47.466],[2.413,47.758],[2.398,47.766],[2.415,47.774],[2.429,47.862],[2.763,47.796],[3.124,47.943],[3.06,47.991],[3.065,48.043],[3.499,48.079],[3.587,48.123],[3.576,48.228],[3.524,48.281],[3.419,48.29],[3.307,48.294],[3.23,48.255],[3.104,48.307],[3.032,48.292],[2.986,48.25],[2.928,48.255],[2.873,48.274],[2.87,48.317],[2.947,48.343],[3.093,48.354],[3.135,48.374],[3.106,48.416],[3.064,48.442],[3.057,48.482],[3.066,48.521],[3.057,48.522],[3.024,48.547],[2.968,48.57],[2.867,48.571],[2.87,48.601],[2.832,48.686],[2.799,48.733],[2.686,48.739],[2.612,48.762],[2.609,48.786],[2.727,48.816],[2.694,48.878],[2.634,48.925],[2.683,48.975],[2.752,49.029],[2.845,49.002],[2.862,49.012],[2.613,49.051],[2.439,49.184],[1.772,49.184],[1.389,48.654]]],[[[1.433,50.579],[1.438,50.512],[1.442,50.446],[1.446,50.379],[1.477,50.379],[1.477,50.38],[1.487,50.379],[1.607,50.379],[1.607,50.388],[1.642,50.394],[1.643,50.434],[1.68,50.437],[1.726,50.411],[1.726,50.393],[1.799,50.387],[1.816,50.366],[1.796,50.351],[1.814,50.327],[1.819,50.326],[1.951,50.379],[2.204,50.267],[2.203,50.274],[2.176,50.29],[2.186,50.32],[2.176,50.34],[2.177,50.367],[2.193,50.391],[2.19,50.405],[2.173,50.409],[2.107,50.391],[2.083,50.398],[2.061,50.389],[1.969,50.403],[1.968,50.42],[1.991,50.431],[1.989,50.456],[2.021,50.495],[2.026,50.516],[2.105,50.489],[2.157,50.492],[2.181,50.474],[2.238,50.485],[2.335,50.476],[2.353,50.443],[2.391,50.405],[2.394,50.365],[2.42,50.339],[2.468,50.309],[2.466,50.264],[2.477,50.222],[2.438,50.232],[2.395,50.225],[2.337,50.243],[2.261,50.242],[2.554,50.113],[3.729,50.113],[3.726,50.179],[3.642,50.179],[3.542,50.512],[3.373,50.512],[3.296,50.379],[3.124,50.446],[3.04,50.446],[2.777,50.645],[2.271,50.645],[2.264,50.779],[2.095,50.779],[2.075,51.112],[1.99,51.112],[1.576,50.979],[1.58,50.912],[1.846,50.712],[1.686,50.579],[1.433,50.579]]],[[[2.973,48.995],[3.004,48.969],[3.013,48.974],[3.021,48.987],[2.973,48.995]]],[[[3.6,47.892],[3.626,47.874],[3.685,47.883],[3.686,47.882],[3.693,47.82],[3.686,47.885],[3.6,47.892]]],[[[3.918,45.955],[3.931,45.628],[4.013,45.628],[3.979,45.502],[3.986,45.499],[3.971,45.472],[3.942,45.366],[4.268,45.366],[4.357,45.17],[4.68,45.235],[4.505,45.562],[4.828,45.628],[5.073,45.628],[5.295,46.283],[4.968,46.283],[4.895,46.021],[4.734,45.955],[4.331,46.218],[4.269,46.218],[4.247,46.241],[4.16,46.236],[4.086,46.251],[4.055,46.249],[4.017,46.233],[4.078,46.021],[3.918,45.955]]]]}}],"metadata":{"generatedBy":"scripts/build-fief-flat.ts","input":"data/cliopatria_fiefs_1200.geojson","year":1200,"cutPolicy":"keep-smaller","containmentCoverageThreshold":0.9,"minOverlapAreaM2":1000,"sliverAreaLimitM2":1000000000,"resolutions":[{"kind":"sliver","cutName":"Kingdom of Bohemia","keptName":"Duchy of Opole","overlapKm2":103.18,"coverageOfSmaller":0.0156},{"kind":"sliver","cutName":"Kingdom of Bohemia","keptName":"Duchy of Silesia","overlapKm2":27.47,"coverageOfSmaller":0.001}],"externalInputs":["data/france_fiefs_flat_1200.geojson","data/italy_fiefs_flat_1200.geojson","data/hre_fiefs_flat_1200.geojson"],"externalRemovals":[{"cutName":"County of Blôis","externalName":"County of Perche","overlapKm2":1131.6},{"cutName":"County of Blôis","externalName":"County of Tours","overlapKm2":37.88},{"cutName":"County of Blôis","externalName":"County of Vendôme","overlapKm2":12.74},{"cutName":"County of Nevers","externalName":"County of Champagne","overlapKm2":350.49},{"cutName":"County of Nevers","externalName":"Duchy of Aquitaine","overlapKm2":688},{"cutName":"County of Nevers","externalName":"Duchy of Burgundy","overlapKm2":8612.43},{"cutName":"County of Toulouse","externalName":"Duchy of Aquitaine","overlapKm2":214.84},{"cutName":"County of Toulouse","externalName":"Duchy of Gascony","overlapKm2":598.68},{"cutName":"County of Vermandois","externalName":"Counts of Saint-Pol","overlapKm2":5.41},{"cutName":"County of Vermandois","externalName":"County of Champagne","overlapKm2":2268.5},{"cutName":"County of Vermandois","externalName":"County of Ponthieu","overlapKm2":1516.28},{"cutName":"County of Vermandois","externalName":"Duchy of Normandy","overlapKm2":0.09},{"cutName":"Duchy of Opole","externalName":"Moravia","overlapKm2":59.06},{"cutName":"Duchy of Wrocław","externalName":"Moravia","overlapKm2":217.73},{"cutName":"Kingdom of Bohemia","externalName":"Moravia","overlapKm2":21695.97},{"cutName":"Kingdom of Bohemia","externalName":"Prince-Bishopric of Passau","overlapKm2":118.1},{"cutName":"Royal Domain of France","externalName":"Counts of Saint-Pol","overlapKm2":578.05},{"cutName":"Royal Domain of France","externalName":"County of Champagne","overlapKm2":2725.18},{"cutName":"Royal Domain of France","externalName":"County of Ponthieu","overlapKm2":186.38},{"cutName":"Royal Domain of France","externalName":"Duchy of Aquitaine","overlapKm2":1.03},{"cutName":"Royal Domain of France","externalName":"Duchy of Burgundy","overlapKm2":342.99}],"borrowedFrom":[{"name":"Kingdom of Bohemia","upstreamName":"Kingdom of Bohemia","targetYear":1200,"fromYear":1202,"toYear":1215,"dataset":"Cliopatria (Seshat Global History Databank)","commit":"ad28a691b7c07c1fca89d0e0636d324667d2a258","seshatId":"cz_bohemian_k_1","license":"CC BY 4.0","reason":"1200 年のボヘミアを覆う面が上流のどこにも無い（Cliopatria の Duchy of Bohemia は [.. -1002] で終わり、Kingdom of Bohemia は [1202-1215] から始まる。OHM の Duchy of Bohemia は end_date 1100）。プシェミスル・オタカル 1 世は 1198 年の王号取得から 1230 年まで継続してボヘミア王であり、1200〜1202 年にこの地図の縮尺で有意な領域断絶は無い（借用元 70,806 km² は 1100 年 OHM の Duchy of Bohemia と IoU 84.8%）。年差 2 年で、上流の区間としては対象年の直後に隣接する。"}],"detachedRemainders":[{"name":"Kingdom of Bohemia","areaKm2":11.77,"bbox":[15.799,48.811,15.956,48.877]},{"name":"Kingdom of Bohemia","areaKm2":298.39,"bbox":[16.109,48.72,16.892,48.814]},{"name":"Kingdom of Bohemia","areaKm2":124.12,"bbox":[17.03,48.747,17.339,48.875]},{"name":"Kingdom of Bohemia","areaKm2":12.88,"bbox":[17.905,48.976,17.977,49.026]},{"name":"Kingdom of Bohemia","areaKm2":17.13,"bbox":[18.132,49.189,18.231,49.293]}],"source":"Cliopatria (Seshat Global History Databank)","sourceUrl":"https://github.com/Seshat-Global-History-Databank/cliopatria","license":"CC BY 4.0","commit":"ad28a691b7c07c1fca89d0e0636d324667d2a258","borderPrecision":"史料地図のデジタイズ（概略。手描き地図の自動抽出を 0.07 度で平滑化）"}}