{"type":"FeatureCollection","features":[{"type":"Feature","properties":{"NAME":"(Kingdom of Poland)","SUBJECTO":"Poland","PARTOF":"Poland","CLIOPATRIA_COMPOSITE":"parent","CLIOPATRIA_BASE_POWER":"Poland","START_DATE":"1056","END_DATE":"1125","CLIOPATRIA_NAME":"(Kingdom of Poland)","CLIOPATRIA_SESHAT_ID":"pl_piast_dyn_1","CLIOPATRIA_AREA_KM2":200900,"WIKIDATA":"Q577867","WIKIPEDIA":"Kingdom of Poland","SNAPSHOT_YEAR":1100},"geometry":{"type":"MultiPolygon","coordinates":[[[[20.48711,53.12479],[20.58405,53.25963],[21.01949,53.32709],[21.38149,53.52959],[21.71968,53.46207],[21.81835,53.59714],[21.98426,53.52959],[22.1695,53.66471],[22.50092,53.52959],[22.30254,53.25963],[22.56031,53.25963],[22.64623,53.25963],[22.42883,52.78807],[22.34323,52.78807],[22.42241,52.72079],[22.2929,52.25045],[22.10417,52.04919],[22.34723,51.91513],[22.68736,51.91513],[22.66858,51.71418],[22.99545,51.58032],[22.87944,51.24602],[23.04241,51.17921],[23.02383,50.97892],[23.10827,50.97892],[23.0898,50.77881],[22.91514,50.71214],[22.89131,50.44566],[22.97542,50.44566],[22.94603,50.11296],[22.25832,49.91356],[22.15849,49.71431],[21.38568,49.44889],[20.95871,49.31629],[20.21194,49.38258],[20.11991,49.25001],[19.61141,49.1175],[19.28963,49.31629],[19.03927,49.31629],[19.04685,49.44889],[18.7164,49.51522],[18.31621,49.84713],[18.32339,49.98001],[17.65599,50.04647],[17.5787,50.17946],[17.16204,50.24598],[17.08426,50.37908],[15.92021,50.71214],[15.93087,50.97892],[15.68012,51.04567],[15.69319,51.37968],[15.52896,51.51342],[15.53417,51.64724],[15.27959,51.64724],[15.21213,52.11626],[14.78632,52.11626],[14.4543,52.38472],[14.45648,52.45189],[14.5486,52.65353],[14.72198,52.72079],[14.97123,52.51908],[15.32091,52.72079],[16.01149,52.85537],[16.01763,52.99003],[16.27164,52.92269],[16.36387,53.0574],[16.53544,53.0574],[16.45633,53.1922],[16.71397,53.1922],[16.72097,53.32709],[17.06485,53.32709],[17.51054,53.59714],[17.76489,53.52959],[17.9498,53.7323],[18.9848,53.7323],[19.06136,53.59714],[19.49214,53.59714],[19.56304,53.39457],[19.90187,53.32709],[19.97212,53.12479],[20.06322,53.1922],[20.1491,53.1922],[20.48711,53.12479]]],[[[15.66888,52.85537],[15.67177,52.92269],[15.75747,52.92269],[15.75453,52.85537],[15.66888,52.85537]]],[[[16.18911,52.99003],[16.1923,53.0574],[16.27808,53.0574],[16.27485,52.99003],[16.18911,52.99003]]],[[[16.27808,53.0574],[16.28132,53.12479],[16.36716,53.12479],[16.36387,53.0574],[16.27808,53.0574]]]]}},{"type":"Feature","properties":{"NAME":"County of Blôis","START_DATE":"1085","END_DATE":"1110","CLIOPATRIA_NAME":"County of Blôis","CLIOPATRIA_SESHAT_ID":"fr_capetian_k_1","CLIOPATRIA_AREA_KM2":32981,"WIKIDATA":"Q19336869","WIKIPEDIA":"County of Blois","SNAPSHOT_YEAR":1100},"geometry":{"type":"MultiPolygon","coordinates":[[[[1.30842,47.26897],[1.30443,47.33479],[1.30044,47.40062],[1.29644,47.46647],[1.19774,47.73],[1.27627,47.79593],[0.92467,48.12574],[0.8203,48.45594],[0.98197,48.52202],[1.06498,48.52202],[1.06073,48.58812],[1.14377,48.58812],[1.22682,48.58812],[1.30987,48.58812],[1.30572,48.65424],[1.3888,48.65424],[1.56706,48.45594],[1.73301,48.45594],[1.68547,47.86186],[1.76812,47.86186],[1.89226,47.13737],[1.31635,47.13737],[1.31239,47.20317],[1.30842,47.26897]]],[[[5.30566,48.32381],[5.47377,48.25777],[5.48066,48.05975],[5.64618,48.05975],[5.81812,47.86186],[5.82238,47.73],[5.57686,47.6641],[5.24903,47.59821],[4.82116,47.99377],[4.57299,47.99377],[4.57833,47.86186],[4.33864,47.6641],[4.17355,47.6641],[3.91416,47.92781],[3.64762,48.32381],[3.56472,48.32381],[3.47546,48.45594],[3.05722,48.52202],[2.88429,48.65424],[2.79067,48.85268],[3.03341,48.98506],[3.37302,48.85268],[3.61944,48.91887],[3.60354,49.25001],[3.84761,49.38258],[3.83829,49.58157],[4.08309,49.71431],[4.15484,49.98001],[4.57682,49.91356],[4.6798,49.44889],[5.02672,49.1175],[4.86527,48.98506],[4.88344,48.52202],[5.30327,48.38987],[5.30566,48.32381]]]]}},{"type":"Feature","properties":{"NAME":"County of Champagne","START_DATE":"1094","END_DATE":"1125","CLIOPATRIA_NAME":"County of Champagne","CLIOPATRIA_SESHAT_ID":"fr_capetian_k_1","CLIOPATRIA_AREA_KM2":25276,"WIKIDATA":"Q546266","WIKIPEDIA":"County of Champagne","SNAPSHOT_YEAR":1100},"geometry":{"type":"MultiPolygon","coordinates":[[[[5.30327,48.38987],[4.88344,48.52202],[4.86527,48.98506],[5.02672,49.1175],[4.6798,49.44889],[4.57682,49.91356],[4.15484,49.98001],[4.08309,49.71431],[3.83829,49.58157],[3.84761,49.38258],[3.60354,49.25001],[3.61944,48.91887],[3.37302,48.85268],[3.03341,48.98506],[2.79067,48.85268],[2.88429,48.65424],[3.05722,48.52202],[3.47546,48.45594],[3.56472,48.32381],[3.64762,48.32381],[3.91416,47.92781],[4.17355,47.6641],[4.33864,47.6641],[4.57833,47.86186],[4.57299,47.99377],[4.82116,47.99377],[5.24903,47.59821],[5.57686,47.6641],[5.82238,47.73],[5.81812,47.86186],[5.64618,48.05975],[5.48066,48.05975],[5.47377,48.25777],[5.30566,48.32381],[5.30327,48.38987]]]]}},{"type":"Feature","properties":{"NAME":"County of Flanders","START_DATE":"1010","END_DATE":"1151","CLIOPATRIA_NAME":"County of Flanders","CLIOPATRIA_SESHAT_ID":"fr_capetian_k_1","CLIOPATRIA_AREA_KM2":17591,"WIKIDATA":"Q157070","WIKIPEDIA":"County of Flanders","SNAPSHOT_YEAR":1100},"geometry":{"type":"MultiPolygon","coordinates":[[[[3.53828,50.57886],[4.03417,50.77881],[4.10309,51.11243],[3.25434,51.17921],[3.15907,51.37968],[3.07438,51.37968],[2.57783,51.17921],[1.65622,51.04567],[1.49598,50.9122],[1.4334,50.57886],[1.77852,50.44566],[1.78267,50.37908],[2.55443,50.11296],[3.72925,50.11296],[3.53828,50.57886]]]]}},{"type":"Feature","properties":{"NAME":"County of Nevers","START_DATE":"1056","END_DATE":"1138","CLIOPATRIA_NAME":"County of Nevers","CLIOPATRIA_SESHAT_ID":"fr_capetian_k_1","CLIOPATRIA_AREA_KM2":12490,"WIKIDATA":"Q2070440","WIKIPEDIA":"County of Nevers","SNAPSHOT_YEAR":1100},"geometry":{"type":"MultiPolygon","coordinates":[[[[3.72864,46.54585],[3.72574,46.61152],[3.80774,46.61152],[3.80487,46.67721],[3.9633,46.80862],[3.86679,47.13737],[3.94906,47.13737],[3.94043,47.33479],[3.6079,47.40062],[3.60182,47.53233],[3.76678,47.53233],[3.75481,47.79593],[3.24941,47.99377],[2.76339,47.79593],[2.42935,47.86186],[2.36821,47.46647],[2.61899,47.40062],[2.7116,47.20317],[2.7939,47.20317],[2.80392,47.00583],[3.06973,46.61152],[3.64668,46.54585],[3.72864,46.54585]]]]}},{"type":"Feature","properties":{"NAME":"County of Toulouse","START_DATE":"1066","END_DATE":"1146","CLIOPATRIA_NAME":"County of Toulouse","CLIOPATRIA_SESHAT_ID":"fr_capetian_k_1","CLIOPATRIA_AREA_KM2":52864,"WIKIDATA":"Q1334322","WIKIPEDIA":"County of Toulouse","SNAPSHOT_YEAR":1100},"geometry":{"type":"MultiPolygon","coordinates":[[[[4.41231,43.66784],[4.72569,43.92862],[4.4766,44.12432],[4.46952,44.3201],[4.05753,44.51598],[3.96617,44.77729],[3.5607,44.77729],[3.47398,44.90802],[3.23051,44.90802],[3.15816,44.71195],[2.91798,44.64661],[2.74667,44.84265],[2.58442,44.84265],[2.51599,44.58129],[2.27624,44.51598],[2.10101,44.77729],[1.44866,44.84265],[1.3784,44.64661],[1.06172,44.51598],[1.06912,44.38538],[0.83396,44.25483],[0.91853,44.18957],[0.94799,43.66784],[0.63698,43.47235],[0.96608,43.34207],[0.81254,43.21183],[0.98393,43.01654],[0.99452,42.82134],[1.48554,42.62621],[1.56562,42.62621],[1.7258,42.62621],[1.81225,42.49618],[1.88913,42.56119],[1.96918,42.56119],[2.04303,42.69125],[2.51784,42.82134],[2.59215,42.95147],[2.99052,43.01654],[2.98772,43.08163],[3.14003,43.27695],[3.61714,43.4072],[3.85089,43.60266],[4.17303,43.60266],[4.17785,43.47235],[4.3388,43.47235],[4.41464,43.60266],[4.41231,43.66784]]]]}},{"type":"Feature","properties":{"NAME":"County of Vermandois","START_DATE":"1085","END_DATE":"1146","CLIOPATRIA_NAME":"County of Vermandois","CLIOPATRIA_SESHAT_ID":"fr_capetian_k_1","CLIOPATRIA_AREA_KM2":19332,"WIKIDATA":"Q26385","WIKIPEDIA":"Vermandois","SNAPSHOT_YEAR":1100},"geometry":{"type":"MultiPolygon","coordinates":[[[[3.98409,50.04647],[3.90021,50.04647],[3.81633,50.04647],[3.81317,50.11296],[3.72925,50.11296],[2.55443,50.11296],[1.78267,50.37908],[1.79095,50.24598],[1.44637,50.37908],[1.45068,50.31252],[1.45497,50.24598],[1.81961,49.78071],[1.77241,49.18375],[2.43944,49.18375],[2.61345,49.05127],[3.03341,48.98506],[3.37302,48.85268],[3.61944,48.91887],[3.60354,49.25001],[3.84761,49.38258],[3.83829,49.58157],[4.08309,49.71431],[4.15484,49.98001],[4.071,49.98001],[3.98716,49.98001],[3.98409,50.04647]]]]}},{"type":"Feature","properties":{"NAME":"Duchy of Aquitaine","START_DATE":"1085","END_DATE":"1110","CLIOPATRIA_NAME":"Duchy of Aquitaine","CLIOPATRIA_SESHAT_ID":"fr_aquitania_duc_2","CLIOPATRIA_AREA_KM2":141788,"WIKIDATA":"Q7703611","WIKIPEDIA":"Duchy of Aquitaine","SNAPSHOT_YEAR":1100},"geometry":{"type":"MultiPolygon","coordinates":[[[[-1.76799,43.34207],[-1.8484,43.34207],[-1.85306,43.4072],[-1.77261,43.4072],[-1.76799,43.34207]]],[[[3.98291,46.34892],[4.0784,46.02094],[3.91776,45.95538],[3.93147,45.62776],[4.01298,45.62776],[3.94229,45.36588],[4.26781,45.36588],[4.35925,45.10418],[4.12323,44.90802],[3.96092,44.90802],[3.96617,44.77729],[3.5607,44.77729],[3.47398,44.90802],[3.23051,44.90802],[3.15816,44.71195],[2.91798,44.64661],[2.74667,44.84265],[2.58442,44.84265],[2.51599,44.58129],[2.27624,44.51598],[2.10101,44.77729],[1.44866,44.84265],[1.3784,44.64661],[1.06172,44.51598],[1.06912,44.38538],[0.83396,44.25483],[0.91853,44.18957],[0.94799,43.66784],[0.63698,43.47235],[0.96608,43.34207],[0.81254,43.21183],[0.98393,43.01654],[0.99452,42.82134],[0.67382,42.82134],[0.60095,42.69125],[0.04014,42.69125],[-0.85792,42.95147],[-0.96385,43.34207],[-1.68757,43.34207],[-1.69217,43.4072],[-1.45988,43.5375],[-1.40205,43.86341],[-1.32139,43.86341],[-1.3488,44.25483],[-1.26796,44.25483],[-1.28634,44.51598],[-1.20538,44.51598],[-1.25186,45.16959],[-1.17057,45.16959],[-1.18937,45.43133],[-1.03121,45.4968],[-1.04528,45.69326],[-1.21314,45.75877],[-1.1411,45.88983],[-1.22274,45.88983],[-1.25181,46.28329],[-1.66604,46.34892],[-2.19441,46.80862],[-2.21053,47.00583],[-2.12833,47.00583],[-1.38849,47.00583],[-1.04986,46.87434],[-0.14636,46.87434],[0.74464,47.07159],[1.1718,46.80862],[1.24996,46.87434],[1.3321,46.87434],[1.32818,46.94008],[1.32424,47.00583],[1.3203,47.07159],[1.31635,47.13737],[1.89226,47.13737],[2.7116,47.20317],[2.7939,47.20317],[2.80392,47.00583],[3.06973,46.61152],[3.64668,46.54585],[3.72864,46.54585],[3.72574,46.61152],[3.80774,46.61152],[3.80487,46.67721],[4.05097,46.67721],[4.22584,46.41455],[3.98291,46.34892]]]]}},{"type":"Feature","properties":{"NAME":"Kingdom of Poland","SUBJECTO":"Poland","PARTOF":"Poland","CLIOPATRIA_COMPOSITE":"child","CLIOPATRIA_BASE_POWER":"Poland","START_DATE":"1056","END_DATE":"1125","CLIOPATRIA_NAME":"Kingdom of Poland","CLIOPATRIA_SESHAT_ID":"pl_piast_dyn_1","CLIOPATRIA_AREA_KM2":200900,"WIKIDATA":"Q577867","WIKIPEDIA":"Kingdom of Poland","SNAPSHOT_YEAR":1100},"geometry":{"type":"MultiPolygon","coordinates":[[[[20.48711,53.12479],[20.58405,53.25963],[21.01949,53.32709],[21.38149,53.52959],[21.71968,53.46207],[21.81835,53.59714],[21.98426,53.52959],[22.1695,53.66471],[22.50092,53.52959],[22.30254,53.25963],[22.56031,53.25963],[22.64623,53.25963],[22.42883,52.78807],[22.34323,52.78807],[22.42241,52.72079],[22.2929,52.25045],[22.10417,52.04919],[22.34723,51.91513],[22.68736,51.91513],[22.66858,51.71418],[22.99545,51.58032],[22.87944,51.24602],[23.04241,51.17921],[23.02383,50.97892],[23.10827,50.97892],[23.0898,50.77881],[22.91514,50.71214],[22.89131,50.44566],[22.97542,50.44566],[22.94603,50.11296],[22.25832,49.91356],[22.15849,49.71431],[21.38568,49.44889],[20.95871,49.31629],[20.21194,49.38258],[20.11991,49.25001],[19.61141,49.1175],[19.28963,49.31629],[19.03927,49.31629],[19.04685,49.44889],[18.7164,49.51522],[18.31621,49.84713],[18.32339,49.98001],[17.65599,50.04647],[17.5787,50.17946],[17.16204,50.24598],[17.08426,50.37908],[15.92021,50.71214],[15.93087,50.97892],[15.68012,51.04567],[15.69319,51.37968],[15.52896,51.51342],[15.53417,51.64724],[15.27959,51.64724],[15.21213,52.11626],[14.78632,52.11626],[14.4543,52.38472],[14.45648,52.45189],[14.5486,52.65353],[14.72198,52.72079],[14.97123,52.51908],[15.32091,52.72079],[16.01149,52.85537],[16.01763,52.99003],[16.27164,52.92269],[16.36387,53.0574],[16.53544,53.0574],[16.45633,53.1922],[16.71397,53.1922],[16.72097,53.32709],[17.06485,53.32709],[17.51054,53.59714],[17.76489,53.52959],[17.9498,53.7323],[18.9848,53.7323],[19.06136,53.59714],[19.49214,53.59714],[19.56304,53.39457],[19.90187,53.32709],[19.97212,53.12479],[20.06322,53.1922],[20.1491,53.1922],[20.48711,53.12479]]],[[[15.66888,52.85537],[15.67177,52.92269],[15.75747,52.92269],[15.75453,52.85537],[15.66888,52.85537]]],[[[16.18911,52.99003],[16.1923,53.0574],[16.27808,53.0574],[16.27485,52.99003],[16.18911,52.99003]]],[[[16.27808,53.0574],[16.28132,53.12479],[16.36716,53.12479],[16.36387,53.0574],[16.27808,53.0574]]]]}},{"type":"Feature","properties":{"NAME":"Royal Domain of France","START_DATE":"1085","END_DATE":"1138","CLIOPATRIA_NAME":"Kingdom of France","CLIOPATRIA_SESHAT_ID":"fr_capetian_k_1","CLIOPATRIA_AREA_KM2":21966,"WIKIDATA":"Q207162","WIKIPEDIA":"Kingdom of France","SNAPSHOT_YEAR":1100},"geometry":{"type":"MultiPolygon","coordinates":[[[[3.64762,48.32381],[3.91416,47.92781],[3.83147,47.92781],[3.83445,47.86186],[3.7518,47.86186],[3.75481,47.79593],[3.24941,47.99377],[2.76339,47.79593],[2.42935,47.86186],[2.36821,47.46647],[2.61899,47.40062],[2.7116,47.20317],[1.89226,47.13737],[1.76812,47.86186],[1.68547,47.86186],[1.73301,48.45594],[1.56706,48.45594],[1.3888,48.65424],[1.77241,49.18375],[2.43944,49.18375],[2.61345,49.05127],[3.03341,48.98506],[2.79067,48.85268],[2.88429,48.65424],[3.05722,48.52202],[3.47546,48.45594],[3.56472,48.32381],[3.64762,48.32381]]],[[[1.77852,50.44566],[1.78267,50.37908],[1.79095,50.24598],[1.44637,50.37908],[1.44206,50.44566],[1.4334,50.57886],[1.60179,50.57886],[1.6944,50.44566],[1.77852,50.44566]]]]}}],"metadata":{"generatedBy":"scripts/build-cliopatria-fiefs.ts","year":1100,"featureCount":10,"archiveUrl":"https://raw.githubusercontent.com/Seshat-Global-History-Databank/cliopatria/ad28a691b7c07c1fca89d0e0636d324667d2a258/cliopatria.geojson.zip","archiveSha256":"d01ae3a20d358cc5d54f69d9d725d390767d9c8759ac89ad6f90c58d106f3370","doi":"10.5281/zenodo.14714684","citation":"Bennett, J., Mutch, E., Chalstrey, E. et al. (2025) Cliopatria: A geospatial database of world-wide political entities from 3400BCE to 2024CE. Scientific Data.","selected":[{"name":"(Kingdom of Poland)","upstreamName":"(Kingdom of Poland)","fromYear":1056,"toYear":1125,"upstreamAreaKm2":200900},{"name":"County of Blôis","upstreamName":"County of Blôis","fromYear":1085,"toYear":1110,"upstreamAreaKm2":32981},{"name":"County of Champagne","upstreamName":"County of Champagne","fromYear":1094,"toYear":1125,"upstreamAreaKm2":25276},{"name":"County of Flanders","upstreamName":"County of Flanders","fromYear":1010,"toYear":1151,"upstreamAreaKm2":17591},{"name":"County of Nevers","upstreamName":"County of Nevers","fromYear":1056,"toYear":1138,"upstreamAreaKm2":12490},{"name":"County of Toulouse","upstreamName":"County of Toulouse","fromYear":1066,"toYear":1146,"upstreamAreaKm2":52864},{"name":"County of Vermandois","upstreamName":"County of Vermandois","fromYear":1085,"toYear":1146,"upstreamAreaKm2":19332},{"name":"Duchy of Aquitaine","upstreamName":"Duchy of Aquitaine","fromYear":1085,"toYear":1110,"upstreamAreaKm2":141788},{"name":"Kingdom of Poland","upstreamName":"Kingdom of Poland","fromYear":1056,"toYear":1125,"upstreamAreaKm2":200900},{"name":"Royal Domain of France","upstreamName":"Kingdom of France","fromYear":1085,"toYear":1138,"upstreamAreaKm2":21966}],"compositeParents":[{"name":"(Kingdom of Poland)","targetYear":1100,"fromYear":1056,"toYear":1125,"seshatId":"pl_piast_dyn_1","wikidata":"Q577867","basePowerName":"Poland","childNames":["Kingdom of Poland"],"dataset":"Cliopatria (Seshat Global History Databank)","commit":"ad28a691b7c07c1fca89d0e0636d324667d2a258","license":"CC BY 4.0","reason":"base の 1100 年 Poland は最長線分 264.4 km。上流の [1056-1125] は 1100 年を直接覆い、最長線分 90.2 km・100 km 超 0 本になる（#352）。"}],"source":"Cliopatria (Seshat Global History Databank)","sourceUrl":"https://github.com/Seshat-Global-History-Databank/cliopatria","license":"CC BY 4.0","commit":"ad28a691b7c07c1fca89d0e0636d324667d2a258","borderPrecision":"史料地図のデジタイズ（概略。手描き地図の自動抽出を 0.07 度で平滑化）"}}