{"type":"FeatureCollection","features":[{"type":"Feature","properties":{"NAME":"Naples","ABBREVN":"Naples","SUBJECTO":"Naples","PARTOF":"Naples","BORDERPRECISION":1,"ATTRIBUTION":{"source":"Gustav Droysen, Allgemeiner historischer Handatlas (1886), plate 67: Italien um das Jahr 1300; Polona / Wikimedia Commons","sourceUrl":"https://upload.wikimedia.org/wikipedia/commons/9/91/Professor_G._Droysens_Allgemeiner_historischer_Handatlas_1886_%28134038019%29.jpg","license":"CC0-1.0","borderPrecision":"1300年の歴史図版から転写した概略境界","sourceYear":1300,"sourceSha256":"14f75abb3038fff4dbed32c5eb1897e241d161e8f9b0f0c7f6b21cce99c2162c","changes":"PD原スキャンの境界を自前トレースし、経緯線でWGS84へ較正。微小島は判読できたもののみ収録。"}},"geometry":{"type":"LineString","coordinates":[[13.93581,42.93313],[13.95314,42.73877],[14.03706,42.59636],[14.1285,42.51103],[14.25578,42.44691],[14.37728,42.3915],[14.40461,42.33808],[14.36232,42.30821],[14.46462,42.22228],[14.58036,42.18429],[14.69638,42.1549],[14.7444,42.17999],[14.72937,42.10563],[14.79113,42.04675],[14.91849,42.01668],[15.02711,41.96499],[15.07725,41.91505],[15.21094,41.90183],[15.32828,41.91092],[15.53801,41.89872],[15.66156,41.91143],[15.83103,41.90878],[15.97806,41.91993],[16.07264,41.93323],[16.14117,41.90803],[16.1483,41.84172],[16.19127,41.78691],[16.17017,41.73518],[16.04567,41.70585],[15.97051,41.62579],[15.92953,41.53102],[15.97113,41.45456],[16.09007,41.40962],[16.16057,41.33609],[16.27945,41.29522],[16.40148,41.21893],[16.49664,41.17453],[16.60381,41.13813],[16.75115,41.09932],[16.85498,41.0233],[16.95092,40.99579],[17.04862,40.91985],[17.16434,40.85583],[17.26838,40.79237],[17.40192,40.73996],[17.57638,40.69768],[17.69885,40.65425],[17.78404,40.64388],[17.86106,40.60775],[17.95436,40.62285],[17.93062,40.55457],[18.01481,40.53525],[18.00494,40.49222],[18.09636,40.37169],[18.20915,40.29752],[18.31776,40.24099],[18.30819,40.20241],[18.40829,40.17702],[18.38607,40.12636],[18.4208,40.07555],[18.4724,40.02336],[18.41031,39.97161],[18.37432,39.89592],[18.31684,39.83066],[18.3515,39.77995],[18.30878,39.74844],[18.33347,39.71163],[18.28043,39.68963],[18.16423,39.71607],[18.02908,39.78295],[17.96681,39.84426],[17.92091,39.89997],[17.97722,39.95691],[17.93852,40.02957],[17.86344,40.07868],[17.8702,40.15242],[17.78125,40.17627],[17.76778,40.21652],[17.69828,40.20394],[17.63148,40.22168],[17.58465,40.20742],[17.53025,40.23733],[17.44872,40.21657],[17.37123,40.24351],[17.2926,40.25735],[17.23235,40.28739],[17.1533,40.29672],[17.14576,40.34524],[17.2121,40.38913],[17.18082,40.42606],[17.12826,40.41184],[17.06985,40.46788],[17.00226,40.4807],[16.9584,40.43089],[16.92534,40.37168],[16.83965,40.2937],[16.76653,40.22804],[16.7084,40.13098],[16.64669,40.06027],[16.60177,39.98427],[16.60946,39.93154],[16.53067,39.85304],[16.47688,39.808],[16.44538,39.75741],[16.47598,39.70793],[16.53041,39.6789],[16.50455,39.62808],[16.52387,39.57919],[16.64593,39.55511],[16.74253,39.48879],[16.82837,39.43167],[16.94818,39.38113],[16.99529,39.33482],[17.07929,39.33404],[17.04044,39.26255],[17.00357,39.21701],[17.02207,39.16376],[17.05786,39.11815],[17.02634,39.06798],[16.97945,39.03611],[17.03186,38.98952],[17.1236,38.94915],[17.09121,38.88609],[17.05645,38.86655],[17.04783,38.82372],[16.98238,38.84072],[16.93498,38.87827],[16.83358,38.85826],[16.71539,38.83474],[16.59595,38.78942],[16.55875,38.72647],[16.57705,38.66483],[16.53945,38.59329],[16.5465,38.52798],[16.51531,38.4691],[16.55038,38.41094],[16.53524,38.34259],[16.4661,38.29013],[16.35308,38.23561],[16.25145,38.18469],[16.17349,38.1627],[16.14186,38.08223],[16.09374,37.99826],[16.04099,37.92748],[16.02296,37.89383],[15.9147,37.91188],[15.81632,37.90774],[15.7407,37.92404],[15.65903,37.92758],[15.60587,37.96002],[15.54792,38.00987],[15.57813,38.07765],[15.60275,38.14136],[15.67063,38.19028],[15.74431,38.24324],[15.80291,38.32271],[15.82185,38.37373],[15.8744,38.4362],[15.89408,38.50017],[15.84059,38.53287],[15.75993,38.57537],[15.85564,38.61439],[15.90718,38.65099],[15.96365,38.67435],[16.04177,38.68798],[16.0852,38.67292],[16.17968,38.68128],[16.14992,38.74337],[16.1487,38.8214],[16.06811,38.86865],[16.0562,38.95589],[16.05609,39.05563],[16.03142,39.11319],[16.02528,39.2046],[16.01312,39.28765],[15.98809,39.34093],[15.95353,39.42505],[15.94496,39.47324],[15.87415,39.51122],[15.85993,39.55967],[15.8004,39.60142],[15.75874,39.66412],[15.77809,39.71111],[15.75366,39.78179],[15.74518,39.83438],[15.69795,39.90169],[15.69527,39.9584],[15.6292,39.99164],[15.55066,40.00353],[15.50727,40.0401],[15.43827,40.01666],[15.39652,39.97035],[15.32769,39.94681],[15.25736,40.01467],[15.18537,40.04772],[15.14247,40.10146],[15.08109,40.12096],[15.04372,40.17449],[14.96526,40.19446],[14.92827,40.26098],[14.99217,40.2982],[15.0002,40.35462],[14.95679,40.40398],[14.92504,40.46169],[14.86426,40.50718],[14.8272,40.57811],[14.79595,40.65326],[14.7574,40.68931],[14.72168,40.65101],[14.72019,40.61177],[14.65118,40.59621],[14.58363,40.61983],[14.49744,40.60022],[14.4757,40.63131],[14.41274,40.62409],[14.35523,40.60798],[14.31498,40.5958],[14.35077,40.64737],[14.4086,40.67221],[14.44396,40.7063],[14.43416,40.75457],[14.36635,40.77801],[14.32231,40.83142],[14.25972,40.84154],[14.21802,40.78563],[14.13869,40.80909],[14.09811,40.78804],[14.05882,40.815],[14.04917,40.88069],[14.0166,40.94683],[13.97216,41.00007],[13.90492,41.06241],[13.87201,41.12415],[13.81563,41.16876],[13.77118,41.23504],[13.73152,41.26185],[13.67888,41.22319],[13.6274,41.23697],[13.5981,41.21108],[13.54664,41.2248],[13.42637,41.25229],[13.34626,41.27927],[13.27155,41.28423],[13.28973,41.34535],[13.27291,41.37612],[13.29074,41.41099],[13.34817,41.39741],[13.40014,41.40134],[13.44042,41.39658],[13.44707,41.44467],[13.47115,41.497],[13.54073,41.5094],[13.54145,41.54445],[13.55383,41.58374],[13.54334,41.63645],[13.5565,41.71083],[13.54058,41.78119],[13.48912,41.82119],[13.44351,41.86551],[13.40863,41.86582],[13.36179,41.84869],[13.36276,41.90132],[13.40433,41.94486],[13.33463,41.95422],[13.30009,41.97643],[13.25887,41.95037],[13.25962,41.99426],[13.23667,42.01636],[13.17271,42.02551],[13.13197,42.03012],[13.10903,42.05658],[13.00968,42.03939],[12.98098,42.07459],[13.01613,42.08767],[13.01665,42.12719],[13.08665,42.12253],[13.12234,42.16632],[13.12886,42.21022],[13.10585,42.23669],[13.10672,42.29383],[13.06,42.3028],[13.01925,42.32052],[12.9963,42.35577],[12.93785,42.36909],[12.90902,42.4087],[12.92131,42.45268],[12.90423,42.49669],[12.91643,42.53188],[12.88148,42.55832],[12.90567,42.61112],[12.9526,42.59783],[13.01774,42.6241],[13.05365,42.65921],[13.10059,42.64583],[13.1596,42.64998],[13.19537,42.67183],[13.22454,42.65406],[13.27249,42.6934],[13.3255,42.68866],[13.39081,42.70578],[13.42672,42.72752],[13.47978,42.72264],[13.53973,42.75733],[13.57063,42.80992],[13.59441,42.81407],[13.6291,42.78283],[13.6828,42.79984],[13.75986,42.80329],[13.76051,42.82534],[13.82549,42.82004],[13.82697,42.86854],[13.90471,42.88946],[13.88792,42.9206],[13.93581,42.93313]]}},{"type":"Feature","properties":{"NAME":"Naples","ABBREVN":"Naples","SUBJECTO":"Naples","PARTOF":"Naples","BORDERPRECISION":1,"ATTRIBUTION":{"source":"Gustav Droysen, Allgemeiner historischer Handatlas (1886), plate 67: Italien um das Jahr 1300; Polona / Wikimedia Commons","sourceUrl":"https://upload.wikimedia.org/wikipedia/commons/9/91/Professor_G._Droysens_Allgemeiner_historischer_Handatlas_1886_%28134038019%29.jpg","license":"CC0-1.0","borderPrecision":"1300年の歴史図版から転写した概略境界","sourceYear":1300,"sourceSha256":"14f75abb3038fff4dbed32c5eb1897e241d161e8f9b0f0c7f6b21cce99c2162c","changes":"PD原スキャンの境界を自前トレースし、経緯線でWGS84へ較正。微小島は判読できたもののみ収録。"}},"geometry":{"type":"LineString","coordinates":[[14.6971,41.19821],[14.7482,41.17928],[14.80554,41.17328],[14.82747,41.14637],[14.87255,41.12316],[14.86531,41.08836],[14.79635,41.09038],[14.74951,41.06983],[14.71557,41.0839],[14.70548,41.11919],[14.7067,41.14979],[14.67862,41.16807],[14.6971,41.19821]]}},{"type":"Feature","properties":{"NAME":"Naples","ABBREVN":"Naples","SUBJECTO":"Naples","PARTOF":"Naples","BORDERPRECISION":1,"ATTRIBUTION":{"source":"Gustav Droysen, Allgemeiner historischer Handatlas (1886), plate 67: Italien um das Jahr 1300; Polona / Wikimedia Commons","sourceUrl":"https://upload.wikimedia.org/wikipedia/commons/9/91/Professor_G._Droysens_Allgemeiner_historischer_Handatlas_1886_%28134038019%29.jpg","license":"CC0-1.0","borderPrecision":"1300年の歴史図版から転写した概略境界","sourceYear":1300,"sourceSha256":"14f75abb3038fff4dbed32c5eb1897e241d161e8f9b0f0c7f6b21cce99c2162c","changes":"PD原スキャンの境界を自前トレースし、経緯線でWGS84へ較正。微小島は判読できたもののみ収録。"}},"geometry":{"type":"LineString","coordinates":[[13.86852,40.73972],[13.89713,40.74361],[13.92524,40.72567],[13.96537,40.73372],[13.97578,40.69425],[13.93546,40.67749],[13.87891,40.69589],[13.86852,40.73972]]}},{"type":"Feature","properties":{"NAME":"Sicily","ABBREVN":"Sicily","SUBJECTO":"Sicily","PARTOF":"Sicily","BORDERPRECISION":1,"ATTRIBUTION":{"source":"Gustav Droysen, Allgemeiner historischer Handatlas (1886), plate 67: Italien um das Jahr 1300; Polona / Wikimedia Commons","sourceUrl":"https://upload.wikimedia.org/wikipedia/commons/9/91/Professor_G._Droysens_Allgemeiner_historischer_Handatlas_1886_%28134038019%29.jpg","license":"CC0-1.0","borderPrecision":"1300年の歴史図版から転写した概略境界","sourceYear":1300,"sourceSha256":"14f75abb3038fff4dbed32c5eb1897e241d161e8f9b0f0c7f6b21cce99c2162c","changes":"PD原スキャンの境界を自前トレースし、経緯線でWGS84へ較正。微小島は判読できたもののみ収録。"}},"geometry":{"type":"LineString","coordinates":[[15.51731,38.19237],[15.44377,38.13489],[15.40244,38.05885],[15.36174,37.99575],[15.30464,37.92895],[15.26961,37.86562],[15.23389,37.78079],[15.17178,37.71415],[15.14718,37.62895],[15.10758,37.57871],[15.10989,37.48399],[15.0649,37.42968],[15.06719,37.33073],[15.1462,37.27206],[15.18204,37.2149],[15.20156,37.15405],[15.25908,37.10467],[15.24026,37.02383],[15.21137,36.96054],[15.14013,36.91168],[15.09515,36.8404],[15.09311,36.77188],[15.06503,36.72574],[15.09045,36.68199],[15.04622,36.62788],[15.00883,36.6249],[15.02127,36.68872],[14.99012,36.71979],[14.92555,36.70055],[14.86201,36.71979],[14.80283,36.70029],[14.72761,36.67693],[14.68566,36.70819],[14.6215,36.70154],[14.5476,36.73794],[14.51544,36.73027],[14.45746,36.76613],[14.4252,36.75415],[14.40466,36.79753],[14.42146,36.83993],[14.38,36.90959],[14.32766,36.97523],[14.26444,37.03683],[14.19535,37.07278],[14.10991,37.09615],[14.02945,37.09359],[13.92232,37.10005],[13.84193,37.10158],[13.75637,37.12455],[13.68143,37.13866],[13.62275,37.18247],[13.56399,37.22625],[13.49427,37.24011],[13.42994,37.26668],[13.37623,37.25875],[13.31724,37.29805],[13.26895,37.34578],[13.21525,37.42357],[13.15603,37.47134],[13.07518,37.51924],[13.00508,37.53692],[12.96722,37.5801],[12.89714,37.5762],[12.83788,37.56359],[12.77871,37.54665],[12.72463,37.57258],[12.65989,37.58132],[12.611,37.62434],[12.52988,37.64587],[12.47551,37.6845],[12.46414,37.73605],[12.50675,37.79625],[12.48992,37.85642],[12.50568,37.90373],[12.47812,37.95102],[12.53757,37.97257],[12.49927,38.00696],[12.54777,38.04571],[12.61823,38.06721],[12.69944,38.11874],[12.70999,38.17471],[12.75347,38.19182],[12.77007,38.1358],[12.75395,38.09279],[12.81388,38.06677],[12.86294,38.02783],[12.93903,38.01886],[13.0368,38.0527],[13.08575,38.06529],[13.05857,38.11715],[13.05313,38.14734],[13.09127,38.17722],[13.16212,38.18098],[13.18399,38.20235],[13.2384,38.1717],[13.27662,38.18856],[13.29855,38.2142],[13.33658,38.18364],[13.33089,38.13631],[13.39606,38.10112],[13.48864,38.09999],[13.54816,38.05182],[13.62411,38.0249],[13.71597,37.96749],[13.80866,37.98748],[13.8744,38.02078],[13.96179,38.04067],[14.04325,38.02612],[14.09255,38.04233],[14.1572,38.00216],[14.23357,38.00905],[14.2822,37.99067],[14.3752,38.00995],[14.45194,38.02952],[14.54542,38.06151],[14.62173,38.05938],[14.68846,38.10488],[14.7543,38.11586],[14.8103,38.16159],[14.8697,38.13817],[14.91803,38.11072],[14.9894,38.12131],[15.0648,38.08855],[15.13712,38.12485],[15.16612,38.17128],[15.16267,38.22751],[15.19565,38.23064],[15.21578,38.18243],[15.33671,38.19518],[15.42489,38.20902],[15.45949,38.25082],[15.52406,38.22232],[15.56783,38.22052],[15.59707,38.26249],[15.63443,38.23932],[15.58916,38.20667],[15.51731,38.19237]]}},{"type":"Feature","properties":{"NAME":"Sicily","ABBREVN":"Sicily","SUBJECTO":"Sicily","PARTOF":"Sicily","BORDERPRECISION":1,"ATTRIBUTION":{"source":"Gustav Droysen, Allgemeiner historischer Handatlas (1886), plate 67: Italien um das Jahr 1300; Polona / Wikimedia Commons","sourceUrl":"https://upload.wikimedia.org/wikipedia/commons/9/91/Professor_G._Droysens_Allgemeiner_historischer_Handatlas_1886_%28134038019%29.jpg","license":"CC0-1.0","borderPrecision":"1300年の歴史図版から転写した概略境界","sourceYear":1300,"sourceSha256":"14f75abb3038fff4dbed32c5eb1897e241d161e8f9b0f0c7f6b21cce99c2162c","changes":"PD原スキャンの境界を自前トレースし、経緯線でWGS84へ較正。微小島は判読できたもののみ収録。"}},"geometry":{"type":"LineString","coordinates":[[14.8864,38.49166],[14.93092,38.50751],[14.9185,38.46469],[14.87909,38.43571],[14.86361,38.46644],[14.8864,38.49166]]}},{"type":"Feature","properties":{"NAME":"Sicily","ABBREVN":"Sicily","SUBJECTO":"Sicily","PARTOF":"Sicily","BORDERPRECISION":1,"ATTRIBUTION":{"source":"Gustav Droysen, Allgemeiner historischer Handatlas (1886), plate 67: Italien um das Jahr 1300; Polona / Wikimedia Commons","sourceUrl":"https://upload.wikimedia.org/wikipedia/commons/9/91/Professor_G._Droysens_Allgemeiner_historischer_Handatlas_1886_%28134038019%29.jpg","license":"CC0-1.0","borderPrecision":"1300年の歴史図版から転写した概略境界","sourceYear":1300,"sourceSha256":"14f75abb3038fff4dbed32c5eb1897e241d161e8f9b0f0c7f6b21cce99c2162c","changes":"PD原スキャンの境界を自前トレースし、経緯線でWGS84へ較正。微小島は判読できたもののみ収録。"}},"geometry":{"type":"LineString","coordinates":[[14.92087,38.3696],[14.9539,38.37283],[14.96949,38.34641],[14.93099,38.34335],[14.92087,38.3696]]}},{"type":"Feature","properties":{"NAME":"Sicily","ABBREVN":"Sicily","SUBJECTO":"Sicily","PARTOF":"Sicily","BORDERPRECISION":1,"ATTRIBUTION":{"source":"Gustav Droysen, Allgemeiner historischer Handatlas (1886), plate 67: Italien um das Jahr 1300; Polona / Wikimedia Commons","sourceUrl":"https://upload.wikimedia.org/wikipedia/commons/9/91/Professor_G._Droysens_Allgemeiner_historischer_Handatlas_1886_%28134038019%29.jpg","license":"CC0-1.0","borderPrecision":"1300年の歴史図版から転写した概略境界","sourceYear":1300,"sourceSha256":"14f75abb3038fff4dbed32c5eb1897e241d161e8f9b0f0c7f6b21cce99c2162c","changes":"PD原スキャンの境界を自前トレースし、経緯線でWGS84へ較正。微小島は判読できたもののみ収録。"}},"geometry":{"type":"LineString","coordinates":[[14.78419,38.56397],[14.83903,38.55797],[14.83256,38.52792],[14.789,38.54222],[14.78419,38.56397]]}},{"type":"Feature","properties":{"NAME":"Sicily","ABBREVN":"Sicily","SUBJECTO":"Sicily","PARTOF":"Sicily","BORDERPRECISION":1,"ATTRIBUTION":{"source":"Gustav Droysen, Allgemeiner historischer Handatlas (1886), plate 67: Italien um das Jahr 1300; Polona / Wikimedia Commons","sourceUrl":"https://upload.wikimedia.org/wikipedia/commons/9/91/Professor_G._Droysens_Allgemeiner_historischer_Handatlas_1886_%28134038019%29.jpg","license":"CC0-1.0","borderPrecision":"1300年の歴史図版から転写した概略境界","sourceYear":1300,"sourceSha256":"14f75abb3038fff4dbed32c5eb1897e241d161e8f9b0f0c7f6b21cce99c2162c","changes":"PD原スキャンの境界を自前トレースし、経緯線でWGS84へ較正。微小島は判読できたもののみ収録。"}},"geometry":{"type":"LineString","coordinates":[[14.50455,38.60216],[14.53734,38.59265],[14.55312,38.5663],[14.52003,38.56287],[14.50455,38.60216]]}},{"type":"Feature","properties":{"NAME":"Sicily","ABBREVN":"Sicily","SUBJECTO":"Sicily","PARTOF":"Sicily","BORDERPRECISION":1,"ATTRIBUTION":{"source":"Gustav Droysen, Allgemeiner historischer Handatlas (1886), plate 67: Italien um das Jahr 1300; Polona / Wikimedia Commons","sourceUrl":"https://upload.wikimedia.org/wikipedia/commons/9/91/Professor_G._Droysens_Allgemeiner_historischer_Handatlas_1886_%28134038019%29.jpg","license":"CC0-1.0","borderPrecision":"1300年の歴史図版から転写した概略境界","sourceYear":1300,"sourceSha256":"14f75abb3038fff4dbed32c5eb1897e241d161e8f9b0f0c7f6b21cce99c2162c","changes":"PD原スキャンの境界を自前トレースし、経緯線でWGS84へ較正。微小島は判読できたもののみ収録。"}},"geometry":{"type":"LineString","coordinates":[[15.15645,38.79831],[15.17234,38.78043],[15.16582,38.75468],[15.14392,38.75979],[15.15645,38.79831]]}},{"type":"Feature","properties":{"NAME":"Sicily","ABBREVN":"Sicily","SUBJECTO":"Sicily","PARTOF":"Sicily","BORDERPRECISION":1,"ATTRIBUTION":{"source":"Gustav Droysen, Allgemeiner historischer Handatlas (1886), plate 67: Italien um das Jahr 1300; Polona / Wikimedia Commons","sourceUrl":"https://upload.wikimedia.org/wikipedia/commons/9/91/Professor_G._Droysens_Allgemeiner_historischer_Handatlas_1886_%28134038019%29.jpg","license":"CC0-1.0","borderPrecision":"1300年の歴史図版から転写した概略境界","sourceYear":1300,"sourceSha256":"14f75abb3038fff4dbed32c5eb1897e241d161e8f9b0f0c7f6b21cce99c2162c","changes":"PD原スキャンの境界を自前トレースし、経緯線でWGS84へ較正。微小島は判読できたもののみ収録。"}},"geometry":{"type":"LineString","coordinates":[[14.34878,35.98234],[14.39097,35.9855],[14.41142,35.94654],[14.48467,35.91893],[14.54166,35.86612],[14.58333,35.84359],[14.53515,35.79381],[14.46185,35.80867],[14.38371,35.85343],[14.35788,35.88399],[14.37414,35.91767],[14.34816,35.93969],[14.34878,35.98234]]}},{"type":"Feature","properties":{"NAME":"Sicily","ABBREVN":"Sicily","SUBJECTO":"Sicily","PARTOF":"Sicily","BORDERPRECISION":1,"ATTRIBUTION":{"source":"Gustav Droysen, Allgemeiner historischer Handatlas (1886), plate 67: Italien um das Jahr 1300; Polona / Wikimedia Commons","sourceUrl":"https://upload.wikimedia.org/wikipedia/commons/9/91/Professor_G._Droysens_Allgemeiner_historischer_Handatlas_1886_%28134038019%29.jpg","license":"CC0-1.0","borderPrecision":"1300年の歴史図版から転写した概略境界","sourceYear":1300,"sourceSha256":"14f75abb3038fff4dbed32c5eb1897e241d161e8f9b0f0c7f6b21cce99c2162c","changes":"PD原スキャンの境界を自前トレースし、経緯線でWGS84へ較正。微小島は判読できたもののみ収録。"}},"geometry":{"type":"LineString","coordinates":[[14.20237,36.0671],[14.23922,36.06193],[14.27588,36.04395],[14.34979,36.05061],[14.33341,36.01261],[14.27536,36.00556],[14.20189,36.02869],[14.20237,36.0671]]}},{"type":"Feature","properties":{"NAME":"Sicily","ABBREVN":"Sicily","SUBJECTO":"Sicily","PARTOF":"Sicily","BORDERPRECISION":1,"ATTRIBUTION":{"source":"Gustav Droysen, Allgemeiner historischer Handatlas (1886), plate 67: Italien um das Jahr 1300; Polona / Wikimedia Commons","sourceUrl":"https://upload.wikimedia.org/wikipedia/commons/9/91/Professor_G._Droysens_Allgemeiner_historischer_Handatlas_1886_%28134038019%29.jpg","license":"CC0-1.0","borderPrecision":"1300年の歴史図版から転写した概略境界","sourceYear":1300,"sourceSha256":"14f75abb3038fff4dbed32c5eb1897e241d161e8f9b0f0c7f6b21cce99c2162c","changes":"PD原スキャンの境界を自前トレースし、経緯線でWGS84へ較正。微小島は判読できたもののみ収録。"}},"geometry":{"type":"LineString","coordinates":[[12.32131,37.9206],[12.36991,37.93364],[12.40804,37.91651],[12.3975,37.8907],[12.32706,37.89483],[12.32131,37.9206]]}},{"type":"Feature","properties":{"NAME":"Sicily","ABBREVN":"Sicily","SUBJECTO":"Sicily","PARTOF":"Sicily","BORDERPRECISION":1,"ATTRIBUTION":{"source":"Gustav Droysen, Allgemeiner historischer Handatlas (1886), plate 67: Italien um das Jahr 1300; Polona / Wikimedia Commons","sourceUrl":"https://upload.wikimedia.org/wikipedia/commons/9/91/Professor_G._Droysens_Allgemeiner_historischer_Handatlas_1886_%28134038019%29.jpg","license":"CC0-1.0","borderPrecision":"1300年の歴史図版から転写した概略境界","sourceYear":1300,"sourceSha256":"14f75abb3038fff4dbed32c5eb1897e241d161e8f9b0f0c7f6b21cce99c2162c","changes":"PD原スキャンの境界を自前トレースし、経緯線でWGS84へ較正。微小島は判読できたもののみ収録。"}},"geometry":{"type":"LineString","coordinates":[[12.07118,37.97961],[12.0982,37.98409],[12.13156,37.93268],[12.08267,37.94099],[12.07118,37.97961]]}}],"metadata":{"source":"Gustav Droysen, Allgemeiner historischer Handatlas (1886), plate 67: Italien um das Jahr 1300; Polona / Wikimedia Commons","sourceUrl":"https://upload.wikimedia.org/wikipedia/commons/9/91/Professor_G._Droysens_Allgemeiner_historischer_Handatlas_1886_%28134038019%29.jpg","license":"CC0-1.0","borderPrecision":"1300年の歴史図版から転写した概略境界","sourceYear":1300,"sourceSha256":"14f75abb3038fff4dbed32c5eb1897e241d161e8f9b0f0c7f6b21cce99c2162c","changes":"PD原スキャンの境界を自前トレースし、経緯線でWGS84へ較正。微小島は判読できたもののみ収録。"}}