{"type":"FeatureCollection","features":[{"type":"Feature","properties":{"NAME":"Counts of Saint-Pol","ADMIN_LEVEL":4,"OHM_RELATION_ID":2893763,"START_DATE":"1031","END_DATE":"1787"},"geometry":{"type":"MultiPolygon","coordinates":[[[[2.026,50.516],[2.021,50.495],[1.989,50.456],[1.991,50.431],[1.968,50.42],[1.969,50.403],[2.061,50.389],[2.083,50.398],[2.107,50.391],[2.173,50.409],[2.19,50.405],[2.193,50.391],[2.177,50.367],[2.176,50.34],[2.186,50.32],[2.176,50.29],[2.203,50.274],[2.207,50.242],[2.337,50.243],[2.395,50.225],[2.438,50.232],[2.477,50.222],[2.466,50.264],[2.468,50.309],[2.42,50.339],[2.394,50.365],[2.391,50.405],[2.353,50.443],[2.335,50.476],[2.238,50.485],[2.181,50.474],[2.157,50.492],[2.105,50.489],[2.026,50.516]]]]}},{"type":"Feature","properties":{"NAME":"County of Alençon","ADMIN_LEVEL":4,"OHM_RELATION_ID":2893052,"START_DATE":"1055","END_DATE":"1414"},"geometry":{"type":"MultiPolygon","coordinates":[[[[0.108,48.777],[0.066,48.776],[-0.025,48.798],[-0.146,48.866],[-0.35,48.85],[-0.377,48.842],[-0.42,48.799],[-0.35,48.731],[-0.309,48.722],[-0.25,48.657],[-0.265,48.566],[-0.207,48.564],[-0.195,48.543],[-0.143,48.523],[-0.141,48.473],[-0.078,48.417],[-0.057,48.379],[0.011,48.4],[0.06,48.4],[0.117,48.439],[0.16,48.439],[0.226,48.474],[0.328,48.472],[0.374,48.498],[0.417,48.543],[0.409,48.581],[0.497,48.624],[0.358,48.728],[0.286,48.728],[0.211,48.741],[0.108,48.777]]]]}},{"type":"Feature","properties":{"NAME":"County of Angoulême","ADMIN_LEVEL":4,"OHM_RELATION_ID":2893945,"START_DATE":"0839","END_DATE":"1515-01-01"},"geometry":{"type":"MultiPolygon","coordinates":[[[[0.931,45.647],[0.967,45.727],[0.937,45.804],[0.802,45.772],[0.614,45.817],[0.586,45.874],[0.523,45.875],[0.468,45.912],[0.432,45.885],[0.387,45.894],[0.358,45.932],[0.282,45.995],[0.293,46.005],[0.389,45.992],[0.396,46.021],[0.37,46.049],[0.35,46.089],[0.314,46.079],[0.225,46.088],[0.179,46.121],[0.078,46.104],[0.037,45.992],[0.099,45.981],[0.15,45.945],[0.146,45.897],[0.074,45.878],[0.066,45.857],[0.03,45.839],[-0.078,45.859],[-0.129,45.879],[-0.19,45.846],[-0.173,45.801],[-0.257,45.778],[-0.284,45.813],[-0.303,45.804],[-0.299,45.778],[-0.39,45.768],[-0.427,45.781],[-0.445,45.755],[-0.4,45.643],[-0.272,45.565],[-0.195,45.532],[-0.104,45.518],[-0.036,45.482],[-0.003,45.437],[0.032,45.416],[0.005,45.33],[-0.043,45.284],[0.007,45.246],[0.019,45.221],[0.168,45.221],[0.264,45.263],[0.295,45.258],[0.35,45.283],[0.379,45.386],[0.358,45.414],[0.411,45.476],[0.511,45.555],[0.552,45.673],[0.593,45.695],[0.643,45.706],[0.718,45.709],[0.791,45.698],[0.816,45.675],[0.824,45.639],[0.84,45.619],[0.931,45.647]]]]}},{"type":"Feature","properties":{"NAME":"County of Anjou","ADMIN_LEVEL":4,"OHM_RELATION_ID":2892571,"START_DATE":"0861","END_DATE":"1360"},"geometry":{"type":"Polygon","coordinates":[[[-1.259,47.755],[-1.221,47.722],[-1.161,47.621],[-1.101,47.645],[-1.013,47.589],[-1.179,47.568],[-1.182,47.5],[-1.166,47.475],[-1.002,47.498],[-0.947,47.386],[-1.071,47.385],[-1.112,47.37],[-1.169,47.364],[-1.208,47.313],[-1.198,47.274],[-1.211,47.174],[-1.254,47.145],[-1.249,47.098],[-1.168,47.077],[-1.149,47.023],[-1.052,47],[-1.013,47.022],[-0.926,47.009],[-0.884,46.979],[-0.637,46.992],[-0.575,47.011],[-0.562,47.06],[-0.471,47.086],[-0.461,47.055],[-0.312,47.092],[-0.243,47.123],[-0.183,47.119],[-0.179,47.08],[-0.119,47.065],[-0.059,47.079],[-0.027,47.135],[0.018,47.169],[0.037,47.221],[0.081,47.217],[0.317,47.258],[0.365,47.287],[0.313,47.333],[0.353,47.382],[0.415,47.4],[0.428,47.462],[0.387,47.483],[0.406,47.554],[0.357,47.589],[0.449,47.651],[0.345,47.728],[0.215,47.756],[0.146,47.736],[0.087,47.761],[0.052,47.756],[-0.001,47.789],[-0.05,47.791],[-0.094,47.824],[-0.135,47.84],[-0.19,47.838],[-0.214,47.871],[-0.286,47.862],[-0.38,47.8],[-0.414,47.814],[-0.447,47.877],[-0.525,47.924],[-0.594,47.921],[-0.693,47.97],[-0.74,47.98],[-0.837,47.954],[-0.913,47.966],[-0.947,47.995],[-1.057,47.983],[-1.067,47.979],[-1.137,47.974],[-1.185,47.906],[-1.201,47.868],[-1.237,47.843],[-1.259,47.755]]]}},{"type":"Feature","properties":{"NAME":"County of Bar","ADMIN_LEVEL":4,"OHM_RELATION_ID":2815090,"START_DATE":"1033","END_DATE":"1354","SUBJECTO":"Holy Roman Empire","PARTOF":"Holy Roman Empire"},"geometry":{"type":"MultiPolygon","coordinates":[[[[4.927781712473573,48.91424101479915],[4.944,48.857],[5.011,48.853],[5.051,48.84],[5.109,48.749],[5.107,48.682],[5.159,48.635],[5.236,48.617],[5.256,48.585],[5.255368381096982,48.51267963560448],[5.317,48.51],[5.355,48.553],[5.353,48.574],[5.334,48.582],[5.31,48.605],[5.329,48.622],[5.401,48.623],[5.428,48.636],[5.476,48.612],[5.455,48.588],[5.408,48.56],[5.402,48.548],[5.439,48.534],[5.443,48.482],[5.39,48.445],[5.383,48.429],[5.412,48.399],[5.473,48.44],[5.519,48.425],[5.517,48.444],[5.484,48.46],[5.491,48.47],[5.511,48.476],[5.509,48.488],[5.577,48.492],[5.588,48.483],[5.57,48.472],[5.602,48.459],[5.648,48.474],[5.668,48.515],[5.639,48.542],[5.65,48.554],[5.629,48.564],[5.612,48.546],[5.574,48.557],[5.569,48.576],[5.553,48.579],[5.567,48.605],[5.552,48.649],[5.576,48.67],[5.583,48.687],[5.628,48.693],[5.668,48.711],[5.674,48.721],[5.725,48.733],[5.754,48.727],[5.785,48.734],[5.782,48.74],[5.792,48.748],[5.806,48.748],[5.803,48.757],[5.83,48.765],[5.847,48.757],[5.85,48.776],[5.82,48.774],[5.828,48.787],[5.817,48.797],[5.819,48.807],[5.83,48.813],[5.834,48.801],[5.85,48.811],[5.886,48.788],[5.887,48.781],[5.865,48.775],[5.88,48.752],[5.911,48.758],[5.904,48.768],[5.913,48.77],[5.951,48.753],[5.98,48.781],[5.998,48.771],[6.017,48.774],[6.017,48.799],[6.008,48.805],[6.027,48.811],[6.029,48.848],[6.082,48.875],[6.065,48.874],[6.062,48.884],[6.085,48.892],[6.122,48.881],[6.144,48.889],[6.125,48.905],[6.166,48.913],[6.161,48.929],[6.132,48.935],[6.124,48.95],[6.121,48.944],[6.081,48.945],[6.081,48.963],[6.065,48.981],[6.064,48.999],[6.087,49.027],[6.088,49.04],[6.074,49.057],[6.06,49.05],[6.03,49.053],[6.02,49.075],[6.005,49.084],[6.006,49.077],[5.981,49.078],[5.979,49.07],[5.944,49.072],[5.935,49.088],[5.99,49.092],[6.01,49.105],[6.006,49.114],[5.968,49.109],[5.991,49.136],[5.984,49.142],[5.997,49.149],[5.989,49.155],[6.012,49.155],[6.037,49.174],[6.068,49.179],[6.064,49.16],[6.086,49.148],[6.125,49.148],[6.131,49.152],[6.12,49.162],[6.144,49.165],[6.144,49.182],[6.122,49.184],[6.122,49.198],[6.07,49.199],[6.068,49.214],[6.119,49.22],[6.131,49.213],[6.139,49.222],[6.136,49.24],[6.117,49.236],[6.097,49.245],[6.108,49.258],[6.096,49.287],[6.1,49.312],[6.046,49.31],[6.047,49.316],[6.035,49.317],[6.034,49.329],[6.047,49.337],[6.032,49.345],[5.987,49.34],[5.962,49.347],[5.956,49.362],[5.983,49.377],[6.012,49.369],[6.022,49.394],[6.01,49.403],[6.013,49.418],[6.037,49.424],[6.042,49.448],[6.001,49.457],[5.982,49.451],[5.988,49.461],[5.974,49.467],[5.969,49.486],[5.974,49.489],[5.941,49.501],[5.864,49.501],[5.834,49.525],[5.872,49.549],[5.85,49.575],[5.825,49.573],[5.786,49.593],[5.754,49.593],[5.743,49.578],[5.758,49.561],[5.749,49.54],[5.704,49.539],[5.661,49.553],[5.622,49.534],[5.611,49.506],[5.594,49.521],[5.558,49.529],[5.525,49.511],[5.486,49.508],[5.467,49.492],[5.445,49.501],[5.428,49.488],[5.46,49.485],[5.469,49.481],[5.464,49.471],[5.494,49.473],[5.516,49.462],[5.511,49.454],[5.476,49.442],[5.505,49.406],[5.568,49.42],[5.555,49.397],[5.641,49.368],[5.637,49.348],[5.655,49.333],[5.648,49.312],[5.619,49.302],[5.622,49.284],[5.644,49.262],[5.635,49.239],[5.598,49.216],[5.598,49.193],[5.627,49.181],[5.652,49.192],[5.68,49.189],[5.68,49.179],[5.658,49.17],[5.707,49.158],[5.704,49.141],[5.669,49.137],[5.646,49.122],[5.58,49.131],[5.58,49.111],[5.605,49.104],[5.662,49.108],[5.7,49.091],[5.725,49.094],[5.74,49.086],[5.74,49.076],[5.67,49.057],[5.652,49.041],[5.608,49.036],[5.604,49.027],[5.587,49.026],[5.571,49.037],[5.531,49.038],[5.512,49.028],[5.438,49.031],[5.423,49.021],[5.431,49.007],[5.464,48.986],[5.449,48.963],[5.466,48.931],[5.443,48.927],[5.422,48.938],[5.392,48.936],[5.334,48.97],[5.335,48.983],[5.354,48.986],[5.359,48.997],[5.311,49.028],[5.35,49.068],[5.376,49.05],[5.404,49.051],[5.416,49.064],[5.392,49.081],[5.4,49.094],[5.376,49.102],[5.369,49.114],[5.348,49.115],[5.321,49.106],[5.301,49.08],[5.313,49.059],[5.282,49.056],[5.254,49.083],[5.217,49.081],[5.24,49.04],[5.223,49.022],[5.225,48.981],[5.145,48.944],[5.076,48.956],[4.951,48.928],[4.927781712473573,48.91424101479915]],[[5.707,49.421],[5.739,49.438],[5.77,49.434],[5.799,49.448],[5.818,49.443],[5.838,49.45],[5.855,49.44],[5.833,49.412],[5.802,49.398],[5.732,49.398],[5.707,49.421]],[[5.869,49.375],[5.897,49.383],[5.919,49.373],[5.889,49.344],[5.89,49.354],[5.869,49.375]]],[[[5.4,49.226],[5.416,49.216],[5.486,49.223],[5.516,49.235],[5.497,49.243],[5.475,49.235],[5.406,49.238],[5.4,49.226]]],[[[5.436,49.078],[5.444,49.056],[5.464,49.055],[5.495,49.082],[5.519,49.092],[5.523,49.108],[5.503,49.114],[5.501,49.126],[5.554,49.14],[5.545,49.167],[5.562,49.179],[5.556,49.188],[5.464,49.162],[5.453,49.147],[5.473,49.126],[5.469,49.111],[5.45,49.104],[5.436,49.078]]],[[[5.461,48.178],[5.464243243243243,48.16437837837838],[5.477,48.158],[5.490548872180451,48.13428947368421],[5.551,48.129],[5.622,48.092],[5.627,48.061],[5.6336115702479335,48.06113223140496],[5.642,48.062],[5.647,48.071],[5.677722021660649,48.06231768953069],[5.727,48.084],[5.79,48.082],[5.799,48.047],[5.7908333333333335,48.037],[5.827,48.037],[5.788,47.981],[5.788,47.96],[5.805,47.954],[5.841,47.958],[5.844,47.98],[5.856,47.981],[5.867,47.955],[5.887,47.949],[5.877,47.903],[5.815,47.904],[5.815,47.879],[5.862,47.861],[5.871,47.87],[5.895,47.873],[5.942,47.869],[5.952,47.882],[5.984,47.895],[5.973,47.907],[5.93,47.912],[5.901,47.927],[5.917,47.944],[5.921,47.973],[5.909,48.006],[5.915,48.016],[5.944,48.023],[5.93,48.053],[5.94,48.057],[5.939,48.073],[5.98,48.071],[5.974,48.096],[5.934,48.094],[5.922,48.12],[5.89,48.123],[5.882,48.117],[5.854,48.126],[5.863,48.153],[5.901,48.164],[5.905,48.181],[5.896,48.189],[5.875,48.188],[5.853,48.2],[5.873,48.217],[5.885,48.205],[5.901,48.208],[5.906,48.222],[5.896,48.238],[5.842,48.241],[5.833,48.252],[5.843,48.262],[5.82,48.265],[5.801,48.255],[5.741,48.265],[5.724,48.258],[5.746,48.229],[5.742,48.216],[5.768,48.21],[5.773,48.197],[5.756,48.183],[5.717,48.202],[5.705,48.235],[5.678,48.241],[5.676,48.228],[5.664,48.224],[5.648,48.234],[5.647,48.256],[5.685,48.29],[5.694,48.329],[5.614,48.33],[5.634,48.373],[5.599,48.388],[5.572,48.385],[5.533,48.365],[5.532,48.34],[5.517,48.32],[5.523,48.293],[5.548,48.276],[5.538,48.244],[5.492,48.219],[5.501,48.199],[5.484,48.187],[5.464,48.188],[5.46271052631579,48.184315789473686],[5.461,48.178]]],[[[5.745,48.66],[5.76,48.632],[5.759,48.62],[5.846,48.646],[5.811,48.653],[5.817,48.678],[5.811,48.699],[5.808,48.712],[5.786,48.714],[5.755,48.697],[5.745,48.66]]],[[[5.817,48.698],[5.855,48.688],[5.867,48.692],[5.863,48.699],[5.872,48.706],[5.857,48.7],[5.837,48.71],[5.817,48.698]]]]}},{"type":"Feature","properties":{"NAME":"County of La Marche","ADMIN_LEVEL":4,"OHM_RELATION_ID":2892568,"START_DATE":"0958","END_DATE":"1527"},"geometry":{"type":"MultiPolygon","coordinates":[[[[2.486,45.742],[2.479,45.777],[2.428,45.773],[2.398,45.832],[2.429,45.858],[2.471,45.857],[2.572,45.975],[2.615,45.978],[2.674,46.004],[2.723,46.05],[2.791,46.083],[2.818,46.116],[2.831,46.151],[2.786,46.194],[2.754,46.182],[2.689,46.174],[2.652,46.122],[2.564,46.142],[2.508,46.229],[2.538,46.241],[2.49,46.294],[2.402,46.318],[2.354,46.305],[2.302,46.311],[2.232,46.269],[2.144,46.301],[1.984,46.45],[1.758,46.476],[1.717,46.452],[1.524,46.467],[1.48,46.515],[1.41,46.557],[1.29,46.535],[1.193,46.551],[1.13,46.527],[1.167,46.409],[1.11,46.378],[1.074,46.391],[1.005,46.357],[1.02,46.298],[0.943,46.262],[0.91,46.277],[0.814,46.209],[0.75,46.226],[0.658,46.189],[0.674,46.109],[0.661,46.013],[0.641,45.986],[0.633,45.899],[0.687,45.878],[0.748,45.883],[0.823,45.862],[0.902,45.875],[0.884,45.915],[0.959,45.941],[1.031,45.912],[1.012,45.876],[1.053,45.878],[1.101,45.848],[1.132,45.863],[1.158,45.923],[1.28,45.967],[1.432,45.947],[1.494,45.921],[1.553,45.948],[1.604,45.926],[1.674,45.952],[1.664,45.908],[1.619,45.855],[1.645,45.842],[1.789,45.874],[1.756,45.823],[1.886,45.797],[1.885,45.754],[1.866,45.724],[1.908,45.711],[1.946,45.729],[1.994,45.715],[2.008,45.761],[2.092,45.764],[2.168,45.756],[2.19,45.703],[2.28,45.66],[2.374,45.699],[2.442,45.707],[2.486,45.742]]]]}},{"type":"Feature","properties":{"NAME":"County of Maine","ADMIN_LEVEL":4,"OHM_RELATION_ID":2892570,"START_DATE":"0832","END_DATE":"1537"},"geometry":{"type":"MultiPolygon","coordinates":[[[[-1.038,47.99],[-0.947,47.995],[-0.913,47.966],[-0.837,47.954],[-0.74,47.98],[-0.693,47.97],[-0.594,47.921],[-0.525,47.924],[-0.447,47.877],[-0.414,47.814],[-0.38,47.8],[-0.286,47.862],[-0.214,47.871],[-0.19,47.838],[-0.135,47.84],[-0.094,47.824],[-0.05,47.791],[-0.001,47.789],[0.052,47.756],[0.087,47.761],[0.146,47.736],[0.215,47.756],[0.345,47.728],[0.449,47.651],[0.564,47.656],[0.611,47.683],[0.596,47.711],[0.656,47.809],[0.776,47.826],[0.714,47.938],[0.75,47.944],[0.801,47.909],[0.832,47.924],[0.841,48.025],[0.787,48.033],[0.788,48.1],[0.842,48.109],[0.852,48.13],[0.79,48.173],[0.733,48.19],[0.707,48.227],[0.63,48.258],[0.604,48.237],[0.577,48.238],[0.5,48.269],[0.486,48.3],[0.397,48.32],[0.328,48.472],[0.226,48.474],[0.16,48.439],[0.117,48.439],[0.06,48.4],[0.011,48.4],[-0.057,48.379],[-0.078,48.417],[-0.141,48.473],[-0.143,48.523],[-0.195,48.543],[-0.207,48.564],[-0.265,48.566],[-0.268,48.528],[-0.282,48.498],[-0.324,48.487],[-0.47,48.498],[-0.591,48.459],[-0.683,48.47],[-0.765,48.446],[-0.85,48.49],[-0.876,48.518],[-0.931,48.532],[-1.068,48.509],[-1.058,48.475],[-1.089,48.419],[-1.07,48.378],[-1.066,48.333],[-1.108,48.274],[-1.07,48.097],[-1.028,48.028],[-1.038,47.99]]]]}},{"type":"Feature","properties":{"NAME":"County of Nantes","ADMIN_LEVEL":4,"OHM_RELATION_ID":2893051,"START_DATE":"0938","END_DATE":"1203"},"geometry":{"type":"MultiPolygon","coordinates":[[[[-1.257,47.78],[-1.373,47.803],[-1.475,47.833],[-1.537,47.818],[-1.659,47.874],[-1.769,47.91],[-1.817,47.82],[-1.85,47.781],[-1.855,47.719],[-1.913,47.668],[-2.002,47.688],[-2.082,47.637],[-2.107,47.588],[-2.079,47.513],[-2.097,47.492],[-2.142,47.468],[-2.2,47.497],[-2.241,47.483],[-2.26,47.437],[-2.34,47.401],[-2.368,47.342],[-2.388,47.21],[-2.363,47.199],[-2.299,47.2],[-2.245,47.209],[-2.227,47.219],[-2.212,47.194],[-2.252,47.187],[-2.296,47.151],[-2.299,47.123],[-2.283,47.107],[-2.093,47.069],[-2.048,47.04],[-1.976,47.027],[-1.892,46.96],[-1.83,46.954],[-1.803,46.923],[-1.747,46.917],[-1.732,46.887],[-1.664,46.884],[-1.646,46.919],[-1.61,46.917],[-1.585,46.878],[-1.498,46.885],[-1.557,46.952],[-1.568,47.014],[-1.483,47.04],[-1.462,46.995],[-1.473,46.98],[-1.455,46.927],[-1.366,46.96],[-1.37,47.042],[-1.303,47.036],[-1.249,47.098],[-1.254,47.145],[-1.211,47.174],[-1.198,47.274],[-1.208,47.313],[-1.169,47.364],[-1.112,47.37],[-1.071,47.385],[-0.947,47.386],[-1.002,47.498],[-1.166,47.475],[-1.182,47.5],[-1.179,47.568],[-1.013,47.589],[-1.101,47.645],[-1.161,47.621],[-1.221,47.722],[-1.259,47.755],[-1.257,47.78]]]]}},{"type":"Feature","properties":{"NAME":"County of Perche","ADMIN_LEVEL":4,"OHM_RELATION_ID":2893053,"START_DATE":"1090","END_DATE":"1226-02"},"geometry":{"type":"MultiPolygon","coordinates":[[[[0.971,47.953],[0.977,47.998],[1.051,48.034],[1.06,48.083],[1.145,48.177],[1.277,48.188],[1.332,48.222],[1.335,48.245],[1.274,48.315],[1.277,48.359],[1.255,48.388],[1.219,48.406],[1.202,48.457],[1.096,48.483],[1.056,48.513],[1.023,48.523],[0.954,48.587],[0.943,48.645],[0.911,48.676],[0.905,48.714],[0.839,48.703],[0.809,48.662],[0.706,48.635],[0.617,48.585],[0.56,48.619],[0.497,48.624],[0.409,48.581],[0.417,48.543],[0.374,48.498],[0.328,48.472],[0.397,48.32],[0.486,48.3],[0.5,48.269],[0.577,48.238],[0.604,48.237],[0.63,48.258],[0.707,48.227],[0.733,48.19],[0.79,48.173],[0.852,48.13],[0.842,48.109],[0.788,48.1],[0.787,48.033],[0.841,48.025],[0.835,47.938],[0.864,47.936],[0.971,47.953]]]]}},{"type":"Feature","properties":{"NAME":"County of Poitou","ADMIN_LEVEL":4,"OHM_RELATION_ID":2892575,"START_DATE":"0934","END_DATE":"1422"},"geometry":{"type":"MultiPolygon","coordinates":[[[[-1.249,47.098],[-1.303,47.036],[-1.37,47.042],[-1.366,46.96],[-1.455,46.927],[-1.473,46.98],[-1.462,46.995],[-1.483,47.04],[-1.568,47.014],[-1.557,46.952],[-1.498,46.885],[-1.585,46.878],[-1.61,46.917],[-1.646,46.919],[-1.664,46.884],[-1.732,46.887],[-1.747,46.917],[-1.803,46.923],[-1.83,46.954],[-1.892,46.96],[-1.976,47.027],[-2.054,47.039],[-2.083,47.012],[-2.096,46.975],[-2.113,46.966],[-2.168,46.993],[-2.17,47.019],[-2.181,47.034],[-2.234,47.06],[-2.313,47.06],[-2.345,47.079],[-2.373,47.082],[-2.399,47.075],[-2.418,47.049],[-2.403,47.021],[-2.36,47.005],[-2.368,46.985],[-2.352,46.962],[-2.312,46.949],[-2.284,46.929],[-2.229,46.925],[-2.198,46.864],[-2.187,46.803],[-2.059,46.727],[-2.032,46.707],[-2.009,46.674],[-1.969,46.658],[-1.938,46.62],[-1.901,46.59],[-1.853,46.473],[-1.822,46.457],[-1.797,46.455],[-1.67,46.39],[-1.539,46.372],[-1.516,46.33],[-1.488,46.312],[-1.372,46.308],[-1.322,46.262],[-1.238,46.24],[-1.085,46.3],[-1.005,46.321],[-0.96,46.313],[-0.775,46.329],[-0.735,46.318],[-0.684,46.331],[-0.636,46.317],[-0.548,46.337],[-0.516,46.233],[-0.547,46.183],[-0.537,46.154],[-0.489,46.142],[-0.468,46.101],[-0.492,46.072],[-0.477,46.051],[-0.417,46.062],[-0.361,45.991],[-0.269,46.047],[-0.119,45.955],[-0.129,45.879],[-0.078,45.859],[0.03,45.839],[0.066,45.857],[0.074,45.878],[0.146,45.897],[0.15,45.945],[0.099,45.981],[0.037,45.992],[0.078,46.104],[0.179,46.121],[0.225,46.088],[0.314,46.079],[0.35,46.089],[0.37,46.049],[0.396,46.021],[0.389,45.992],[0.293,46.005],[0.282,45.995],[0.358,45.932],[0.387,45.894],[0.432,45.885],[0.468,45.912],[0.523,45.875],[0.586,45.874],[0.614,45.817],[0.802,45.772],[0.937,45.804],[0.986,45.835],[1.012,45.876],[1.031,45.912],[0.959,45.941],[0.884,45.915],[0.902,45.875],[0.823,45.862],[0.748,45.883],[0.687,45.878],[0.633,45.899],[0.641,45.986],[0.661,46.013],[0.674,46.109],[0.658,46.189],[0.75,46.226],[0.814,46.209],[0.91,46.277],[0.943,46.262],[1.02,46.298],[1.005,46.357],[1.074,46.391],[1.11,46.378],[1.167,46.409],[1.13,46.527],[1.031,46.541],[1.024,46.583],[0.937,46.595],[0.889,46.621],[0.897,46.691],[0.792,46.755],[0.795,46.862],[0.713,46.866],[0.687,46.961],[0.597,47.006],[0.555,47.013],[0.559,46.962],[0.505,46.964],[0.405,46.937],[0.331,46.954],[0.316,46.999],[0.31,47.05],[0.18,47.087],[0.018,47.169],[-0.027,47.135],[-0.059,47.079],[-0.119,47.065],[-0.179,47.08],[-0.183,47.119],[-0.243,47.123],[-0.312,47.092],[-0.461,47.055],[-0.471,47.086],[-0.562,47.06],[-0.575,47.011],[-0.637,46.992],[-0.884,46.979],[-0.926,47.009],[-1.013,47.022],[-1.052,47],[-1.149,47.023],[-1.168,47.077],[-1.249,47.098]]]]}},{"type":"Feature","properties":{"NAME":"County of Ponthieu","ADMIN_LEVEL":5,"OHM_RELATION_ID":2840627,"START_DATE":"0926","END_DATE":"1696-05-04"},"geometry":{"type":"Polygon","coordinates":[[[1.314,50.101],[1.37,50.065],[1.439,50.052],[1.493,50.027],[1.549,49.98],[1.602,49.97],[1.614,49.961],[1.631,49.958],[1.723,49.868],[1.733,49.849],[1.734,49.839],[1.769,49.832],[1.785,49.818],[1.849,49.812],[1.86,49.872],[1.842,49.89],[1.813,49.893],[1.804,49.911],[1.731,49.92],[1.722,49.94],[1.732,49.958],[1.777,49.976],[1.766,49.985],[1.729,49.991],[1.721,50.048],[1.747,50.056],[1.719,50.105],[1.772,50.099],[1.804,50.072],[1.846,49.992],[1.872,49.996],[1.884,50.062],[1.937,50.057],[1.925,50.039],[1.926,49.991],[1.914,49.974],[1.855,49.961],[1.856,49.928],[1.873,49.918],[1.922,49.927],[1.95,49.946],[1.985,49.943],[2.014,49.924],[2.034,49.926],[2.025,49.99],[2.083,50.019],[2.088,50.051],[2.103,50.068],[2.129,50.067],[2.142,50.051],[2.143,49.999],[2.118,49.963],[2.12,49.913],[2.144,49.884],[2.18,49.883],[2.183,49.921],[2.164,49.96],[2.167,49.99],[2.22,50.034],[2.19,50.063],[2.153,50.144],[2.085,50.127],[2.065,50.156],[2.031,50.161],[2.015,50.145],[1.987,50.139],[1.994,50.18],[1.951,50.174],[1.934,50.183],[1.932,50.204],[1.986,50.211],[2.011,50.228],[2.06,50.223],[2.085,50.255],[1.975,50.291],[1.98,50.322],[1.949,50.334],[1.899,50.302],[1.814,50.327],[1.796,50.351],[1.816,50.366],[1.799,50.387],[1.726,50.393],[1.726,50.411],[1.68,50.437],[1.643,50.434],[1.642,50.394],[1.607,50.388],[1.607,50.367],[1.477,50.38],[1.463,50.281],[1.47,50.246],[1.422,50.207],[1.383,50.139],[1.314,50.101]]]}},{"type":"Feature","properties":{"NAME":"County of Tours","ADMIN_LEVEL":4,"OHM_RELATION_ID":2892569,"START_DATE":"0500","END_DATE":"1204"},"geometry":{"type":"MultiPolygon","coordinates":[[[[0.449,47.651],[0.357,47.589],[0.406,47.554],[0.387,47.483],[0.428,47.462],[0.415,47.4],[0.353,47.382],[0.313,47.333],[0.365,47.287],[0.317,47.258],[0.081,47.217],[0.037,47.221],[0.018,47.169],[0.18,47.087],[0.31,47.05],[0.316,46.999],[0.331,46.954],[0.405,46.937],[0.505,46.964],[0.559,46.962],[0.555,47.013],[0.597,47.006],[0.687,46.961],[0.713,46.866],[0.795,46.862],[0.792,46.755],[0.897,46.691],[1.001,46.691],[1.084,46.723],[1.166,46.709],[1.333,46.742],[1.373,46.812],[1.408,46.83],[1.428,46.884],[1.346,46.943],[1.23,46.951],[1.173,46.969],[1.115,47.047],[1.073,47.067],[1.074,47.101],[1.23,47.078],[1.284,47.086],[1.358,47.059],[1.39,47.111],[1.346,47.145],[1.37,47.196],[1.282,47.257],[1.212,47.284],[1.117,47.299],[1.098,47.34],[1.095,47.416],[1.039,47.492],[1.069,47.536],[1.046,47.589],[1.017,47.596],[0.968,47.642],[0.879,47.647],[0.836,47.689],[0.784,47.681],[0.732,47.689],[0.611,47.683],[0.564,47.656],[0.449,47.651]]]]}},{"type":"Feature","properties":{"NAME":"County of Vendôme","ADMIN_LEVEL":4,"OHM_RELATION_ID":2893054,"START_DATE":"0930","END_DATE":"1514"},"geometry":{"type":"Polygon","coordinates":[[[0.596,47.711],[0.611,47.683],[0.732,47.689],[0.784,47.681],[0.836,47.689],[0.879,47.647],[0.968,47.642],[1.004,47.664],[1.026,47.688],[1.082,47.686],[1.137,47.662],[1.174,47.684],[1.218,47.713],[1.244,47.761],[1.248,47.827],[1.2,47.823],[1.162,47.868],[1.074,47.915],[1.101,47.938],[1.062,47.968],[0.971,47.953],[0.864,47.936],[0.835,47.938],[0.832,47.924],[0.801,47.909],[0.75,47.944],[0.714,47.938],[0.776,47.826],[0.656,47.809],[0.596,47.711]]]}},{"type":"Feature","properties":{"NAME":"Duchy of Brittany","ADMIN_LEVEL":3,"OHM_RELATION_ID":2805398,"START_DATE":"0939-08-01","END_DATE":"1547-08-12"},"geometry":{"type":"MultiPolygon","coordinates":[[[[-5.218,48.467],[-5.217,48.437],[-5.185,48.406],[-5.124,48.386],[-5.063,48.401],[-4.923,48.336],[-4.924,48.306],[-4.894,48.287],[-4.85,48.291],[-4.822,48.319],[-4.795,48.3],[-4.766,48.295],[-4.708,48.297],[-4.666,48.314],[-4.652,48.309],[-4.686,48.29],[-4.691,48.269],[-4.662,48.225],[-4.615,48.217],[-4.602,48.2],[-4.609,48.178],[-4.603,48.156],[-4.569,48.137],[-4.534,48.136],[-4.507,48.145],[-4.462,48.194],[-4.421,48.19],[-4.382,48.174],[-4.35,48.173],[-4.332,48.137],[-4.372,48.143],[-4.424,48.139],[-4.735,48.094],[-4.758,48.08],[-4.789,48.044],[-4.82,48.066],[-4.871,48.077],[-4.898,48.07],[-4.921,48.043],[-4.904,48.016],[-4.864,48],[-4.817,48],[-4.795,48.013],[-4.788,48.027],[-4.75,48.004],[-4.718,47.996],[-4.629,47.985],[-4.579,47.968],[-4.524,47.972],[-4.48,47.951],[-4.434,47.913],[-4.405,47.865],[-4.401,47.853],[-4.422,47.839],[-4.437,47.815],[-4.431,47.795],[-4.403,47.769],[-4.271,47.757],[-4.204,47.76],[-4.145,47.778],[-4.12,47.8],[-4.109,47.829],[-4.035,47.812],[-3.95,47.826],[-3.909,47.792],[-3.895,47.77],[-3.848,47.758],[-3.82,47.739],[-3.777,47.741],[-3.737,47.761],[-3.698,47.744],[-3.558,47.73],[-3.51,47.686],[-3.549,47.674],[-3.562,47.655],[-3.562,47.638],[-3.544,47.618],[-3.48,47.589],[-3.422,47.584],[-3.395,47.591],[-3.369,47.621],[-3.375,47.652],[-3.313,47.656],[-3.248,47.619],[-3.24,47.588],[-3.208,47.575],[-3.216,47.562],[-3.21,47.521],[-3.182,47.461],[-3.149,47.442],[-3.071,47.431],[-3.073,47.404],[-3.021,47.364],[-3.022,47.351],[-3.008,47.333],[-2.968,47.322],[-2.938,47.33],[-2.927,47.313],[-2.893,47.297],[-2.808,47.296],[-2.787,47.313],[-2.787,47.339],[-2.845,47.38],[-2.894,47.38],[-2.891,47.403],[-2.907,47.42],[-3.021,47.451],[-3.021,47.479],[-3.069,47.511],[-3.079,47.53],[-3.043,47.537],[-2.951,47.521],[-2.931,47.507],[-2.905,47.501],[-2.884,47.474],[-2.819,47.453],[-2.786,47.451],[-2.724,47.469],[-2.703,47.458],[-2.673,47.456],[-2.578,47.482],[-2.551,47.477],[-2.542,47.429],[-2.564,47.414],[-2.591,47.441],[-2.623,47.448],[-2.662,47.435],[-2.674,47.415],[-2.66,47.386],[-2.609,47.377],[-2.592,47.349],[-2.559,47.331],[-2.593,47.307],[-2.596,47.286],[-2.587,47.272],[-2.363,47.199],[-2.388,47.21],[-2.368,47.342],[-2.34,47.401],[-2.26,47.437],[-2.241,47.483],[-2.2,47.497],[-2.142,47.468],[-2.097,47.492],[-2.079,47.513],[-2.107,47.588],[-2.082,47.637],[-2.002,47.688],[-1.913,47.668],[-1.855,47.719],[-1.85,47.781],[-1.817,47.82],[-1.769,47.91],[-1.659,47.874],[-1.537,47.818],[-1.475,47.833],[-1.373,47.803],[-1.257,47.78],[-1.259,47.755],[-1.237,47.843],[-1.201,47.868],[-1.185,47.906],[-1.137,47.974],[-1.067,47.979],[-1.038,47.99],[-1.028,48.028],[-1.07,48.097],[-1.108,48.274],[-1.066,48.333],[-1.07,48.378],[-1.089,48.419],[-1.058,48.475],[-1.077,48.528],[-1.164,48.527],[-1.193,48.545],[-1.257,48.542],[-1.265,48.508],[-1.293,48.48],[-1.386,48.462],[-1.487,48.467],[-1.533,48.551],[-1.544,48.605],[-1.572,48.626],[-1.581,48.677],[-1.743,48.655],[-1.796,48.661],[-1.806,48.668],[-1.772,48.679],[-1.753,48.695],[-1.746,48.729],[-1.773,48.757],[-1.824,48.773],[-1.862,48.771],[-1.91,48.751],[-1.955,48.754],[-2.031,48.744],[-2.122,48.718],[-2.156,48.693],[-2.193,48.687],[-2.274,48.73],[-2.327,48.742],[-2.369,48.733],[-2.403,48.71],[-2.418,48.708],[-2.451,48.724],[-2.489,48.728],[-2.524,48.719],[-2.548,48.702],[-2.66,48.699],[-2.705,48.68],[-2.756,48.712],[-2.801,48.72],[-2.817,48.741],[-2.851,48.757],[-2.871,48.809],[-2.898,48.831],[-2.895,48.871],[-2.918,48.904],[-2.955,48.92],[-2.996,48.921],[-3.052,48.953],[-3.095,48.961],[-3.144,48.949],[-3.168,48.924],[-3.222,48.925],[-3.349,48.899],[-3.367,48.934],[-3.42,48.952],[-3.518,48.941],[-3.563,48.915],[-3.592,48.928],[-3.632,48.933],[-3.694,48.921],[-3.726,48.899],[-3.735,48.863],[-3.717,48.835],[-3.683,48.82],[-3.696,48.793],[-3.682,48.751],[-3.823,48.77],[-3.885,48.757],[-3.958,48.796],[-4.038,48.809],[-4.099,48.79],[-4.115,48.774],[-4.12,48.755],[-4.136,48.748],[-4.231,48.734],[-4.265,48.719],[-4.358,48.734],[-4.425,48.71],[-4.462,48.708],[-4.489,48.698],[-4.531,48.709],[-4.577,48.704],[-4.705,48.631],[-4.781,48.603],[-4.837,48.561],[-4.855,48.524],[-4.85,48.475],[-4.874,48.438],[-4.96,48.478],[-5.002,48.516],[-5.063,48.535],[-5.109,48.534],[-5.15,48.523],[-5.202,48.49],[-5.218,48.467]]],[[[-4.094,47.768],[-4.074,47.745],[-4.085,47.723],[-4.071,47.695],[-4.052,47.678],[-3.998,47.667],[-3.957,47.673],[-3.917,47.69],[-3.901,47.717],[-3.908,47.738],[-3.937,47.755],[-3.977,47.76],[-3.974,47.788],[-4.007,47.809],[-4.051,47.808],[-4.089,47.788],[-4.094,47.768]]],[[[-3.312,47.347],[-3.298,47.322],[-3.296,47.298],[-3.26,47.27],[-3.094,47.245],[-3.036,47.266],[-3.007,47.306],[-3.011,47.322],[-3.034,47.342],[-3.095,47.355],[-3.127,47.39],[-3.248,47.423],[-3.293,47.409],[-3.309,47.382],[-3.312,47.347]]],[[[-2.278,47.106],[-2.27,47.101],[-2.235,47.092],[-2.093,47.069],[-2.278,47.106]]]]}},{"type":"Feature","properties":{"NAME":"Duchy of Burgundy","ADMIN_LEVEL":3,"OHM_RELATION_ID":2893764,"START_DATE":"0918","END_DATE":"1361-11-21"},"geometry":{"type":"Polygon","coordinates":[[[2.398,47.766],[2.461,47.734],[2.457,47.717],[2.522,47.655],[2.597,47.685],[2.699,47.66],[2.759,47.602],[2.841,47.564],[2.93,47.448],[2.881,47.328],[2.982,47.265],[2.999,47.204],[3.03,47.135],[3.037,47.088],[3.07,46.99],[3.047,46.954],[3.065,46.859],[3.032,46.767],[3.052,46.739],[3.19,46.68],[3.265,46.731],[3.398,46.717],[3.426,46.691],[3.531,46.696],[3.626,46.761],[3.66,46.668],[3.696,46.643],[3.591,46.602],[3.568,46.556],[3.587,46.47],[3.737,46.438],[3.764,46.376],[3.847,46.362],[3.86,46.305],[3.926,46.293],[3.925,46.259],[3.962,46.235],[3.957,46.184],[3.984,46.182],[4.014,46.232],[4.055,46.249],[4.086,46.251],[4.16,46.236],[4.247,46.241],[4.269,46.218],[4.384,46.218],[4.36,46.271],[4.414,46.333],[4.458,46.346],[4.445,46.402],[4.378,46.42],[4.386,46.448],[4.474,46.474],[4.503,46.554],[4.558,46.576],[4.595,46.534],[4.654,46.583],[4.713,46.577],[4.76,46.54],[4.84,46.579],[4.904,46.573],[4.937,46.509],[4.979,46.506],[5.027,46.562],[5.028,46.591],[5.054,46.615],[5.122,46.631],[5.133,46.67],[5.094,46.713],[5.072,46.714],[5.07,46.846],[5.015,46.856],[4.995,46.881],[4.962,46.872],[4.95,46.882],[4.964,46.894],[5.021,46.897],[5.05,46.932],[5.083,46.944],[5.091,46.966],[5.128,47.001],[5.118,47.072],[5.161,47.091],[5.194,47.157],[5.264,47.202],[5.303,47.21],[5.358,47.207],[5.372,47.218],[5.416,47.215],[5.42,47.228],[5.398,47.236],[5.394,47.26],[5.416,47.284],[5.419,47.31],[5.444,47.331],[5.434,47.353],[5.429,47.356],[5.431,47.358],[5.428,47.366],[5.399,47.386],[5.397,47.474],[5.392,47.478],[5.391,47.511],[5.396,47.513],[5.396,47.527],[5.411,47.601],[5.389,47.599],[5.389,47.609],[5.374,47.614],[5.386,47.655],[5.422,47.676],[5.538,47.679],[5.612,47.692],[5.605,47.691],[5.622,47.715],[5.662,47.731],[5.665,47.733],[5.671,47.786],[5.512,47.778],[5.494,47.796],[5.457,47.795],[5.388,47.759],[5.225,47.718],[5.187,47.69],[5.142,47.704],[5.113,47.777],[5.072,47.81],[5.059,47.84],[5.061,47.878],[5.027,47.913],[5.004,47.991],[4.979,48.02],[4.967,48.061],[4.9,48.076],[4.857,48.047],[4.716,48.074],[4.719,48.022],[4.682,47.999],[4.613,47.994],[4.608,47.93],[4.551,47.915],[4.578,47.875],[4.474,47.877],[4.426,47.938],[4.433,47.975],[4.411,48.004],[4.246,47.989],[4.212,47.967],[4.112,47.934],[4.121,47.878],[4.095,47.873],[4.045,47.931],[3.934,47.937],[3.92,47.881],[3.88,47.862],[3.883,47.787],[3.852,47.775],[3.727,47.789],[3.738,47.853],[3.685,47.883],[3.626,47.874],[3.553,47.923],[3.339,47.865],[3.277,47.797],[3.214,47.762],[3.12,47.775],[3.06,47.731],[2.937,47.723],[2.887,47.752],[2.752,47.788],[2.697,47.761],[2.502,47.811],[2.398,47.766]]]}},{"type":"Feature","properties":{"NAME":"Duchy of Normandy","ADMIN_LEVEL":3,"OHM_RELATION_ID":2869900,"START_DATE":"0933","END_DATE":"1195"},"geometry":{"type":"MultiPolygon","coordinates":[[[[-2.752,49.429],[-2.743,49.406],[-2.706,49.382],[-2.655,49.374],[-2.597,49.367],[-2.518,49.37],[-2.481,49.384],[-2.46,49.402],[-2.442,49.378],[-2.411,49.36],[-2.348,49.353],[-2.306,49.372],[-2.267,49.41],[-2.261,49.434],[-2.282,49.474],[-2.336,49.497],[-2.338,49.527],[-2.366,49.55],[-2.407,49.56],[-2.466,49.549],[-2.509,49.559],[-2.553,49.557],[-2.651,49.518],[-2.717,49.504],[-2.748,49.478],[-2.752,49.429]]],[[[-2.461,49.711],[-2.44,49.686],[-2.409,49.673],[-2.354,49.673],[-2.308,49.691],[-2.293,49.673],[-2.266,49.658],[-2.189,49.65],[-2.112,49.683],[-2.085,49.71],[-2.081,49.728],[-2.089,49.751],[-2.137,49.778],[-2.252,49.787],[-2.305,49.781],[-2.336,49.767],[-2.403,49.77],[-2.449,49.748],[-2.461,49.73],[-2.461,49.711]]],[[[-2.328,49.26],[-2.328,49.237],[-2.312,49.21],[-2.326,49.18],[-2.318,49.157],[-2.267,49.13],[-2.178,49.116],[-2.109,49.118],[-2.064,49.099],[-2.021,49.101],[-1.989,49.115],[-1.954,49.152],[-1.939,49.195],[-1.943,49.234],[-1.88,49.244],[-1.851,49.262],[-1.838,49.285],[-1.84,49.304],[-1.853,49.321],[-1.904,49.341],[-2.052,49.351],[-2.094,49.331],[-2.114,49.297],[-2.133,49.327],[-2.17,49.344],[-2.221,49.348],[-2.266,49.332],[-2.288,49.302],[-2.316,49.282],[-2.328,49.26]]],[[[-2.252,48.958],[-2.239,48.933],[-2.199,48.913],[-2.123,48.908],[-2.051,48.909],[-2.011,48.922],[-1.982,48.952],[-1.979,48.97],[-1.986,48.991],[-2.014,49.014],[-2.105,49.049],[-2.185,49.053],[-2.238,49.03],[-2.25,49.011],[-2.252,48.958]]],[[[-2.024,49.716],[-2.018,49.662],[-1.981,49.632],[-1.927,49.614],[-1.923,49.589],[-1.957,49.563],[-1.967,49.527],[-1.952,49.499],[-1.925,49.479],[-1.919,49.454],[-1.902,49.428],[-1.889,49.364],[-1.86,49.339],[-1.812,49.323],[-1.78,49.296],[-1.732,49.242],[-1.717,49.206],[-1.677,49.166],[-1.674,49.132],[-1.69,49.092],[-1.684,49.045],[-1.665,48.997],[-1.639,48.965],[-1.639,48.938],[-1.654,48.883],[-1.682,48.854],[-1.687,48.83],[-1.674,48.804],[-1.647,48.786],[-1.652,48.757],[-1.645,48.726],[-1.581,48.677],[-1.572,48.626],[-1.544,48.605],[-1.533,48.551],[-1.487,48.467],[-1.386,48.462],[-1.293,48.48],[-1.265,48.508],[-1.257,48.542],[-1.193,48.545],[-1.164,48.527],[-1.077,48.528],[-1.068,48.509],[-0.931,48.532],[-0.876,48.518],[-0.85,48.49],[-0.765,48.446],[-0.683,48.47],[-0.591,48.459],[-0.47,48.498],[-0.324,48.487],[-0.282,48.498],[-0.268,48.528],[-0.265,48.566],[-0.25,48.657],[-0.309,48.722],[-0.35,48.731],[-0.42,48.799],[-0.377,48.842],[-0.35,48.85],[-0.146,48.866],[-0.025,48.798],[0.066,48.776],[0.108,48.777],[0.211,48.741],[0.286,48.728],[0.358,48.728],[0.497,48.624],[0.56,48.619],[0.617,48.585],[0.706,48.635],[0.809,48.662],[0.839,48.703],[0.905,48.714],[1.037,48.712],[1.097,48.73],[1.156,48.731],[1.216,48.75],[1.256,48.741],[1.362,48.787],[1.365,48.84],[1.42,48.85],[1.442,48.904],[1.416,48.945],[1.487,48.969],[1.515,48.956],[1.524,48.916],[1.607,48.856],[1.63,48.829],[1.623,48.78],[1.669,48.718],[1.733,48.698],[1.767,48.731],[1.875,48.746],[1.899,48.779],[1.848,48.848],[1.77,48.865],[1.756,48.9],[1.813,48.977],[1.645,49.011],[1.656,49.06],[1.633,49.077],[1.544,49.072],[1.501,49.104],[1.663,49.123],[1.739,49.27],[1.814,49.285],[1.802,49.317],[1.829,49.335],[1.78,49.436],[1.799,49.497],[1.774,49.559],[1.734,49.612],[1.744,49.728],[1.794,49.749],[1.734,49.821],[1.733,49.849],[1.723,49.868],[1.631,49.958],[1.557,49.969],[1.447,50.042],[1.283,50.087],[1.166,50.021],[1.024,49.969],[0.941,49.966],[0.895,49.949],[0.744,49.921],[0.677,49.919],[0.536,49.894],[0.415,49.842],[0.32,49.811],[0.291,49.791],[0.15,49.75],[0.108,49.724],[0.089,49.702],[0.047,49.611],[-0.005,49.538],[-0.01,49.508],[-0.004,49.494],[0.026,49.457],[0.059,49.433],[-0.046,49.371],[-0.126,49.348],[-0.196,49.341],[-0.262,49.348],[-0.339,49.376],[-0.391,49.386],[-0.554,49.398],[-0.613,49.39],[-0.66,49.401],[-0.847,49.416],[-0.887,49.435],[-0.933,49.446],[-1.097,49.44],[-1.113,49.451],[-1.083,49.468],[-1.067,49.49],[-1.067,49.51],[-1.084,49.531],[-1.114,49.546],[-1.144,49.549],[-1.208,49.53],[-1.222,49.546],[-1.177,49.571],[-1.16,49.594],[-1.155,49.625],[-1.169,49.666],[-1.199,49.715],[-1.248,49.743],[-1.437,49.755],[-1.517,49.737],[-1.552,49.708],[-1.634,49.712],[-1.759,49.734],[-1.838,49.769],[-1.874,49.767],[-1.93,49.778],[-1.974,49.772],[-2.005,49.755],[-2.019,49.738],[-2.024,49.716]]],[[[-1.926,48.878],[-1.903,48.851],[-1.859,48.838],[-1.768,48.837],[-1.727,48.846],[-1.708,48.859],[-1.704,48.886],[-1.722,48.903],[-1.751,48.909],[-1.756,48.921],[-1.784,48.939],[-1.877,48.937],[-1.922,48.908],[-1.926,48.878]]]]}}],"metadata":{"generatedBy":"scripts/build-fief-flat.ts","input":"data/france_fiefs_1100.geojson","year":1100,"cutPolicy":"containment-aware","containmentCoverageThreshold":0.9,"minOverlapAreaM2":1000,"sliverAreaLimitM2":1000000000,"resolutions":[{"kind":"sliver","cutName":"County of Anjou","keptName":"Duchy of Brittany","overlapKm2":0.85,"coverageOfSmaller":0.0001},{"kind":"sliver","cutName":"County of Ponthieu","keptName":"Duchy of Normandy","overlapKm2":17.42,"coverageOfSmaller":0.0084},{"kind":"sliver","cutName":"County of Vendôme","keptName":"County of Perche","overlapKm2":0.16,"coverageOfSmaller":0.0001},{"kind":"containment","cutName":"Duchy of Brittany","keptName":"County of Nantes","overlapKm2":7062.19,"coverageOfSmaller":0.9998},{"kind":"containment","cutName":"Duchy of Normandy","keptName":"County of Alençon","overlapKm2":1944.53,"coverageOfSmaller":1},{"kind":"sliver","cutName":"Duchy of Normandy","keptName":"Duchy of Brittany","overlapKm2":0.9,"coverageOfSmaller":0}],"boundaryAlignment":{"issue":513,"inputs":["data/hre_realm_1100.geojson"],"scope":"フランス東境の都市を含む重複成分と、同境界に接する指定領邦。フランドルは対象外。","uncertainty":"同年代の表示整合のために採用したOHM境界。推測・描写年未確定図版に由来する区間を含み、史料で確定した境界ではない。"},"source":"OpenHistoricalMap","sourceUrl":"https://www.openhistoricalmap.org/","license":"CC0-1.0","borderPrecision":"史料に基づく復元（概略。測量された境界ではない）"}}