{"type":"FeatureCollection","features":[{"type":"Feature","properties":{"NAME":"Counts of Saint-Pol","ADMIN_LEVEL":4,"OHM_RELATION_ID":2893763,"START_DATE":"1031","END_DATE":"1787"},"geometry":{"type":"MultiPolygon","coordinates":[[[[2.026,50.516],[2.021,50.495],[1.989,50.456],[1.991,50.431],[1.968,50.42],[1.969,50.403],[2.061,50.389],[2.083,50.398],[2.107,50.391],[2.173,50.409],[2.19,50.405],[2.193,50.391],[2.177,50.367],[2.176,50.34],[2.186,50.32],[2.176,50.29],[2.203,50.274],[2.207,50.242],[2.337,50.243],[2.395,50.225],[2.438,50.232],[2.477,50.222],[2.466,50.264],[2.468,50.309],[2.42,50.339],[2.394,50.365],[2.391,50.405],[2.353,50.443],[2.335,50.476],[2.238,50.485],[2.181,50.474],[2.157,50.492],[2.105,50.489],[2.026,50.516]]]]}},{"type":"Feature","properties":{"NAME":"County of Alençon","ADMIN_LEVEL":4,"OHM_RELATION_ID":2893052,"START_DATE":"1055","END_DATE":"1414"},"geometry":{"type":"MultiPolygon","coordinates":[[[[0.108,48.777],[0.066,48.776],[-0.025,48.798],[-0.146,48.866],[-0.35,48.85],[-0.377,48.842],[-0.42,48.799],[-0.35,48.731],[-0.309,48.722],[-0.25,48.657],[-0.265,48.566],[-0.207,48.564],[-0.195,48.543],[-0.143,48.523],[-0.141,48.473],[-0.078,48.417],[-0.057,48.379],[0.011,48.4],[0.06,48.4],[0.117,48.439],[0.16,48.439],[0.226,48.474],[0.328,48.472],[0.374,48.498],[0.417,48.543],[0.409,48.581],[0.497,48.624],[0.358,48.728],[0.286,48.728],[0.211,48.741],[0.108,48.777]]]]}},{"type":"Feature","properties":{"NAME":"County of Angoulême","ADMIN_LEVEL":4,"OHM_RELATION_ID":2893945,"START_DATE":"0839","END_DATE":"1515-01-01"},"geometry":{"type":"MultiPolygon","coordinates":[[[[0.931,45.647],[0.967,45.727],[0.937,45.804],[0.802,45.772],[0.614,45.817],[0.586,45.874],[0.523,45.875],[0.468,45.912],[0.432,45.885],[0.387,45.894],[0.358,45.932],[0.282,45.995],[0.293,46.005],[0.389,45.992],[0.396,46.021],[0.37,46.049],[0.35,46.089],[0.314,46.079],[0.225,46.088],[0.179,46.121],[0.078,46.104],[0.037,45.992],[0.099,45.981],[0.15,45.945],[0.146,45.897],[0.074,45.878],[0.066,45.857],[0.03,45.839],[-0.078,45.859],[-0.129,45.879],[-0.19,45.846],[-0.173,45.801],[-0.257,45.778],[-0.284,45.813],[-0.303,45.804],[-0.299,45.778],[-0.39,45.768],[-0.427,45.781],[-0.445,45.755],[-0.4,45.643],[-0.272,45.565],[-0.195,45.532],[-0.104,45.518],[-0.036,45.482],[-0.003,45.437],[0.032,45.416],[0.005,45.33],[-0.043,45.284],[0.007,45.246],[0.019,45.221],[0.168,45.221],[0.264,45.263],[0.295,45.258],[0.35,45.283],[0.379,45.386],[0.358,45.414],[0.411,45.476],[0.511,45.555],[0.552,45.673],[0.593,45.695],[0.643,45.706],[0.718,45.709],[0.791,45.698],[0.816,45.675],[0.824,45.639],[0.84,45.619],[0.931,45.647]]]]}},{"type":"Feature","properties":{"NAME":"County of Anjou","ADMIN_LEVEL":4,"OHM_RELATION_ID":2892571,"START_DATE":"0861","END_DATE":"1360"},"geometry":{"type":"Polygon","coordinates":[[[-1.259,47.755],[-1.221,47.722],[-1.161,47.621],[-1.101,47.645],[-1.013,47.589],[-1.179,47.568],[-1.182,47.5],[-1.166,47.475],[-1.002,47.498],[-0.947,47.386],[-1.071,47.385],[-1.112,47.37],[-1.169,47.364],[-1.208,47.313],[-1.198,47.274],[-1.211,47.174],[-1.254,47.145],[-1.249,47.098],[-1.168,47.077],[-1.149,47.023],[-1.052,47],[-1.013,47.022],[-0.926,47.009],[-0.884,46.979],[-0.637,46.992],[-0.575,47.011],[-0.562,47.06],[-0.471,47.086],[-0.461,47.055],[-0.312,47.092],[-0.243,47.123],[-0.183,47.119],[-0.179,47.08],[-0.119,47.065],[-0.059,47.079],[-0.027,47.135],[0.018,47.169],[0.037,47.221],[0.081,47.217],[0.317,47.258],[0.365,47.287],[0.313,47.333],[0.353,47.382],[0.415,47.4],[0.428,47.462],[0.387,47.483],[0.406,47.554],[0.357,47.589],[0.449,47.651],[0.345,47.728],[0.215,47.756],[0.146,47.736],[0.087,47.761],[0.052,47.756],[-0.001,47.789],[-0.05,47.791],[-0.094,47.824],[-0.135,47.84],[-0.19,47.838],[-0.214,47.871],[-0.286,47.862],[-0.38,47.8],[-0.414,47.814],[-0.447,47.877],[-0.525,47.924],[-0.594,47.921],[-0.693,47.97],[-0.74,47.98],[-0.837,47.954],[-0.913,47.966],[-0.947,47.995],[-1.057,47.983],[-1.067,47.979],[-1.137,47.974],[-1.185,47.906],[-1.201,47.868],[-1.237,47.843],[-1.259,47.755]]]}},{"type":"Feature","properties":{"NAME":"County of Bar","ADMIN_LEVEL":4,"OHM_RELATION_ID":2815090,"START_DATE":"1033","END_DATE":"1354","SUBJECTO":"Holy Roman Empire","PARTOF":"Holy Roman Empire"},"geometry":{"type":"MultiPolygon","coordinates":[[[[4.954477144324602,48.8773677452491],[4.966,48.8],[5.032,48.758],[5.03288808973936,48.59370339821841],[5.0535932350390285,48.5899158716392],[5.089,48.619],[5.131,48.619],[5.166,48.601],[5.227,48.6],[5.229047930283224,48.580032679738565],[5.383,48.685],[5.411,48.692],[5.402579525327665,48.64530464045342],[5.438,48.685],[5.463,48.693],[5.486,48.686],[5.491,48.664],[5.443177570093458,48.628411214953275],[5.476,48.612],[5.455,48.588],[5.408,48.56],[5.402,48.548],[5.439,48.534],[5.443,48.482],[5.427012587412587,48.47087832167832],[5.429006756756757,48.45160135135135],[5.471,48.46],[5.491,48.469],[5.491,48.47],[5.493,48.47],[5.500269230769231,48.47363461538462],[5.501,48.493],[5.532,48.506],[5.549153098420413,48.497874848116645],[5.562376146788991,48.504339449541284],[5.575841059602649,48.513026490066224],[5.575125,48.52215625],[5.554,48.538],[5.572930588798468,48.55013499281953],[5.572,48.562],[5.569,48.576],[5.553,48.579],[5.5555416036308625,48.58372012102875],[5.546,48.583],[5.558,48.614],[5.562268691588785,48.6188785046729],[5.552,48.649],[5.576,48.67],[5.583,48.687],[5.628,48.693],[5.668,48.711],[5.674,48.721],[5.725,48.733],[5.754,48.727],[5.785,48.734],[5.782,48.74],[5.792,48.748],[5.806,48.748],[5.803,48.757],[5.83,48.765],[5.847,48.757],[5.85,48.776],[5.82,48.774],[5.828,48.787],[5.817,48.797],[5.819,48.807],[5.83,48.813],[5.834,48.801],[5.85,48.811],[5.886,48.788],[5.887,48.781],[5.865,48.775],[5.88,48.752],[5.911,48.758],[5.904,48.768],[5.913,48.77],[5.951,48.753],[5.98,48.781],[5.998,48.771],[6.017,48.774],[6.017,48.799],[6.008,48.805],[6.027,48.811],[6.029,48.848],[6.082,48.875],[6.065,48.874],[6.062,48.884],[6.085,48.892],[6.122,48.881],[6.144,48.889],[6.125,48.905],[6.166,48.913],[6.161,48.929],[6.132,48.935],[6.124,48.95],[6.121,48.944],[6.081,48.945],[6.081,48.963],[6.065,48.981],[6.064,48.999],[6.087,49.027],[6.088,49.04],[6.074,49.057],[6.06,49.05],[6.03,49.053],[6.02,49.075],[6.005,49.084],[6.006,49.077],[5.981,49.078],[5.979,49.07],[5.944,49.072],[5.935,49.088],[5.99,49.092],[6.01,49.105],[6.006,49.114],[5.968,49.109],[5.991,49.136],[5.984,49.142],[5.997,49.149],[5.989,49.155],[6.012,49.155],[6.037,49.174],[6.068,49.179],[6.064,49.16],[6.086,49.148],[6.125,49.148],[6.131,49.152],[6.12,49.162],[6.144,49.165],[6.144,49.182],[6.122,49.184],[6.122,49.198],[6.07,49.199],[6.068,49.214],[6.119,49.22],[6.131,49.213],[6.139,49.222],[6.136,49.24],[6.117,49.236],[6.097,49.245],[6.108,49.258],[6.096,49.287],[6.1,49.312],[6.046,49.31],[6.047,49.316],[6.035,49.317],[6.034,49.329],[6.047,49.337],[6.032,49.345],[5.987,49.34],[5.962,49.347],[5.956,49.362],[5.983,49.377],[6.012,49.369],[6.022,49.394],[6.01,49.403],[6.013,49.418],[6.037,49.424],[6.042,49.448],[6.001,49.457],[5.982,49.451],[5.988,49.461],[5.974,49.467],[5.969,49.486],[5.974,49.489],[5.941,49.501],[5.864,49.501],[5.834,49.525],[5.872,49.549],[5.85,49.575],[5.825,49.573],[5.786,49.593],[5.754,49.593],[5.743,49.578],[5.758,49.561],[5.749,49.54],[5.704,49.539],[5.661,49.553],[5.622,49.534],[5.611,49.506],[5.594,49.521],[5.558,49.529],[5.525,49.511],[5.486,49.508],[5.467,49.492],[5.445,49.501],[5.428,49.488],[5.46,49.485],[5.469,49.481],[5.464,49.471],[5.494,49.473],[5.516,49.462],[5.511,49.454],[5.476,49.442],[5.505,49.406],[5.568,49.42],[5.555,49.397],[5.641,49.368],[5.637,49.348],[5.655,49.333],[5.648,49.312],[5.619,49.302],[5.622,49.284],[5.644,49.262],[5.635,49.239],[5.598,49.216],[5.598,49.193],[5.627,49.181],[5.652,49.192],[5.68,49.189],[5.68,49.179],[5.658,49.17],[5.707,49.158],[5.704,49.141],[5.669,49.137],[5.646,49.122],[5.58,49.131],[5.58,49.111],[5.605,49.104],[5.662,49.108],[5.7,49.091],[5.725,49.094],[5.74,49.086],[5.74,49.076],[5.67,49.057],[5.652,49.041],[5.608,49.036],[5.604,49.027],[5.587,49.026],[5.571,49.037],[5.531,49.038],[5.512,49.028],[5.438,49.031],[5.423,49.021],[5.431,49.007],[5.464,48.986],[5.449,48.963],[5.466,48.931],[5.443,48.927],[5.422,48.938],[5.392,48.936],[5.334,48.97],[5.335,48.983],[5.354,48.986],[5.359,48.997],[5.311,49.028],[5.35,49.068],[5.376,49.05],[5.404,49.051],[5.416,49.064],[5.392,49.081],[5.4,49.094],[5.376,49.102],[5.369,49.114],[5.348,49.115],[5.321,49.106],[5.301,49.08],[5.313,49.059],[5.282,49.056],[5.254,49.083],[5.217,49.081],[5.24,49.04],[5.223,49.022],[5.225,48.981],[5.145,48.944],[5.102076923076923,48.95161538461539],[5.081758620689655,48.94755172413793],[5.076,48.913],[4.977,48.891],[4.954477144324602,48.8773677452491]],[[5.707,49.421],[5.739,49.438],[5.77,49.434],[5.799,49.448],[5.818,49.443],[5.838,49.45],[5.855,49.44],[5.833,49.412],[5.802,49.398],[5.732,49.398],[5.707,49.421]],[[5.869,49.375],[5.897,49.383],[5.919,49.373],[5.889,49.344],[5.89,49.354],[5.869,49.375]]],[[[5.4,49.226],[5.416,49.216],[5.486,49.223],[5.516,49.235],[5.497,49.243],[5.475,49.235],[5.406,49.238],[5.4,49.226]]],[[[5.436,49.078],[5.444,49.056],[5.464,49.055],[5.495,49.082],[5.519,49.092],[5.523,49.108],[5.503,49.114],[5.501,49.126],[5.554,49.14],[5.545,49.167],[5.562,49.179],[5.556,49.188],[5.464,49.162],[5.453,49.147],[5.473,49.126],[5.469,49.111],[5.45,49.104],[5.436,49.078]]],[[[5.492,48.219],[5.501,48.199],[5.493,48.193],[5.515,48.182],[5.554,48.131],[5.546,48.12],[5.556246260069045,48.107558112773305],[5.642,48.102],[5.694,48.069],[5.700695652173913,48.058],[5.729,48.058],[5.749,48.037],[5.827,48.037],[5.788,47.981],[5.788,47.96],[5.805,47.954],[5.841,47.958],[5.844,47.98],[5.856,47.981],[5.867,47.955],[5.887,47.949],[5.877,47.903],[5.815,47.904],[5.815,47.879],[5.862,47.861],[5.871,47.87],[5.895,47.873],[5.942,47.869],[5.952,47.882],[5.984,47.895],[5.973,47.907],[5.93,47.912],[5.901,47.927],[5.917,47.944],[5.921,47.973],[5.909,48.006],[5.915,48.016],[5.944,48.023],[5.93,48.053],[5.94,48.057],[5.939,48.073],[5.98,48.071],[5.974,48.096],[5.934,48.094],[5.922,48.12],[5.89,48.123],[5.882,48.117],[5.854,48.126],[5.863,48.153],[5.901,48.164],[5.905,48.181],[5.896,48.189],[5.875,48.188],[5.853,48.2],[5.873,48.217],[5.885,48.205],[5.901,48.208],[5.906,48.222],[5.896,48.238],[5.842,48.241],[5.833,48.252],[5.843,48.262],[5.82,48.265],[5.801,48.255],[5.741,48.265],[5.724,48.258],[5.746,48.229],[5.742,48.216],[5.768,48.21],[5.773,48.197],[5.756,48.183],[5.717,48.202],[5.705,48.235],[5.678,48.241],[5.676,48.228],[5.664,48.224],[5.648,48.234],[5.647,48.256],[5.685,48.29],[5.694,48.329],[5.614,48.33],[5.631426806338974,48.36746763362879],[5.61740099009901,48.380113861386135],[5.599,48.388],[5.572,48.385],[5.533,48.365],[5.532,48.34],[5.517,48.32],[5.523,48.293],[5.548,48.276],[5.538,48.244],[5.492,48.219]]],[[[5.757823315118397,48.69854826958105],[5.78,48.695],[5.77852842727049,48.62583608171302],[5.846,48.646],[5.811,48.653],[5.817,48.678],[5.811,48.699],[5.808,48.712],[5.786,48.714],[5.757823315118397,48.69854826958105]]],[[[5.817,48.698],[5.855,48.688],[5.867,48.692],[5.863,48.699],[5.872,48.706],[5.857,48.7],[5.837,48.71],[5.817,48.698]]]]}},{"type":"Feature","properties":{"NAME":"County of Champagne","ADMIN_LEVEL":3,"OHM_RELATION_ID":2930580,"START_DATE":"1102","END_DATE":"1314"},"geometry":{"type":"Polygon","coordinates":[[[2.609,48.786],[2.612,48.762],[2.686,48.739],[2.799,48.733],[2.832,48.686],[2.87,48.601],[2.867,48.571],[2.968,48.57],[3.068,48.529],[3.057,48.482],[3.064,48.442],[3.106,48.416],[3.135,48.374],[3.093,48.354],[2.947,48.343],[2.87,48.317],[2.873,48.274],[2.928,48.255],[2.986,48.25],[3.032,48.292],[3.104,48.307],[3.23,48.255],[3.307,48.294],[3.419,48.29],[3.524,48.281],[3.576,48.228],[3.587,48.123],[3.499,48.079],[3.065,48.043],[3.06,47.991],[3.213,47.877],[3.213,47.8],[3.29,47.796],[3.439,47.855],[3.598,47.892],[3.686,47.885],[3.697,47.785],[3.735,47.778],[3.845,47.844],[3.999,47.874],[4.076,47.907],[4.158,47.962],[4.296,47.969],[4.384,47.966],[4.438,47.925],[4.455,47.888],[4.537,47.914],[4.537,47.969],[4.609,48.043],[4.73,48.028],[4.779,48.006],[4.944,48.043],[5.339,48.006],[5.477,48.021],[5.554,48.131],[5.538,48.109],[5.534,48.109],[5.492,48.119],[5.466,48.166],[5.464,48.207],[5.433,48.222],[5.48,48.283],[5.491,48.332],[5.488,48.373],[5.501,48.378],[5.493,48.394],[5.587,48.412],[5.669,48.456],[5.68,48.478],[5.655,48.48],[5.617,48.495],[5.624,48.51],[5.693,48.516],[5.647,48.587],[5.598,48.623],[5.57,48.602],[5.571,48.585],[5.599,48.587],[5.593,48.563],[5.573,48.55],[5.575,48.522],[5.582,48.517],[5.576,48.513],[5.575,48.52],[5.576,48.511],[5.56,48.503],[5.551,48.497],[5.549,48.498],[5.5,48.474],[5.499,48.44],[5.43,48.442],[5.429,48.452],[5.416,48.449],[5.35,48.452],[5.317,48.427],[5.29,48.471],[5.334,48.518],[5.372,48.58],[5.4,48.631],[5.402,48.644],[5.38,48.62],[5.345,48.594],[5.282,48.591],[5.258,48.561],[5.231,48.561],[5.229,48.58],[5.087,48.583],[5.053,48.59],[5.033,48.573],[5.033,48.593],[5.042,48.592],[4.988,48.602],[4.938,48.768],[4.911,48.776],[4.922,48.83],[4.889,48.837],[4.955,48.877],[4.945,48.941],[5.049,48.941],[5.081,48.947],[5.076,48.913],[5.092,49.014],[5.065,49.061],[4.9,49.1],[4.785,49.151],[4.785,49.233],[4.938,49.237],[4.857,49.235],[4.867,49.245],[4.836,49.266],[4.889,49.288],[5.021,49.293],[5.085,49.275],[5.145,49.281],[5.158,49.266],[5.121,49.309],[5.123,49.343],[5.118,49.343],[5.113,49.385],[5.125,49.388],[5.126,49.413],[5.044,49.413],[5,49.46],[5.066,49.567],[4.995,49.606],[4.981,49.608],[4.991,49.606],[4.986,49.6],[4.959,49.605],[4.955,49.611],[4.901,49.617],[4.874,49.567],[4.846,49.567],[4.736,49.599],[4.698,49.634],[4.687,49.677],[4.808,49.73],[4.84,49.781],[4.8,49.808],[4.798,49.839],[4.846,49.84],[4.583,49.837],[4.429,49.869],[4.121,49.869],[4.061,49.851],[4.07,49.787],[4.068,49.744],[4.033,49.716],[4.048,49.701],[4.095,49.697],[4.057,49.561],[4.032,49.534],[4,49.543],[3.978,49.606],[3.944,49.629],[3.881,49.649],[3.807,49.602],[3.638,49.572],[3.588,49.546],[3.451,49.445],[3.359,49.405],[3.273,49.385],[3.295,49.308],[3.425,49.275],[3.376,49.205],[3.262,49.137],[3.22,49.126],[3.196,49.049],[3.04,49.017],[3.008,48.966],[2.947,49.015],[2.889,49.028],[2.845,49.002],[2.752,49.029],[2.683,48.975],[2.634,48.925],[2.694,48.878],[2.727,48.816],[2.609,48.786]]]}},{"type":"Feature","properties":{"NAME":"County of La Marche","ADMIN_LEVEL":4,"OHM_RELATION_ID":2892568,"START_DATE":"0958","END_DATE":"1527"},"geometry":{"type":"MultiPolygon","coordinates":[[[[2.486,45.742],[2.479,45.777],[2.428,45.773],[2.398,45.832],[2.429,45.858],[2.471,45.857],[2.572,45.975],[2.615,45.978],[2.674,46.004],[2.723,46.05],[2.791,46.083],[2.818,46.116],[2.831,46.151],[2.786,46.194],[2.754,46.182],[2.689,46.174],[2.652,46.122],[2.564,46.142],[2.508,46.229],[2.538,46.241],[2.49,46.294],[2.402,46.318],[2.354,46.305],[2.302,46.311],[2.232,46.269],[2.144,46.301],[1.984,46.45],[1.758,46.476],[1.717,46.452],[1.524,46.467],[1.48,46.515],[1.41,46.557],[1.29,46.535],[1.193,46.551],[1.13,46.527],[1.167,46.409],[1.11,46.378],[1.074,46.391],[1.005,46.357],[1.02,46.298],[0.943,46.262],[0.91,46.277],[0.814,46.209],[0.75,46.226],[0.658,46.189],[0.674,46.109],[0.661,46.013],[0.641,45.986],[0.633,45.899],[0.687,45.878],[0.748,45.883],[0.823,45.862],[0.902,45.875],[0.884,45.915],[0.959,45.941],[1.031,45.912],[1.012,45.876],[1.053,45.878],[1.101,45.848],[1.132,45.863],[1.158,45.923],[1.28,45.967],[1.432,45.947],[1.494,45.921],[1.553,45.948],[1.604,45.926],[1.674,45.952],[1.664,45.908],[1.619,45.855],[1.645,45.842],[1.789,45.874],[1.756,45.823],[1.886,45.797],[1.885,45.754],[1.866,45.724],[1.908,45.711],[1.946,45.729],[1.994,45.715],[2.008,45.761],[2.092,45.764],[2.168,45.756],[2.19,45.703],[2.28,45.66],[2.374,45.699],[2.442,45.707],[2.486,45.742]]]]}},{"type":"Feature","properties":{"NAME":"County of Maine","ADMIN_LEVEL":4,"OHM_RELATION_ID":2892570,"START_DATE":"0832","END_DATE":"1537"},"geometry":{"type":"MultiPolygon","coordinates":[[[[-1.038,47.99],[-0.947,47.995],[-0.913,47.966],[-0.837,47.954],[-0.74,47.98],[-0.693,47.97],[-0.594,47.921],[-0.525,47.924],[-0.447,47.877],[-0.414,47.814],[-0.38,47.8],[-0.286,47.862],[-0.214,47.871],[-0.19,47.838],[-0.135,47.84],[-0.094,47.824],[-0.05,47.791],[-0.001,47.789],[0.052,47.756],[0.087,47.761],[0.146,47.736],[0.215,47.756],[0.345,47.728],[0.449,47.651],[0.564,47.656],[0.611,47.683],[0.596,47.711],[0.656,47.809],[0.776,47.826],[0.714,47.938],[0.75,47.944],[0.801,47.909],[0.832,47.924],[0.841,48.025],[0.787,48.033],[0.788,48.1],[0.842,48.109],[0.852,48.13],[0.79,48.173],[0.733,48.19],[0.707,48.227],[0.63,48.258],[0.604,48.237],[0.577,48.238],[0.5,48.269],[0.486,48.3],[0.397,48.32],[0.328,48.472],[0.226,48.474],[0.16,48.439],[0.117,48.439],[0.06,48.4],[0.011,48.4],[-0.057,48.379],[-0.078,48.417],[-0.141,48.473],[-0.143,48.523],[-0.195,48.543],[-0.207,48.564],[-0.265,48.566],[-0.268,48.528],[-0.282,48.498],[-0.324,48.487],[-0.47,48.498],[-0.591,48.459],[-0.683,48.47],[-0.765,48.446],[-0.85,48.49],[-0.876,48.518],[-0.931,48.532],[-1.068,48.509],[-1.058,48.475],[-1.089,48.419],[-1.07,48.378],[-1.066,48.333],[-1.108,48.274],[-1.07,48.097],[-1.028,48.028],[-1.038,47.99]]]]}},{"type":"Feature","properties":{"NAME":"County of Nantes","ADMIN_LEVEL":4,"OHM_RELATION_ID":2893051,"START_DATE":"0938","END_DATE":"1203"},"geometry":{"type":"MultiPolygon","coordinates":[[[[-1.257,47.78],[-1.373,47.803],[-1.475,47.833],[-1.537,47.818],[-1.659,47.874],[-1.769,47.91],[-1.817,47.82],[-1.85,47.781],[-1.855,47.719],[-1.913,47.668],[-2.002,47.688],[-2.082,47.637],[-2.107,47.588],[-2.079,47.513],[-2.097,47.492],[-2.142,47.468],[-2.2,47.497],[-2.241,47.483],[-2.26,47.437],[-2.34,47.401],[-2.368,47.342],[-2.388,47.21],[-2.363,47.199],[-2.299,47.2],[-2.245,47.209],[-2.227,47.219],[-2.212,47.194],[-2.252,47.187],[-2.296,47.151],[-2.299,47.123],[-2.283,47.107],[-2.093,47.069],[-2.048,47.04],[-1.976,47.027],[-1.892,46.96],[-1.83,46.954],[-1.803,46.923],[-1.747,46.917],[-1.732,46.887],[-1.664,46.884],[-1.646,46.919],[-1.61,46.917],[-1.585,46.878],[-1.498,46.885],[-1.557,46.952],[-1.568,47.014],[-1.483,47.04],[-1.462,46.995],[-1.473,46.98],[-1.455,46.927],[-1.366,46.96],[-1.37,47.042],[-1.303,47.036],[-1.249,47.098],[-1.254,47.145],[-1.211,47.174],[-1.198,47.274],[-1.208,47.313],[-1.169,47.364],[-1.112,47.37],[-1.071,47.385],[-0.947,47.386],[-1.002,47.498],[-1.166,47.475],[-1.182,47.5],[-1.179,47.568],[-1.013,47.589],[-1.101,47.645],[-1.161,47.621],[-1.221,47.722],[-1.259,47.755],[-1.257,47.78]]]]}},{"type":"Feature","properties":{"NAME":"County of Perche","ADMIN_LEVEL":4,"OHM_RELATION_ID":2893053,"START_DATE":"1090","END_DATE":"1226-02"},"geometry":{"type":"MultiPolygon","coordinates":[[[[0.971,47.953],[0.977,47.998],[1.051,48.034],[1.06,48.083],[1.145,48.177],[1.277,48.188],[1.332,48.222],[1.335,48.245],[1.274,48.315],[1.277,48.359],[1.255,48.388],[1.219,48.406],[1.202,48.457],[1.096,48.483],[1.056,48.513],[1.023,48.523],[0.954,48.587],[0.943,48.645],[0.911,48.676],[0.905,48.714],[0.839,48.703],[0.809,48.662],[0.706,48.635],[0.617,48.585],[0.56,48.619],[0.497,48.624],[0.409,48.581],[0.417,48.543],[0.374,48.498],[0.328,48.472],[0.397,48.32],[0.486,48.3],[0.5,48.269],[0.577,48.238],[0.604,48.237],[0.63,48.258],[0.707,48.227],[0.733,48.19],[0.79,48.173],[0.852,48.13],[0.842,48.109],[0.788,48.1],[0.787,48.033],[0.841,48.025],[0.835,47.938],[0.864,47.936],[0.971,47.953]]]]}},{"type":"Feature","properties":{"NAME":"County of Poitou","ADMIN_LEVEL":4,"OHM_RELATION_ID":2892575,"START_DATE":"0934","END_DATE":"1422"},"geometry":{"type":"MultiPolygon","coordinates":[[[[-1.249,47.098],[-1.303,47.036],[-1.37,47.042],[-1.366,46.96],[-1.455,46.927],[-1.473,46.98],[-1.462,46.995],[-1.483,47.04],[-1.568,47.014],[-1.557,46.952],[-1.498,46.885],[-1.585,46.878],[-1.61,46.917],[-1.646,46.919],[-1.664,46.884],[-1.732,46.887],[-1.747,46.917],[-1.803,46.923],[-1.83,46.954],[-1.892,46.96],[-1.976,47.027],[-2.054,47.039],[-2.083,47.012],[-2.096,46.975],[-2.113,46.966],[-2.168,46.993],[-2.17,47.019],[-2.181,47.034],[-2.234,47.06],[-2.313,47.06],[-2.345,47.079],[-2.373,47.082],[-2.399,47.075],[-2.418,47.049],[-2.403,47.021],[-2.36,47.005],[-2.368,46.985],[-2.352,46.962],[-2.312,46.949],[-2.284,46.929],[-2.229,46.925],[-2.198,46.864],[-2.187,46.803],[-2.059,46.727],[-2.032,46.707],[-2.009,46.674],[-1.969,46.658],[-1.938,46.62],[-1.901,46.59],[-1.853,46.473],[-1.822,46.457],[-1.797,46.455],[-1.67,46.39],[-1.539,46.372],[-1.516,46.33],[-1.488,46.312],[-1.372,46.308],[-1.322,46.262],[-1.238,46.24],[-1.085,46.3],[-1.005,46.321],[-0.96,46.313],[-0.775,46.329],[-0.735,46.318],[-0.684,46.331],[-0.636,46.317],[-0.548,46.337],[-0.516,46.233],[-0.547,46.183],[-0.537,46.154],[-0.489,46.142],[-0.468,46.101],[-0.492,46.072],[-0.477,46.051],[-0.417,46.062],[-0.361,45.991],[-0.269,46.047],[-0.119,45.955],[-0.129,45.879],[-0.078,45.859],[0.03,45.839],[0.066,45.857],[0.074,45.878],[0.146,45.897],[0.15,45.945],[0.099,45.981],[0.037,45.992],[0.078,46.104],[0.179,46.121],[0.225,46.088],[0.314,46.079],[0.35,46.089],[0.37,46.049],[0.396,46.021],[0.389,45.992],[0.293,46.005],[0.282,45.995],[0.358,45.932],[0.387,45.894],[0.432,45.885],[0.468,45.912],[0.523,45.875],[0.586,45.874],[0.614,45.817],[0.802,45.772],[0.937,45.804],[0.986,45.835],[1.012,45.876],[1.031,45.912],[0.959,45.941],[0.884,45.915],[0.902,45.875],[0.823,45.862],[0.748,45.883],[0.687,45.878],[0.633,45.899],[0.641,45.986],[0.661,46.013],[0.674,46.109],[0.658,46.189],[0.75,46.226],[0.814,46.209],[0.91,46.277],[0.943,46.262],[1.02,46.298],[1.005,46.357],[1.074,46.391],[1.11,46.378],[1.167,46.409],[1.13,46.527],[1.031,46.541],[1.024,46.583],[0.937,46.595],[0.889,46.621],[0.897,46.691],[0.792,46.755],[0.795,46.862],[0.713,46.866],[0.687,46.961],[0.597,47.006],[0.555,47.013],[0.559,46.962],[0.505,46.964],[0.405,46.937],[0.331,46.954],[0.316,46.999],[0.31,47.05],[0.18,47.087],[0.018,47.169],[-0.027,47.135],[-0.059,47.079],[-0.119,47.065],[-0.179,47.08],[-0.183,47.119],[-0.243,47.123],[-0.312,47.092],[-0.461,47.055],[-0.471,47.086],[-0.562,47.06],[-0.575,47.011],[-0.637,46.992],[-0.884,46.979],[-0.926,47.009],[-1.013,47.022],[-1.052,47],[-1.149,47.023],[-1.168,47.077],[-1.249,47.098]]]]}},{"type":"Feature","properties":{"NAME":"County of Ponthieu","ADMIN_LEVEL":5,"OHM_RELATION_ID":2840627,"START_DATE":"0926","END_DATE":"1696-05-04"},"geometry":{"type":"Polygon","coordinates":[[[1.314,50.101],[1.37,50.065],[1.439,50.052],[1.493,50.027],[1.549,49.98],[1.602,49.97],[1.614,49.961],[1.631,49.958],[1.723,49.868],[1.733,49.849],[1.734,49.839],[1.769,49.832],[1.785,49.818],[1.849,49.812],[1.86,49.872],[1.842,49.89],[1.813,49.893],[1.804,49.911],[1.731,49.92],[1.722,49.94],[1.732,49.958],[1.777,49.976],[1.766,49.985],[1.729,49.991],[1.721,50.048],[1.747,50.056],[1.719,50.105],[1.772,50.099],[1.804,50.072],[1.846,49.992],[1.872,49.996],[1.884,50.062],[1.937,50.057],[1.925,50.039],[1.926,49.991],[1.914,49.974],[1.855,49.961],[1.856,49.928],[1.873,49.918],[1.922,49.927],[1.95,49.946],[1.985,49.943],[2.014,49.924],[2.034,49.926],[2.025,49.99],[2.083,50.019],[2.088,50.051],[2.103,50.068],[2.129,50.067],[2.142,50.051],[2.143,49.999],[2.118,49.963],[2.12,49.913],[2.144,49.884],[2.18,49.883],[2.183,49.921],[2.164,49.96],[2.167,49.99],[2.22,50.034],[2.19,50.063],[2.153,50.144],[2.085,50.127],[2.065,50.156],[2.031,50.161],[2.015,50.145],[1.987,50.139],[1.994,50.18],[1.951,50.174],[1.934,50.183],[1.932,50.204],[1.986,50.211],[2.011,50.228],[2.06,50.223],[2.085,50.255],[1.975,50.291],[1.98,50.322],[1.949,50.334],[1.899,50.302],[1.814,50.327],[1.796,50.351],[1.816,50.366],[1.799,50.387],[1.726,50.393],[1.726,50.411],[1.68,50.437],[1.643,50.434],[1.642,50.394],[1.607,50.388],[1.607,50.367],[1.477,50.38],[1.463,50.281],[1.47,50.246],[1.422,50.207],[1.383,50.139],[1.314,50.101]]]}},{"type":"Feature","properties":{"NAME":"County of Tours","ADMIN_LEVEL":4,"OHM_RELATION_ID":2892569,"START_DATE":"0500","END_DATE":"1204"},"geometry":{"type":"MultiPolygon","coordinates":[[[[0.449,47.651],[0.357,47.589],[0.406,47.554],[0.387,47.483],[0.428,47.462],[0.415,47.4],[0.353,47.382],[0.313,47.333],[0.365,47.287],[0.317,47.258],[0.081,47.217],[0.037,47.221],[0.018,47.169],[0.18,47.087],[0.31,47.05],[0.316,46.999],[0.331,46.954],[0.405,46.937],[0.505,46.964],[0.559,46.962],[0.555,47.013],[0.597,47.006],[0.687,46.961],[0.713,46.866],[0.795,46.862],[0.792,46.755],[0.897,46.691],[1.001,46.691],[1.084,46.723],[1.166,46.709],[1.333,46.742],[1.373,46.812],[1.408,46.83],[1.428,46.884],[1.346,46.943],[1.23,46.951],[1.173,46.969],[1.115,47.047],[1.073,47.067],[1.074,47.101],[1.23,47.078],[1.284,47.086],[1.358,47.059],[1.39,47.111],[1.346,47.145],[1.37,47.196],[1.282,47.257],[1.212,47.284],[1.117,47.299],[1.098,47.34],[1.095,47.416],[1.039,47.492],[1.069,47.536],[1.046,47.589],[1.017,47.596],[0.968,47.642],[0.879,47.647],[0.836,47.689],[0.784,47.681],[0.732,47.689],[0.611,47.683],[0.564,47.656],[0.449,47.651]]]]}},{"type":"Feature","properties":{"NAME":"County of Vendôme","ADMIN_LEVEL":4,"OHM_RELATION_ID":2893054,"START_DATE":"0930","END_DATE":"1514"},"geometry":{"type":"Polygon","coordinates":[[[0.596,47.711],[0.611,47.683],[0.732,47.689],[0.784,47.681],[0.836,47.689],[0.879,47.647],[0.968,47.642],[1.004,47.664],[1.026,47.688],[1.082,47.686],[1.137,47.662],[1.174,47.684],[1.218,47.713],[1.244,47.761],[1.248,47.827],[1.2,47.823],[1.162,47.868],[1.074,47.915],[1.101,47.938],[1.062,47.968],[0.971,47.953],[0.864,47.936],[0.835,47.938],[0.832,47.924],[0.801,47.909],[0.75,47.944],[0.714,47.938],[0.776,47.826],[0.656,47.809],[0.596,47.711]]]}},{"type":"Feature","properties":{"NAME":"Duchy of Aquitaine","ADMIN_LEVEL":3,"OHM_RELATION_ID":2892573,"START_DATE":"1137-04-09","END_DATE":"1214-09-28"},"geometry":{"type":"Polygon","coordinates":[[[-1.613,46.247],[-1.61,46.231],[-1.566,46.176],[-1.503,46.159],[-1.468,46.166],[-1.339,46.113],[-1.207,46.111],[-1.194,46.106],[-1.175,46.079],[-1.145,46.067],[-1.144,46.056],[-1.171,46.06],[-1.206,46.052],[-1.228,46.023],[-1.279,46.023],[-1.339,46.066],[-1.404,46.083],[-1.443,46.075],[-1.463,46.045],[-1.441,45.997],[-1.445,45.972],[-1.43,45.933],[-1.308,45.858],[-1.289,45.799],[-1.295,45.775],[-1.287,45.699],[-1.271,45.657],[-1.234,45.636],[-1.178,45.639],[-1.099,45.604],[-1.13,45.585],[-1.175,45.53],[-1.206,45.472],[-1.201,45.445],[-1.21,45.417],[-1.212,45.299],[-1.259,44.962],[-1.312,44.649],[-1.298,44.604],[-1.312,44.572],[-1.304,44.549],[-1.31,44.526],[-1.302,44.491],[-1.349,44.215],[-1.376,44.098],[-1.278,44.074],[-1.239,44.053],[-1.116,44.078],[-1.097,44.141],[-1.034,44.232],[-1.035,44.393],[-0.986,44.411],[-0.946,44.383],[-0.824,44.389],[-0.787,44.434],[-0.648,44.442],[-0.612,44.427],[-0.61,44.395],[-0.46,44.333],[-0.408,44.365],[-0.324,44.38],[-0.31,44.493],[-0.251,44.558],[-0.179,44.567],[-0.152,44.633],[-0.198,44.725],[-0.24,44.756],[-0.216,44.833],[-0.192,44.834],[-0.15,44.804],[-0.1,44.813],[-0.043,44.849],[-0.001,44.847],[0.025,44.83],[0.058,44.829],[0.106,44.754],[0.187,44.731],[0.201,44.703],[0.161,44.671],[0.179,44.643],[0.238,44.609],[0.172,44.588],[0.176,44.549],[0.143,44.51],[0.273,44.404],[0.324,44.302],[0.356,44.266],[0.441,44.248],[0.412,44.176],[0.444,44.153],[0.441,44.103],[0.4,44.055],[0.361,44.056],[0.312,44.016],[0.334,43.984],[0.369,43.932],[0.497,43.938],[0.525,43.913],[0.632,43.935],[0.65,43.977],[0.63,44.015],[0.691,44.078],[0.699,44.111],[0.662,44.154],[0.698,44.159],[0.84,44.115],[0.884,44.127],[1.037,44.227],[0.996,44.275],[1.031,44.325],[0.921,44.322],[0.902,44.443],[0.954,44.449],[0.996,44.404],[1.122,44.431],[1.119,44.462],[1.095,44.477],[1.026,44.494],[1.045,44.541],[1.006,44.618],[1.13,44.67],[1.16,44.701],[1.175,44.74],[1.253,44.749],[1.311,44.806],[1.379,44.823],[1.402,44.842],[1.411,44.866],[1.438,44.885],[1.41,44.918],[1.456,44.965],[1.434,45.001],[1.452,45.042],[1.574,45.042],[1.702,45.028],[1.727,44.986],[1.836,44.969],[1.935,45.001],[1.991,44.977],[2.052,44.981],[2.12,44.928],[2.105,44.905],[2.112,44.863],[2.155,44.833],[2.166,44.794],[2.189,44.769],[2.328,44.788],[2.355,44.823],[2.455,44.843],[2.497,44.87],[2.511,44.926],[2.6,44.985],[2.658,45.06],[2.721,45.034],[2.731,44.967],[2.774,44.951],[2.786,44.862],[2.868,44.872],[2.916,44.831],[2.889,44.748],[2.962,44.679],[2.977,44.644],[3.033,44.656],[3.06,44.69],[3.051,44.739],[3.099,44.821],[3.081,44.856],[3.122,44.909],[3.183,44.878],[3.241,44.919],[3.28,44.919],[3.369,44.966],[3.416,44.932],[3.422,44.907],[3.516,44.84],[3.606,44.851],[3.648,44.879],[3.728,44.881],[3.777,45.005],[3.768,45.095],[3.703,45.113],[3.733,45.182],[3.736,45.217],[3.675,45.269],[3.737,45.32],[3.809,45.417],[3.926,45.393],[3.986,45.499],[3.938,45.518],[3.919,45.602],[3.83,45.631],[3.757,45.702],[3.73,45.752],[3.743,45.812],[3.72,45.834],[3.735,45.88],[3.681,45.959],[3.752,46.011],[3.804,46.033],[3.811,46.107],[3.78,46.132],[3.791,46.252],[3.86,46.305],[3.847,46.362],[3.764,46.376],[3.737,46.438],[3.587,46.47],[3.568,46.556],[3.591,46.602],[3.696,46.643],[3.66,46.668],[3.626,46.761],[3.531,46.696],[3.426,46.691],[3.398,46.717],[3.265,46.731],[3.19,46.68],[3.052,46.739],[3.032,46.767],[3.039,46.799],[2.831,46.729],[2.797,46.76],[2.696,46.759],[2.659,46.733],[2.578,46.662],[2.601,46.567],[2.67,46.505],[2.686,46.343],[2.712,46.31],[2.706,46.251],[2.786,46.194],[2.831,46.151],[2.818,46.116],[2.791,46.083],[2.723,46.05],[2.674,46.004],[2.615,45.978],[2.572,45.975],[2.471,45.857],[2.429,45.858],[2.398,45.832],[2.428,45.773],[2.479,45.777],[2.486,45.742],[2.442,45.707],[2.374,45.699],[2.28,45.66],[2.19,45.703],[2.168,45.756],[2.092,45.764],[2.008,45.761],[1.994,45.715],[1.946,45.729],[1.908,45.711],[1.866,45.724],[1.885,45.754],[1.886,45.797],[1.756,45.823],[1.789,45.874],[1.645,45.842],[1.619,45.855],[1.664,45.908],[1.674,45.952],[1.604,45.926],[1.553,45.948],[1.494,45.921],[1.432,45.947],[1.28,45.967],[1.158,45.923],[1.132,45.863],[1.101,45.848],[1.053,45.878],[1.012,45.876],[0.986,45.835],[0.937,45.804],[0.967,45.727],[0.931,45.647],[0.84,45.619],[0.824,45.639],[0.816,45.675],[0.791,45.698],[0.718,45.709],[0.643,45.706],[0.593,45.695],[0.552,45.673],[0.511,45.555],[0.411,45.476],[0.358,45.414],[0.379,45.386],[0.35,45.283],[0.295,45.258],[0.264,45.263],[0.168,45.221],[0.019,45.221],[0.007,45.246],[-0.043,45.284],[0.005,45.33],[0.032,45.416],[-0.003,45.437],[-0.036,45.482],[-0.104,45.518],[-0.195,45.532],[-0.272,45.565],[-0.4,45.643],[-0.445,45.755],[-0.427,45.781],[-0.39,45.768],[-0.299,45.778],[-0.303,45.804],[-0.284,45.813],[-0.257,45.778],[-0.173,45.801],[-0.19,45.846],[-0.129,45.879],[-0.119,45.955],[-0.269,46.047],[-0.361,45.991],[-0.417,46.062],[-0.477,46.051],[-0.492,46.072],[-0.468,46.101],[-0.489,46.142],[-0.537,46.154],[-0.547,46.183],[-0.516,46.233],[-0.548,46.337],[-0.636,46.317],[-0.684,46.331],[-0.735,46.318],[-0.775,46.329],[-0.96,46.313],[-1.005,46.321],[-1.085,46.3],[-1.234,46.238],[-1.255,46.211],[-1.363,46.242],[-1.394,46.263],[-1.439,46.264],[-1.486,46.291],[-1.52,46.292],[-1.603,46.266],[-1.613,46.247]]]}},{"type":"Feature","properties":{"NAME":"Duchy of Brittany","ADMIN_LEVEL":3,"OHM_RELATION_ID":2805398,"START_DATE":"0939-08-01","END_DATE":"1547-08-12"},"geometry":{"type":"MultiPolygon","coordinates":[[[[-5.218,48.467],[-5.217,48.437],[-5.185,48.406],[-5.124,48.386],[-5.063,48.401],[-4.923,48.336],[-4.924,48.306],[-4.894,48.287],[-4.85,48.291],[-4.822,48.319],[-4.795,48.3],[-4.766,48.295],[-4.708,48.297],[-4.666,48.314],[-4.652,48.309],[-4.686,48.29],[-4.691,48.269],[-4.662,48.225],[-4.615,48.217],[-4.602,48.2],[-4.609,48.178],[-4.603,48.156],[-4.569,48.137],[-4.534,48.136],[-4.507,48.145],[-4.462,48.194],[-4.421,48.19],[-4.382,48.174],[-4.35,48.173],[-4.332,48.137],[-4.372,48.143],[-4.424,48.139],[-4.735,48.094],[-4.758,48.08],[-4.789,48.044],[-4.82,48.066],[-4.871,48.077],[-4.898,48.07],[-4.921,48.043],[-4.904,48.016],[-4.864,48],[-4.817,48],[-4.795,48.013],[-4.788,48.027],[-4.75,48.004],[-4.718,47.996],[-4.629,47.985],[-4.579,47.968],[-4.524,47.972],[-4.48,47.951],[-4.434,47.913],[-4.405,47.865],[-4.401,47.853],[-4.422,47.839],[-4.437,47.815],[-4.431,47.795],[-4.403,47.769],[-4.271,47.757],[-4.204,47.76],[-4.145,47.778],[-4.12,47.8],[-4.109,47.829],[-4.035,47.812],[-3.95,47.826],[-3.909,47.792],[-3.895,47.77],[-3.848,47.758],[-3.82,47.739],[-3.777,47.741],[-3.737,47.761],[-3.698,47.744],[-3.558,47.73],[-3.51,47.686],[-3.549,47.674],[-3.562,47.655],[-3.562,47.638],[-3.544,47.618],[-3.48,47.589],[-3.422,47.584],[-3.395,47.591],[-3.369,47.621],[-3.375,47.652],[-3.313,47.656],[-3.248,47.619],[-3.24,47.588],[-3.208,47.575],[-3.216,47.562],[-3.21,47.521],[-3.182,47.461],[-3.149,47.442],[-3.071,47.431],[-3.073,47.404],[-3.021,47.364],[-3.022,47.351],[-3.008,47.333],[-2.968,47.322],[-2.938,47.33],[-2.927,47.313],[-2.893,47.297],[-2.808,47.296],[-2.787,47.313],[-2.787,47.339],[-2.845,47.38],[-2.894,47.38],[-2.891,47.403],[-2.907,47.42],[-3.021,47.451],[-3.021,47.479],[-3.069,47.511],[-3.079,47.53],[-3.043,47.537],[-2.951,47.521],[-2.931,47.507],[-2.905,47.501],[-2.884,47.474],[-2.819,47.453],[-2.786,47.451],[-2.724,47.469],[-2.703,47.458],[-2.673,47.456],[-2.578,47.482],[-2.551,47.477],[-2.542,47.429],[-2.564,47.414],[-2.591,47.441],[-2.623,47.448],[-2.662,47.435],[-2.674,47.415],[-2.66,47.386],[-2.609,47.377],[-2.592,47.349],[-2.559,47.331],[-2.593,47.307],[-2.596,47.286],[-2.587,47.272],[-2.363,47.199],[-2.388,47.21],[-2.368,47.342],[-2.34,47.401],[-2.26,47.437],[-2.241,47.483],[-2.2,47.497],[-2.142,47.468],[-2.097,47.492],[-2.079,47.513],[-2.107,47.588],[-2.082,47.637],[-2.002,47.688],[-1.913,47.668],[-1.855,47.719],[-1.85,47.781],[-1.817,47.82],[-1.769,47.91],[-1.659,47.874],[-1.537,47.818],[-1.475,47.833],[-1.373,47.803],[-1.257,47.78],[-1.259,47.755],[-1.237,47.843],[-1.201,47.868],[-1.185,47.906],[-1.137,47.974],[-1.067,47.979],[-1.038,47.99],[-1.028,48.028],[-1.07,48.097],[-1.108,48.274],[-1.066,48.333],[-1.07,48.378],[-1.089,48.419],[-1.058,48.475],[-1.077,48.528],[-1.164,48.527],[-1.193,48.545],[-1.257,48.542],[-1.265,48.508],[-1.293,48.48],[-1.386,48.462],[-1.487,48.467],[-1.533,48.551],[-1.544,48.605],[-1.572,48.626],[-1.581,48.677],[-1.743,48.655],[-1.796,48.661],[-1.806,48.668],[-1.772,48.679],[-1.753,48.695],[-1.746,48.729],[-1.773,48.757],[-1.824,48.773],[-1.862,48.771],[-1.91,48.751],[-1.955,48.754],[-2.031,48.744],[-2.122,48.718],[-2.156,48.693],[-2.193,48.687],[-2.274,48.73],[-2.327,48.742],[-2.369,48.733],[-2.403,48.71],[-2.418,48.708],[-2.451,48.724],[-2.489,48.728],[-2.524,48.719],[-2.548,48.702],[-2.66,48.699],[-2.705,48.68],[-2.756,48.712],[-2.801,48.72],[-2.817,48.741],[-2.851,48.757],[-2.871,48.809],[-2.898,48.831],[-2.895,48.871],[-2.918,48.904],[-2.955,48.92],[-2.996,48.921],[-3.052,48.953],[-3.095,48.961],[-3.144,48.949],[-3.168,48.924],[-3.222,48.925],[-3.349,48.899],[-3.367,48.934],[-3.42,48.952],[-3.518,48.941],[-3.563,48.915],[-3.592,48.928],[-3.632,48.933],[-3.694,48.921],[-3.726,48.899],[-3.735,48.863],[-3.717,48.835],[-3.683,48.82],[-3.696,48.793],[-3.682,48.751],[-3.823,48.77],[-3.885,48.757],[-3.958,48.796],[-4.038,48.809],[-4.099,48.79],[-4.115,48.774],[-4.12,48.755],[-4.136,48.748],[-4.231,48.734],[-4.265,48.719],[-4.358,48.734],[-4.425,48.71],[-4.462,48.708],[-4.489,48.698],[-4.531,48.709],[-4.577,48.704],[-4.705,48.631],[-4.781,48.603],[-4.837,48.561],[-4.855,48.524],[-4.85,48.475],[-4.874,48.438],[-4.96,48.478],[-5.002,48.516],[-5.063,48.535],[-5.109,48.534],[-5.15,48.523],[-5.202,48.49],[-5.218,48.467]]],[[[-4.094,47.768],[-4.074,47.745],[-4.085,47.723],[-4.071,47.695],[-4.052,47.678],[-3.998,47.667],[-3.957,47.673],[-3.917,47.69],[-3.901,47.717],[-3.908,47.738],[-3.937,47.755],[-3.977,47.76],[-3.974,47.788],[-4.007,47.809],[-4.051,47.808],[-4.089,47.788],[-4.094,47.768]]],[[[-3.312,47.347],[-3.298,47.322],[-3.296,47.298],[-3.26,47.27],[-3.094,47.245],[-3.036,47.266],[-3.007,47.306],[-3.011,47.322],[-3.034,47.342],[-3.095,47.355],[-3.127,47.39],[-3.248,47.423],[-3.293,47.409],[-3.309,47.382],[-3.312,47.347]]],[[[-2.278,47.106],[-2.27,47.101],[-2.235,47.092],[-2.093,47.069],[-2.278,47.106]]]]}},{"type":"Feature","properties":{"NAME":"Duchy of Burgundy","ADMIN_LEVEL":3,"OHM_RELATION_ID":2893764,"START_DATE":"0918","END_DATE":"1361-11-21"},"geometry":{"type":"MultiPolygon","coordinates":[[[[2.398,47.766],[2.461,47.734],[2.457,47.717],[2.522,47.655],[2.597,47.685],[2.699,47.66],[2.759,47.602],[2.841,47.564],[2.93,47.448],[2.881,47.328],[2.982,47.265],[2.999,47.204],[3.03,47.135],[3.037,47.088],[3.07,46.99],[3.047,46.954],[3.065,46.859],[3.032,46.767],[3.052,46.739],[3.19,46.68],[3.265,46.731],[3.398,46.717],[3.426,46.691],[3.531,46.696],[3.626,46.761],[3.66,46.668],[3.696,46.643],[3.591,46.602],[3.568,46.556],[3.587,46.47],[3.737,46.438],[3.764,46.376],[3.847,46.362],[3.86,46.305],[3.926,46.293],[3.925,46.259],[3.962,46.235],[3.957,46.184],[3.984,46.182],[4.014,46.232],[4.055,46.249],[4.086,46.251],[4.16,46.236],[4.247,46.241],[4.269,46.218],[4.384,46.218],[4.36,46.271],[4.414,46.333],[4.458,46.346],[4.445,46.402],[4.378,46.42],[4.386,46.448],[4.474,46.474],[4.503,46.554],[4.558,46.576],[4.595,46.534],[4.654,46.583],[4.713,46.577],[4.76,46.54],[4.84,46.579],[4.904,46.573],[4.937,46.509],[5.111,46.497],[5.2,46.5],[5.223,46.465],[5.264,46.449],[5.315,46.453],[5.328,46.461],[5.356,46.461],[5.379,46.475],[5.4,46.467],[5.423,46.501],[5.361,46.53],[5.368,46.552],[5.359,46.563],[5.368,46.57],[5.363,46.579],[5.406,46.579],[5.405,46.604],[5.408,46.606],[5.409,46.614],[5.431,46.622],[5.434,46.642],[5.416,46.65],[5.421,46.656],[5.394,46.706],[5.393,46.724],[5.375,46.748],[5.382,46.764],[5.376,46.778],[5.367,46.788],[5.348,46.791],[5.341,46.808],[5.329,46.81],[5.33,46.812],[5.327,46.813],[5.331,46.817],[5.331,46.818],[5.34,46.826],[5.422,46.822],[5.447,46.831],[5.451,46.838],[5.445,46.846],[5.409,46.872],[5.413,46.886],[5.411,46.88],[5.41,46.885],[5.414,46.89],[5.415,46.895],[5.417,46.895],[5.42,46.899],[5.444,46.898],[5.45,46.904],[5.441,46.914],[5.455,46.929],[5.456,46.929],[5.457,46.93],[5.478,46.917],[5.485,46.922],[5.468,46.93],[5.46,46.945],[5.432,46.948],[5.45,46.946],[5.433,46.944],[5.43,46.948],[5.428,46.948],[5.426,46.959],[5.433,46.972],[5.434,46.975],[5.436,46.976],[5.438,46.98],[5.446,46.98],[5.454,46.984],[5.443,46.996],[5.394,46.995],[5.364,46.981],[5.379,46.959],[5.377,46.958],[5.378,46.956],[5.367,46.945],[5.367,46.94],[5.357,46.93],[5.358,46.927],[5.378,46.927],[5.403,46.892],[5.352,46.889],[5.319,46.907],[5.319,46.908],[5.315,46.91],[5.313,46.92],[5.309,46.929],[5.264,46.93],[5.27,46.959],[5.257,46.976],[5.258,46.977],[5.258,46.978],[5.275,46.993],[5.285,47.002],[5.286,47.002],[5.288,47.004],[5.301,47.006],[5.298,47.039],[5.32,47.061],[5.359,47.08],[5.362,47.08],[5.364,47.081],[5.381,47.079],[5.422,47.136],[5.441,47.146],[5.438,47.154],[5.467,47.168],[5.449,47.201],[5.481,47.223],[5.482,47.244],[5.505,47.29],[5.498,47.311],[5.475,47.321],[5.476,47.323],[5.473,47.325],[5.48,47.332],[5.487,47.326],[5.497,47.337],[5.49,47.369],[5.5,47.404],[5.392,47.478],[5.391,47.511],[5.455,47.538],[5.477,47.569],[5.479,47.614],[5.454,47.631],[5.409,47.602],[5.391,47.603],[5.374,47.614],[5.386,47.655],[5.422,47.676],[5.538,47.679],[5.612,47.692],[5.665,47.733],[5.671,47.786],[5.512,47.778],[5.494,47.796],[5.457,47.795],[5.388,47.759],[5.225,47.718],[5.187,47.69],[5.142,47.704],[5.113,47.777],[5.072,47.81],[5.059,47.84],[5.061,47.878],[5.027,47.913],[5.004,47.991],[4.979,48.02],[4.973,48.04],[4.944,48.043],[4.779,48.006],[4.73,48.028],[4.719,48.029],[4.719,48.022],[4.682,47.999],[4.613,47.994],[4.608,47.93],[4.551,47.915],[4.578,47.875],[4.474,47.877],[4.463,47.891],[4.455,47.888],[4.441,47.919],[4.434,47.928],[4.384,47.966],[4.296,47.969],[4.204,47.964],[4.121,47.937],[4.112,47.931],[4.121,47.878],[4.095,47.873],[4.068,47.903],[3.999,47.874],[3.881,47.851],[3.883,47.787],[3.852,47.775],[3.75,47.787],[3.735,47.778],[3.697,47.785],[3.686,47.882],[3.685,47.883],[3.626,47.874],[3.6,47.892],[3.598,47.892],[3.439,47.855],[3.29,47.796],[3.277,47.797],[3.214,47.762],[3.12,47.775],[3.06,47.731],[2.937,47.723],[2.887,47.752],[2.752,47.788],[2.697,47.761],[2.502,47.811],[2.398,47.766]],[[5.429,47.356],[5.444,47.371],[5.472,47.369],[5.441,47.348],[5.429,47.356]]],[[[5.424,47.09],[5.455,47.074],[5.452,47.076],[5.459,47.078],[5.47,47.09],[5.466,47.092],[5.424,47.09]]]]}},{"type":"Feature","properties":{"NAME":"Duchy of Gascony","ADMIN_LEVEL":3,"OHM_RELATION_ID":2892572,"START_DATE":"1137-04-09","END_DATE":"1214-09-28"},"geometry":{"type":"MultiPolygon","coordinates":[[[[0.334,43.984],[0.312,44.016],[0.361,44.056],[0.4,44.055],[0.441,44.103],[0.444,44.153],[0.412,44.176],[0.441,44.248],[0.356,44.266],[0.324,44.302],[0.273,44.404],[0.143,44.51],[0.176,44.549],[0.172,44.588],[0.238,44.609],[0.179,44.643],[0.161,44.671],[0.201,44.703],[0.187,44.731],[0.106,44.754],[0.058,44.829],[0.025,44.83],[-0.001,44.847],[-0.043,44.849],[-0.1,44.813],[-0.15,44.804],[-0.192,44.834],[-0.216,44.833],[-0.24,44.756],[-0.198,44.725],[-0.152,44.633],[-0.179,44.567],[-0.251,44.558],[-0.31,44.493],[-0.324,44.38],[-0.408,44.365],[-0.46,44.333],[-0.61,44.395],[-0.612,44.427],[-0.648,44.442],[-0.787,44.434],[-0.824,44.389],[-0.946,44.383],[-0.986,44.411],[-1.035,44.393],[-1.034,44.232],[-1.097,44.141],[-1.116,44.078],[-1.239,44.053],[-1.278,44.074],[-1.377,44.093],[-1.479,43.744],[-1.499,43.645],[-1.574,43.533],[-1.607,43.506],[-1.637,43.458],[-1.671,43.439],[-1.737,43.42],[-1.77,43.428],[-1.772,43.388],[-1.791,43.374],[-1.781,43.365],[-1.787,43.356],[-1.776,43.344],[-1.756,43.343],[-1.753,43.334],[-1.737,43.33],[-1.731,43.296],[-1.696,43.312],[-1.668,43.315],[-1.625,43.306],[-1.625,43.271],[-1.608,43.252],[-1.573,43.253],[-1.558,43.281],[-1.565,43.288],[-1.535,43.295],[-1.506,43.294],[-1.491,43.281],[-1.428,43.267],[-1.353,43.303],[-1.29,43.292],[-1.261,43.332],[-1.26,43.346],[-1.265,43.375],[-1.286,43.401],[-1.26,43.434],[-1.217,43.437],[-1.194,43.417],[-1.192,43.396],[-1.156,43.36],[-1.172,43.348],[-1.171,43.322],[-1.121,43.301],[-1.082,43.268],[-1.106,43.245],[-1.138,43.231],[-1.106,43.186],[-1.112,43.176],[-1.099,43.143],[-1.042,43.113],[-1.033,43.087],[-1.032,43.073],[-1.041,43.073],[-1.058,43.035],[-1.084,43.021],[-1.084,43.002],[-1.018,42.996],[-0.996,42.975],[-0.945,42.954],[-0.925,42.954],[-0.908,42.964],[-0.862,42.951],[-0.811,42.951],[-0.792,42.963],[-0.752,42.968],[-0.732,42.947],[-0.732,42.928],[-0.724,42.922],[-0.736,42.914],[-0.733,42.899],[-0.695,42.879],[-0.676,42.881],[-0.657,42.86],[-0.604,42.833],[-0.596,42.805],[-0.577,42.808],[-0.565,42.8],[-0.568,42.781],[-0.553,42.778],[-0.543,42.793],[-0.528,42.793],[-0.525,42.812],[-0.505,42.827],[-0.441,42.795],[-0.413,42.808],[-0.384,42.801],[-0.346,42.838],[-0.327,42.834],[-0.314,42.849],[-0.268,42.944],[-0.278,43.001],[-0.186,43.055],[-0.222,43.116],[-0.14,43.194],[-0.086,43.193],[-0.054,43.238],[-0.09,43.306],[-0.051,43.398],[-0.069,43.481],[0.02,43.555],[0.201,43.421],[0.222,43.388],[0.235,43.285],[0.355,43.288],[0.415,43.275],[0.443,43.29],[0.46,43.321],[0.535,43.34],[0.647,43.28],[0.706,43.29],[0.795,43.414],[0.865,43.443],[0.866,43.485],[0.762,43.498],[0.795,43.521],[0.838,43.612],[1.005,43.728],[1.019,43.829],[1.067,43.867],[1.101,43.942],[1.161,43.973],[1.096,44.041],[1.08,44.078],[1.023,44.092],[0.932,44.066],[0.885,44.076],[0.84,44.115],[0.698,44.159],[0.662,44.154],[0.699,44.111],[0.691,44.078],[0.63,44.015],[0.65,43.977],[0.632,43.935],[0.525,43.913],[0.497,43.938],[0.369,43.932],[0.334,43.984]]]]}},{"type":"Feature","properties":{"NAME":"Duchy of Normandy","ADMIN_LEVEL":3,"OHM_RELATION_ID":2892851,"START_DATE":"1195","END_DATE":"1204"},"geometry":{"type":"MultiPolygon","coordinates":[[[[-2.752,49.429],[-2.743,49.406],[-2.706,49.382],[-2.655,49.374],[-2.597,49.367],[-2.518,49.37],[-2.481,49.384],[-2.46,49.402],[-2.442,49.378],[-2.411,49.36],[-2.348,49.353],[-2.306,49.372],[-2.267,49.41],[-2.261,49.434],[-2.282,49.474],[-2.336,49.497],[-2.338,49.527],[-2.366,49.55],[-2.407,49.56],[-2.466,49.549],[-2.509,49.559],[-2.553,49.557],[-2.651,49.518],[-2.717,49.504],[-2.748,49.478],[-2.752,49.429]]],[[[-2.461,49.711],[-2.44,49.686],[-2.409,49.673],[-2.354,49.673],[-2.308,49.691],[-2.293,49.673],[-2.266,49.658],[-2.189,49.65],[-2.112,49.683],[-2.085,49.71],[-2.081,49.728],[-2.089,49.751],[-2.137,49.778],[-2.252,49.787],[-2.305,49.781],[-2.336,49.767],[-2.403,49.77],[-2.449,49.748],[-2.461,49.73],[-2.461,49.711]]],[[[-2.328,49.26],[-2.328,49.237],[-2.312,49.21],[-2.326,49.18],[-2.318,49.157],[-2.267,49.13],[-2.178,49.116],[-2.109,49.118],[-2.064,49.099],[-2.021,49.101],[-1.989,49.115],[-1.954,49.152],[-1.939,49.195],[-1.943,49.234],[-1.88,49.244],[-1.851,49.262],[-1.838,49.285],[-1.84,49.304],[-1.853,49.321],[-1.904,49.341],[-2.052,49.351],[-2.094,49.331],[-2.114,49.297],[-2.133,49.327],[-2.17,49.344],[-2.221,49.348],[-2.266,49.332],[-2.288,49.302],[-2.316,49.282],[-2.328,49.26]]],[[[-2.252,48.958],[-2.239,48.933],[-2.199,48.913],[-2.123,48.908],[-2.051,48.909],[-2.011,48.922],[-1.982,48.952],[-1.979,48.97],[-1.986,48.991],[-2.014,49.014],[-2.105,49.049],[-2.185,49.053],[-2.238,49.03],[-2.25,49.011],[-2.252,48.958]]],[[[-2.024,49.716],[-2.018,49.662],[-1.981,49.632],[-1.927,49.614],[-1.923,49.589],[-1.957,49.563],[-1.967,49.527],[-1.952,49.499],[-1.925,49.479],[-1.919,49.454],[-1.902,49.428],[-1.889,49.364],[-1.86,49.339],[-1.812,49.323],[-1.78,49.296],[-1.732,49.242],[-1.717,49.206],[-1.677,49.166],[-1.674,49.132],[-1.69,49.092],[-1.684,49.045],[-1.665,48.997],[-1.639,48.965],[-1.639,48.938],[-1.654,48.883],[-1.682,48.854],[-1.687,48.83],[-1.674,48.804],[-1.647,48.786],[-1.652,48.757],[-1.645,48.726],[-1.581,48.677],[-1.572,48.626],[-1.544,48.605],[-1.533,48.551],[-1.487,48.467],[-1.386,48.462],[-1.293,48.48],[-1.265,48.508],[-1.257,48.542],[-1.193,48.545],[-1.164,48.527],[-1.077,48.528],[-1.068,48.509],[-0.931,48.532],[-0.876,48.518],[-0.85,48.49],[-0.765,48.446],[-0.683,48.47],[-0.591,48.459],[-0.47,48.498],[-0.324,48.487],[-0.282,48.498],[-0.268,48.528],[-0.265,48.566],[-0.25,48.657],[-0.309,48.722],[-0.35,48.731],[-0.42,48.799],[-0.377,48.842],[-0.35,48.85],[-0.146,48.866],[-0.025,48.798],[0.066,48.776],[0.108,48.777],[0.211,48.741],[0.286,48.728],[0.358,48.728],[0.497,48.624],[0.56,48.619],[0.617,48.585],[0.706,48.635],[0.809,48.662],[0.839,48.703],[0.905,48.714],[1.037,48.712],[1.097,48.73],[1.156,48.731],[1.216,48.75],[1.256,48.741],[1.362,48.787],[1.365,48.84],[1.42,48.85],[1.442,48.904],[1.416,48.945],[1.395,48.961],[1.405,49.001],[1.301,49.046],[1.273,49.103],[1.196,49.13],[1.165,49.172],[1.173,49.264],[1.156,49.292],[1.229,49.301],[1.399,49.413],[1.417,49.445],[1.475,49.484],[1.548,49.467],[1.642,49.47],[1.743,49.434],[1.78,49.436],[1.799,49.497],[1.774,49.559],[1.734,49.612],[1.733,49.654],[1.744,49.728],[1.794,49.749],[1.734,49.821],[1.733,49.849],[1.723,49.868],[1.631,49.958],[1.557,49.969],[1.447,50.042],[1.283,50.087],[1.166,50.021],[1.024,49.969],[0.941,49.966],[0.895,49.949],[0.744,49.921],[0.677,49.919],[0.536,49.894],[0.415,49.842],[0.32,49.811],[0.291,49.791],[0.15,49.75],[0.108,49.724],[0.089,49.702],[0.047,49.611],[-0.005,49.538],[-0.01,49.508],[-0.004,49.494],[0.026,49.457],[0.059,49.433],[-0.046,49.371],[-0.126,49.348],[-0.196,49.341],[-0.262,49.348],[-0.339,49.376],[-0.391,49.386],[-0.554,49.398],[-0.613,49.39],[-0.66,49.401],[-0.847,49.416],[-0.887,49.435],[-0.933,49.446],[-1.097,49.44],[-1.113,49.451],[-1.083,49.468],[-1.067,49.49],[-1.067,49.51],[-1.084,49.531],[-1.114,49.546],[-1.144,49.549],[-1.208,49.53],[-1.222,49.546],[-1.177,49.571],[-1.16,49.594],[-1.155,49.625],[-1.169,49.666],[-1.199,49.715],[-1.248,49.743],[-1.437,49.755],[-1.517,49.737],[-1.552,49.708],[-1.634,49.712],[-1.759,49.734],[-1.838,49.769],[-1.874,49.767],[-1.93,49.778],[-1.974,49.772],[-2.005,49.755],[-2.019,49.738],[-2.024,49.716]]],[[[-1.926,48.878],[-1.903,48.851],[-1.859,48.838],[-1.768,48.837],[-1.727,48.846],[-1.708,48.859],[-1.704,48.886],[-1.722,48.903],[-1.751,48.909],[-1.756,48.921],[-1.784,48.939],[-1.877,48.937],[-1.922,48.908],[-1.926,48.878]]]]}}],"metadata":{"generatedBy":"scripts/build-fief-flat.ts","input":"data/france_fiefs_1200.geojson","year":1200,"cutPolicy":"containment-aware","containmentCoverageThreshold":0.9,"minOverlapAreaM2":1000,"sliverAreaLimitM2":1000000000,"resolutions":[{"kind":"sliver","cutName":"County of Anjou","keptName":"Duchy of Brittany","overlapKm2":0.85,"coverageOfSmaller":0.0001},{"kind":"sliver","cutName":"County of Bar","keptName":"County of Champagne","overlapKm2":332.12,"coverageOfSmaller":0.0541},{"kind":"sliver","cutName":"County of Ponthieu","keptName":"Duchy of Normandy","overlapKm2":17.42,"coverageOfSmaller":0.0084},{"kind":"sliver","cutName":"County of Vendôme","keptName":"County of Perche","overlapKm2":0.16,"coverageOfSmaller":0.0001},{"kind":"containment","cutName":"Duchy of Aquitaine","keptName":"County of Angoulême","overlapKm2":4490.96,"coverageOfSmaller":1},{"kind":"containment","cutName":"Duchy of Brittany","keptName":"County of Nantes","overlapKm2":7062.19,"coverageOfSmaller":0.9998},{"kind":"sliver","cutName":"Duchy of Burgundy","keptName":"County of Champagne","overlapKm2":328.64,"coverageOfSmaller":0.0113},{"kind":"containment","cutName":"Duchy of Normandy","keptName":"County of Alençon","overlapKm2":1944.53,"coverageOfSmaller":1},{"kind":"sliver","cutName":"Duchy of Normandy","keptName":"Duchy of Brittany","overlapKm2":0.9,"coverageOfSmaller":0}],"boundaryAlignment":{"issue":513,"inputs":["data/hre_boundary_1200.geojson"],"scope":"フランス東境の都市を含む重複成分と、同境界に接する指定領邦。フランドルは対象外。","uncertainty":"同年代の表示整合のために採用したOHM境界。推測・描写年未確定図版に由来する区間を含み、史料で確定した境界ではない。"},"source":"OpenHistoricalMap","sourceUrl":"https://www.openhistoricalmap.org/","license":"CC0-1.0","borderPrecision":"史料に基づく復元（概略。測量された境界ではない）"}}