{"type":"FeatureCollection","features":[{"type":"Feature","properties":{"NAME":"Burgraviate of Nuremberg","SUBJECTO":"Holy Roman Empire","PARTOF":"Holy Roman Empire","ADMIN_LEVEL":4,"OHM_RELATION_ID":2830455,"START_DATE":"1050","END_DATE":"1219"},"geometry":{"type":"MultiPolygon","coordinates":[[[[10.384,49.542],[10.384,49.525],[10.415,49.504],[10.432,49.504],[10.412,49.474],[10.387,49.465],[10.372,49.483],[10.4,49.488],[10.359,49.534],[10.321,49.534],[10.314,49.548],[10.325,49.564],[10.292,49.566],[10.263,49.554],[10.231,49.558],[10.125,49.531],[10.099,49.529],[10.088,49.541],[10.062,49.545],[10.061,49.537],[10.041,49.529],[10.059,49.519],[10.049,49.507],[10.028,49.503],[10.02,49.485],[9.975,49.481],[9.993,49.446],[9.986,49.431],[10.009,49.425],[10.021,49.443],[10.055,49.434],[10.064,49.447],[10.084,49.434],[10.098,49.438],[10.116,49.422],[10.143,49.429],[10.122,49.446],[10.089,49.449],[10.095,49.462],[10.173,49.468],[10.171,49.484],[10.221,49.476],[10.245,49.461],[10.288,49.451],[10.307,49.433],[10.289,49.419],[10.276,49.419],[10.269,49.404],[10.257,49.403],[10.265,49.389],[10.253,49.384],[10.266,49.352],[10.279,49.346],[10.271,49.338],[10.307,49.324],[10.298,49.311],[10.305,49.304],[10.317,49.311],[10.338,49.299],[10.318,49.292],[10.319,49.279],[10.295,49.264],[10.302,49.256],[10.253,49.232],[10.221,49.226],[10.204,49.227],[10.198,49.236],[10.182,49.226],[10.114,49.241],[10.085,49.257],[10.059,49.247],[10.037,49.259],[10.046,49.271],[10.04,49.296],[10.06,49.294],[10.06,49.311],[10.036,49.32],[9.978,49.31],[9.948,49.325],[9.922,49.325],[9.938,49.287],[9.953,49.284],[9.955,49.273],[9.975,49.272],[9.99,49.261],[9.875,49.256],[9.876,49.24],[9.904,49.234],[9.957,49.24],[9.975,49.233],[9.996,49.245],[10.019,49.229],[10.02,49.212],[10.031,49.206],[10.011,49.193],[10.021,49.183],[10.01,49.178],[9.989,49.188],[9.984,49.174],[9.957,49.169],[9.96,49.158],[9.973,49.158],[9.946,49.139],[9.946,49.123],[10,49.095],[10.019,49.096],[10.014,49.078],[10.05,49.077],[10.097,49.102],[10.095,49.092],[10.111,49.074],[10.142,49.076],[10.151,49.065],[10.161,49.066],[10.157,49.075],[10.196,49.08],[10.193,49.088],[10.225,49.104],[10.237,49.097],[10.255,49.103],[10.242,49.077],[10.262,49.086],[10.282,49.066],[10.294,49.066],[10.299,49.082],[10.313,49.09],[10.365,49.075],[10.332,49.054],[10.44,49.014],[10.534,49.013],[10.539,49.027],[10.551,49.033],[10.583,49.032],[10.606,49.009],[10.604,49],[10.587,48.998],[10.591,48.969],[10.613,48.97],[10.671,48.907],[10.709,48.896],[10.745,48.919],[10.796,48.916],[10.806,48.94],[10.889,48.934],[10.909,48.945],[10.906,48.971],[10.88,48.998],[10.916,49.012],[10.905,49.025],[10.911,49.03],[10.939,49.03],[10.958,49.04],[10.93,49.056],[10.937,49.075],[10.967,49.076],[10.987,49.063],[11.013,49.059],[11.017,49.052],[10.986,49.022],[11.168,49.031],[11.17,49.049],[11.191,49.051],[11.206,49.034],[11.223,49.039],[11.216,49.056],[11.252,49.049],[11.304,49.068],[11.288,49.079],[11.288,49.097],[11.222,49.15],[11.189,49.108],[11.207,49.084],[11.099,49.079],[11.073,49.099],[11.042,49.062],[10.996,49.093],[10.968,49.093],[10.927,49.152],[10.906,49.151],[10.901,49.163],[10.872,49.16],[10.86,49.179],[10.842,49.183],[10.844,49.201],[10.879,49.213],[10.917,49.191],[10.933,49.198],[10.985,49.187],[10.966,49.157],[10.972,49.149],[10.985,49.159],[11.01,49.159],[11.017,49.173],[11.05,49.175],[11.067,49.154],[11.215,49.211],[11.203,49.226],[11.228,49.248],[11.177,49.283],[11.211,49.317],[11.231,49.306],[11.239,49.309],[11.231,49.323],[11.255,49.323],[11.262,49.312],[11.291,49.312],[11.307,49.298],[11.327,49.3],[11.356,49.322],[11.312,49.354],[11.165,49.547],[11.022,49.556],[11.025,49.569],[11.011,49.583],[11.122,49.581],[11.128,49.587],[11.069,49.608],[11.012,49.602],[11.034,49.645],[11.061,49.663],[11.034,49.673],[10.976,49.661],[10.971,49.623],[10.989,49.616],[10.971,49.583],[10.953,49.567],[10.917,49.574],[10.898,49.555],[10.937,49.545],[10.926,49.523],[10.903,49.534],[10.869,49.52],[10.835,49.534],[10.866,49.547],[10.835,49.592],[10.852,49.604],[10.828,49.604],[10.813,49.622],[10.866,49.636],[10.846,49.663],[10.793,49.66],[10.702,49.694],[10.665,49.682],[10.64,49.687],[10.605,49.677],[10.561,49.677],[10.486,49.632],[10.524,49.62],[10.537,49.596],[10.491,49.596],[10.395,49.552],[10.397,49.542],[10.384,49.542]],[[10.39,49.093],[10.366,49.11],[10.377,49.117],[10.415,49.111],[10.427,49.102],[10.39,49.093]],[[10.455,49.043],[10.459,49.024],[10.419,49.024],[10.419,49.039],[10.455,49.043]],[[10.47,49.055],[10.476,49.06],[10.507,49.051],[10.507,49.045],[10.491,49.041],[10.47,49.055]],[[10.222,49.118],[10.192,49.126],[10.206,49.147],[10.217,49.149],[10.218,49.161],[10.248,49.149],[10.255,49.13],[10.222,49.118]],[[10.185,49.111],[10.2,49.102],[10.194,49.097],[10.176,49.104],[10.185,49.111]],[[10.153,49.12],[10.17,49.113],[10.155,49.108],[10.149,49.112],[10.153,49.12]],[[10.427,49.223],[10.403,49.23],[10.367,49.22],[10.345,49.225],[10.353,49.243],[10.372,49.244],[10.39,49.261],[10.439,49.258],[10.44,49.278],[10.456,49.284],[10.463,49.276],[10.479,49.277],[10.477,49.267],[10.516,49.258],[10.537,49.262],[10.581,49.249],[10.564,49.201],[10.578,49.177],[10.491,49.192],[10.486,49.202],[10.5,49.211],[10.466,49.206],[10.427,49.223]],[[10.69,49.135],[10.672,49.113],[10.647,49.117],[10.631,49.103],[10.622,49.122],[10.585,49.127],[10.58,49.156],[10.647,49.164],[10.61,49.179],[10.66,49.197],[10.69,49.135]],[[10.744,49.028],[10.695,49.028],[10.684,49.043],[10.668,49.045],[10.667,49.053],[10.68,49.056],[10.676,49.065],[10.699,49.071],[10.742,49.058],[10.734,49.051],[10.744,49.028]],[[10.882,49.153],[10.921,49.134],[10.912,49.127],[10.873,49.134],[10.858,49.13],[10.854,49.135],[10.882,49.153]],[[11.093,49.038],[11.075,49.064],[11.109,49.074],[11.131,49.053],[11.093,49.038]],[[10.89,49.087],[10.915,49.064],[10.884,49.06],[10.881,49.074],[10.89,49.087]],[[10.936,49.333],[10.947,49.35],[10.933,49.353],[10.937,49.377],[10.954,49.384],[10.973,49.379],[10.975,49.396],[10.993,49.395],[10.996,49.371],[10.972,49.36],[10.968,49.347],[10.999,49.336],[10.962,49.326],[10.936,49.333]],[[10.671,49.287],[10.653,49.286],[10.652,49.299],[10.69,49.31],[10.735,49.301],[10.742,49.283],[10.766,49.288],[10.78,49.28],[10.774,49.259],[10.735,49.245],[10.718,49.247],[10.679,49.231],[10.621,49.235],[10.628,49.246],[10.655,49.252],[10.671,49.287]],[[10.936,49.208],[10.937,49.223],[10.947,49.227],[10.948,49.249],[10.994,49.265],[11.03,49.232],[10.972,49.208],[10.936,49.208]],[[10.791,49.222],[10.811,49.218],[10.806,49.209],[10.787,49.212],[10.791,49.222]],[[10.478,49.397],[10.479,49.407],[10.431,49.424],[10.47,49.451],[10.559,49.451],[10.542,49.437],[10.545,49.426],[10.524,49.416],[10.536,49.409],[10.543,49.415],[10.587,49.412],[10.585,49.392],[10.478,49.397]],[[10.729,49.455],[10.71,49.465],[10.682,49.465],[10.683,49.472],[10.703,49.473],[10.713,49.494],[10.734,49.488],[10.747,49.456],[10.729,49.455]],[[10.973,49.523],[10.985,49.52],[10.989,49.497],[11.012,49.494],[11.018,49.481],[11.012,49.459],[11.03,49.43],[11.046,49.429],[11.059,49.414],[11.005,49.414],[10.975,49.455],[10.929,49.445],[10.902,49.459],[10.956,49.478],[10.951,49.505],[10.973,49.523]]],[[[10.998,48.87],[11.037,48.9],[11.035,48.91],[10.996,48.929],[10.942,48.906],[10.955,48.881],[10.936,48.857],[10.977,48.857],[10.979,48.872],[10.998,48.87]]],[[[10.072,49.588],[10.223,49.584],[10.201,49.593],[10.202,49.604],[10.174,49.598],[10.162,49.622],[10.184,49.652],[10.187,49.679],[10.21,49.679],[10.216,49.694],[10.234,49.695],[10.239,49.714],[10.219,49.725],[10.159,49.723],[10.123,49.696],[10.179,49.687],[10.148,49.649],[10.097,49.655],[10.061,49.647],[10.068,49.624],[10.088,49.625],[10.072,49.607],[10.072,49.588]]]]}},{"type":"Feature","properties":{"NAME":"County of Drenthe","SUBJECTO":"Holy Roman Empire","PARTOF":"Holy Roman Empire","ADMIN_LEVEL":5,"OHM_RELATION_ID":2831685,"START_DATE":"1046","END_DATE":"1536-08-05"},"geometry":{"type":"MultiPolygon","coordinates":[[[[6.953,52.639],[6.976,52.646],[7.042,52.633],[7.056,52.643],[7.072,52.81],[7.093,52.838],[7.087,52.85],[7.059,52.864],[7.035,52.922],[6.77,53.101],[6.759,53.149],[6.622,53.228],[6.595,53.256],[6.549,53.251],[6.532,53.212],[6.481,53.209],[6.416,53.18],[6.381,53.15],[6.362,53.096],[6.312,53.092],[6.305,53.082],[6.358,53.066],[6.364,53.026],[6.434,52.976],[6.413,52.945],[6.338,52.908],[6.292,52.93],[6.25,52.924],[6.207,52.891],[6.117,52.851],[6.181,52.804],[6.215,52.798],[6.213,52.772],[6.134,52.734],[6.152,52.688],[6.333,52.661],[6.382,52.614],[6.522,52.618],[6.517,52.647],[6.601,52.672],[6.708,52.649],[6.702,52.628],[6.742,52.645],[6.79,52.652],[6.817,52.647],[6.873,52.654],[6.914,52.646],[6.918,52.64],[6.953,52.639]]]]}},{"type":"Feature","properties":{"NAME":"County of Horne","SUBJECTO":"Holy Roman Empire","PARTOF":"Holy Roman Empire","ADMIN_LEVEL":5,"OHM_RELATION_ID":2831137,"START_DATE":"0920","END_DATE":"1797-10-17"},"geometry":{"type":"MultiPolygon","coordinates":[[[[5.906,51.3],[5.906,51.294],[5.858,51.311],[5.844,51.278],[5.834,51.274],[5.841,51.25],[5.859,51.24],[5.893,51.24],[5.893,51.217],[5.876,51.182],[5.858,51.181],[5.872,51.168],[5.923,51.172],[5.917,51.174],[5.934,51.188],[5.977,51.202],[5.968,51.22],[6.006,51.231],[5.999,51.249],[6.007,51.255],[6.009,51.278],[5.925,51.309],[5.906,51.3]]]]}},{"type":"Feature","properties":{"NAME":"County of Leiningen","SUBJECTO":"Holy Roman Empire","PARTOF":"Holy Roman Empire","ADMIN_LEVEL":4,"OHM_RELATION_ID":2830777,"START_DATE":"1093","END_DATE":"1797-10-17"},"geometry":{"type":"MultiPolygon","coordinates":[[[[7.524,49.333],[7.528,49.299],[7.556,49.273],[7.568,49.276],[7.575,49.291],[7.564,49.311],[7.584,49.335],[7.582,49.345],[7.56,49.357],[7.524,49.333]]],[[[7.701,49.498],[7.738,49.473],[7.754,49.476],[7.755,49.491],[7.716,49.504],[7.701,49.498]]],[[[7.831,49.373],[7.848,49.367],[7.876,49.376],[7.885,49.388],[7.905,49.394],[7.919,49.388],[7.939,49.409],[7.93,49.421],[7.921,49.42],[7.891,49.402],[7.88,49.41],[7.833,49.387],[7.831,49.373]]],[[[7.845,49.134],[7.854,49.132],[7.86,49.117],[7.906,49.118],[7.921,49.129],[7.899,49.149],[7.91,49.164],[7.901,49.175],[7.875,49.153],[7.863,49.156],[7.865,49.144],[7.845,49.134]]],[[[7.888,49.191],[7.906,49.189],[7.915,49.178],[7.938,49.177],[7.951,49.186],[7.918,49.21],[7.888,49.191]]],[[[7.926,50.576],[7.933,50.565],[7.956,50.563],[7.969,50.552],[7.967,50.536],[7.996,50.525],[8.04,50.553],[8.026,50.573],[7.993,50.575],[7.991,50.594],[7.971,50.601],[7.926,50.576]]],[[[7.929,49.595],[7.938,49.588],[7.97,49.595],[7.977,49.608],[7.944,49.606],[7.929,49.595]]],[[[7.943,49.453],[7.959,49.442],[7.978,49.451],[7.982,49.443],[7.995,49.442],[7.996,49.449],[8.007,49.448],[8.017,49.458],[8.028,49.446],[7.995,49.433],[8.021,49.433],[7.995,49.423],[8.011,49.418],[8.025,49.423],[8.019,49.392],[7.988,49.391],[8.024,49.366],[8.049,49.375],[8.044,49.389],[8.024,49.397],[8.06,49.402],[8.087,49.438],[8.132,49.453],[8.115,49.461],[8.134,49.467],[8.159,49.463],[8.161,49.455],[8.221,49.463],[8.219,49.468],[8.251,49.482],[8.258,49.495],[8.195,49.495],[8.184,49.501],[8.192,49.504],[8.189,49.518],[8.174,49.517],[8.168,49.526],[8.216,49.525],[8.205,49.556],[8.19,49.555],[8.186,49.581],[8.21,49.583],[8.21,49.594],[8.234,49.604],[8.215,49.602],[8.205,49.612],[8.232,49.618],[8.207,49.653],[8.191,49.652],[8.194,49.636],[8.184,49.635],[8.188,49.619],[8.129,49.612],[8.121,49.621],[8.088,49.611],[8.078,49.59],[8.087,49.576],[8.115,49.585],[8.128,49.574],[8.124,49.568],[8.094,49.563],[8.101,49.554],[8.08,49.545],[8.097,49.536],[8.135,49.562],[8.136,49.555],[8.149,49.554],[8.156,49.544],[8.153,49.543],[8.154,49.541],[8.085,49.513],[8.075,49.519],[8.089,49.524],[8.08,49.533],[8.042,49.519],[8.011,49.509],[8.002,49.499],[7.957,49.489],[7.95,49.484],[7.957,49.463],[7.943,49.453]]],[[[8.029,49.831],[8.03,49.809],[8.05,49.801],[8.063,49.817],[8.058,49.836],[8.04,49.84],[8.029,49.831]]],[[[8.051,49.252],[8.076,49.244],[8.109,49.247],[8.083,49.256],[8.051,49.252]]],[[[8.15,50.413],[8.162,50.407],[8.178,50.409],[8.176,50.418],[8.164,50.421],[8.15,50.413]]],[[[8.197,49.722],[8.203,49.713],[8.27,49.724],[8.338,49.724],[8.338,49.737],[8.291,49.744],[8.216,49.73],[8.197,49.722]]],[[[8.215,49.819],[8.259,49.788],[8.355,49.783],[8.4,49.803],[8.385,49.817],[8.332,49.811],[8.33,49.83],[8.271,49.805],[8.224,49.822],[8.215,49.819]]],[[[8.235,49.829],[8.261,49.823],[8.279,49.833],[8.279,49.842],[8.238,49.841],[8.235,49.829]]],[[[8.276,49.423],[8.283,49.393],[8.291,49.394],[8.308,49.43],[8.28,49.434],[8.276,49.423]]]]}},{"type":"Feature","properties":{"NAME":"County of Montbéliard","SUBJECTO":"Holy Roman Empire","PARTOF":"Holy Roman Empire","ADMIN_LEVEL":5,"OHM_RELATION_ID":2812115,"START_DATE":"1042","END_DATE":"1796-08-07"},"geometry":{"type":"MultiPolygon","coordinates":[[[[6.714,47.471],[6.728,47.481],[6.774,47.473],[6.779,47.482],[6.799,47.485],[6.838,47.482],[6.843,47.472],[6.884,47.467],[6.912,47.476],[6.908,47.489],[6.915,47.498],[6.931,47.499],[6.937,47.483],[6.953,47.48],[6.954,47.512],[6.912,47.525],[6.918,47.531],[6.91,47.546],[6.891,47.555],[6.835,47.544],[6.802,47.547],[6.787,47.533],[6.755,47.541],[6.732,47.56],[6.748,47.584],[6.721,47.607],[6.686,47.613],[6.68,47.626],[6.692,47.633],[6.686,47.661],[6.664,47.665],[6.628,47.687],[6.589,47.675],[6.61,47.662],[6.626,47.626],[6.655,47.617],[6.669,47.596],[6.654,47.587],[6.664,47.578],[6.654,47.57],[6.669,47.556],[6.654,47.54],[6.686,47.515],[6.676,47.507],[6.678,47.486],[6.669,47.471],[6.693,47.462],[6.714,47.471]]],[[[6.794,47.454],[6.787,47.419],[6.793,47.41],[6.812,47.417],[6.833,47.439],[6.83,47.453],[6.794,47.454]]],[[[6.66,47.478],[6.639,47.491],[6.618,47.484],[6.615,47.473],[6.63,47.463],[6.647,47.466],[6.66,47.478]]]]}},{"type":"Feature","properties":{"NAME":"County/Principality of Neuchâtel","SUBJECTO":"Holy Roman Empire","PARTOF":"Holy Roman Empire","ADMIN_LEVEL":5,"OHM_RELATION_ID":2748494,"START_DATE":"1011","END_DATE":"1648-10-24"},"geometry":{"type":"MultiPolygon","coordinates":[[[[6.436,46.921],[6.465,46.89],[6.461,46.855],[6.484,46.847],[6.63,46.889],[6.654,46.914],[6.722,46.934],[6.719,46.904],[6.741,46.895],[6.738,46.871],[6.754,46.87],[6.779,46.854],[7.002,46.988],[7.038,46.98],[7.027,47.006],[7.035,47.014],[7.033,47.033],[7.088,47.06],[7.077,47.076],[7.089,47.083],[7.076,47.096],[7.041,47.109],[7.029,47.104],[7.024,47.113],[7.041,47.124],[7.028,47.127],[6.931,47.108],[6.869,47.087],[6.889,47.131],[6.862,47.166],[6.806,47.131],[6.741,47.11],[6.747,47.099],[6.739,47.091],[6.703,47.082],[6.707,47.074],[6.695,47.063],[6.723,47.047],[6.714,47.044],[6.712,47.022],[6.69,47.009],[6.609,46.983],[6.505,46.966],[6.497,46.974],[6.433,46.929],[6.436,46.921]]]]}},{"type":"Feature","properties":{"NAME":"Duchy of Bavaria","SUBJECTO":"Holy Roman Empire","PARTOF":"Holy Roman Empire","ADMIN_LEVEL":4,"OHM_RELATION_ID":2805255,"START_DATE":"0962","END_DATE":"1100"},"geometry":{"type":"MultiPolygon","coordinates":[[[[10.101,46.984],[10.152,46.853],[10.232,46.873],[10.24,46.93],[10.307,46.926],[10.349,46.99],[10.392,47],[10.428,46.974],[10.424,46.959],[10.485,46.943],[10.486,46.911],[10.452,46.809],[10.423,46.777],[10.417,46.708],[10.384,46.688],[10.405,46.634],[10.488,46.622],[10.491,46.563],[10.453,46.531],[10.479,46.494],[10.546,46.493],[10.596,46.469],[10.621,46.448],[10.765,46.487],[10.799,46.444],[10.862,46.434],[11.094,46.537],[11.19,46.507],[11.22,46.469],[11.205,46.35],[11.167,46.292],[11.244,46.232],[11.34,46.297],[11.452,46.336],[11.484,46.36],[11.558,46.349],[11.563,46.38],[11.601,46.387],[11.645,46.491],[11.716,46.512],[11.748,46.505],[11.828,46.509],[11.944,46.529],[11.949,46.54],[11.99,46.546],[11.997,46.534],[12.047,46.584],[12.044,46.607],[12.064,46.622],[12.075,46.643],[12.066,46.654],[12.07,46.675],[12.142,46.636],[12.161,46.637],[12.183,46.621],[12.194,46.622],[12.193,46.598],[12.197,46.598],[12.211,46.61],[12.229,46.614],[12.243,46.621],[12.244,46.624],[12.261,46.63],[12.284,46.617],[12.307,46.619],[12.315,46.63],[12.323,46.631],[12.37,46.664],[12.36,46.69],[12.281,46.728],[12.28,46.735],[12.311,46.757],[12.31,46.784],[12.286,46.784],[12.305,46.835],[12.277,46.885],[12.247,46.891],[12.219,46.878],[12.192,46.905],[12.15,46.911],[12.162,46.959],[12.132,47.024],[12.192,47.068],[12.253,47.089],[12.285,47.136],[12.332,47.127],[12.393,47.164],[12.5,47.165],[12.607,47.136],[12.633,47.117],[12.73,47.136],[12.744,47.102],[12.94,47.08],[12.962,47.041],[13.068,47.018],[13.247,47.051],[13.243,47.087],[13.368,47.103],[13.403,47.065],[13.535,47.021],[13.749,47.002],[13.854,46.923],[13.909,46.952],[13.982,46.951],[14.063,46.991],[14.067,47.032],[14.211,47.069],[14.233,47.105],[14.205,47.14],[14.156,47.169],[14.106,47.235],[14.08,47.295],[14.032,47.346],[13.94,47.41],[13.747,47.506],[13.833,47.581],[13.968,47.611],[14.057,47.66],[14.16,47.651],[14.332,47.67],[14.334,47.79],[14.281,47.815],[14.284,47.844],[14.361,47.861],[14.389,47.915],[14.528,47.89],[14.659,47.828],[14.729,47.825],[14.759,47.77],[14.81,47.761],[14.851,47.772],[14.924,47.759],[14.988,47.773],[15.027,47.773],[15.079,47.795],[15.152,47.781],[15.261,47.794],[15.297,47.846],[15.395,47.843],[15.441,47.82],[15.5,47.827],[15.6,47.799],[15.653,47.818],[15.631,47.877],[15.657,47.904],[15.759,47.935],[15.812,47.989],[15.886,47.997],[15.93,48.034],[15.897,48.068],[15.965,48.139],[15.958,48.205],[16.03,48.269],[16.125,48.322],[16.16,48.363],[16.254,48.364],[16.33,48.33],[16.346,48.25],[16.458,48.173],[16.653,48.108],[16.735,48.128],[16.798,48.113],[16.907,48.13],[16.976,48.172],[16.911,48.313],[16.844,48.359],[16.857,48.468],[16.941,48.539],[16.947,48.618],[16.858,48.63],[16.779,48.683],[16.762,48.72],[16.682,48.722],[16.572,48.751],[16.518,48.756],[16.452,48.72],[16.362,48.707],[16.277,48.708],[16.201,48.721],[16.147,48.739],[16.102,48.741],[15.966,48.796],[15.96,48.821],[15.781,48.876],[15.76,48.852],[15.719,48.842],[15.677,48.86],[15.616,48.918],[15.555,48.913],[15.498,48.964],[15.437,48.955],[15.399,48.972],[15.361,48.964],[15.353,48.986],[15.323,48.98],[15.295,48.956],[15.215,48.941],[15.197,48.953],[15.215,48.964],[15.203,48.975],[15.094,48.98],[15.068,49.014],[14.996,49.008],[14.974,48.944],[14.989,48.9],[14.945,48.894],[14.892,48.911],[14.874,48.84],[14.811,48.794],[14.735,48.699],[14.705,48.585],[14.662,48.584],[14.613,48.63],[14.558,48.607],[14.478,48.648],[14.45,48.643],[14.435,48.589],[14.387,48.595],[14.333,48.553],[14.267,48.584],[14.052,48.606],[14.018,48.645],[14.053,48.654],[14.061,48.675],[14.002,48.705],[13.941,48.725],[13.872,48.772],[13.833,48.773],[13.84,48.772],[13.821,48.755],[13.82,48.733],[13.799,48.712],[13.812,48.702],[13.837,48.7],[13.833,48.692],[13.813,48.692],[13.819,48.672],[13.814,48.65],[13.826,48.63],[13.824,48.618],[13.802,48.595],[13.802,48.574],[13.768,48.554],[13.755,48.564],[13.744,48.542],[13.749,48.532],[13.727,48.513],[13.715,48.512],[13.72,48.506],[13.7,48.479],[13.704,48.476],[13.696,48.472],[13.677,48.484],[13.68,48.491],[13.654,48.504],[13.637,48.528],[13.643,48.539],[13.639,48.544],[13.657,48.544],[13.654,48.549],[13.597,48.57],[13.573,48.561],[13.516,48.591],[13.505,48.587],[13.504,48.572],[13.475,48.562],[13.475,48.556],[13.45,48.564],[13.436,48.553],[13.457,48.511],[13.447,48.494],[13.435,48.497],[13.41,48.476],[13.387,48.473],[13.383,48.487],[13.362,48.488],[13.362,48.531],[13.39,48.542],[13.401,48.567],[13.438,48.566],[13.45,48.576],[13.408,48.578],[13.385,48.595],[13.267,48.608],[13.266,48.644],[13.242,48.655],[13.234,48.671],[13.238,48.686],[13.271,48.694],[13.308,48.68],[13.342,48.676],[13.348,48.689],[13.367,48.688],[13.372,48.67],[13.381,48.67],[13.39,48.682],[13.437,48.677],[13.451,48.688],[13.455,48.718],[13.425,48.756],[13.449,48.79],[13.44,48.81],[13.449,48.818],[13.447,48.831],[13.461,48.832],[13.47,48.843],[13.449,48.848],[13.453,48.856],[13.507,48.863],[13.522,48.879],[13.523,48.898],[13.507,48.923],[13.515,48.937],[13.507,48.957],[13.488,48.937],[13.402,48.976],[13.418,49.009],[13.344,49.094],[13.299,49.126],[13.223,49.119],[13.171,49.182],[13.067,49.268],[13.033,49.267],[13.037,49.307],[12.91,49.343],[12.793,49.344],[12.717,49.426],[12.673,49.427],[12.646,49.479],[12.651,49.522],[12.588,49.73],[12.5,49.716],[12.464,49.831],[12.478,49.903],[12.519,49.99],[12.494,50.108],[12.437,50.168],[12.557,50.238],[12.557,50.305],[12.497,50.366],[12.401,50.37],[12.327,50.416],[12.095,50.382],[12.106,50.348],[12.085,50.272],[12.037,50.225],[11.883,50.116],[11.824,50.057],[11.846,49.992],[11.808,49.956],[11.787,49.863],[11.757,49.83],[11.683,49.779],[11.593,49.77],[11.522,49.753],[11.449,49.702],[11.353,49.674],[11.265,49.621],[11.253,49.586],[11.169,49.586],[11.164,49.595],[11.09,49.615],[11.012,49.602],[11.069,49.608],[11.128,49.587],[11.122,49.581],[11.011,49.583],[11.025,49.569],[11.022,49.556],[11.165,49.547],[11.312,49.354],[11.356,49.322],[11.327,49.3],[11.307,49.298],[11.291,49.312],[11.262,49.312],[11.255,49.323],[11.231,49.323],[11.239,49.309],[11.231,49.306],[11.211,49.317],[11.177,49.283],[11.228,49.248],[11.203,49.226],[11.215,49.211],[11.067,49.154],[11.05,49.175],[11.018,49.173],[11.039,49.109],[11.062,49.086],[11.073,49.099],[11.099,49.079],[11.207,49.084],[11.189,49.108],[11.222,49.15],[11.288,49.097],[11.288,49.079],[11.304,49.068],[11.252,49.049],[11.216,49.056],[11.223,49.039],[11.206,49.034],[11.191,49.051],[11.17,49.049],[11.168,49.031],[11.121,49.029],[11.129,49.021],[11.113,48.978],[11.125,48.89],[11.106,48.82],[11.018,48.822],[10.904,48.811],[10.829,48.755],[10.867,48.734],[10.938,48.726],[10.996,48.732],[10.96,48.679],[10.911,48.516],[10.904,48.456],[10.974,48.428],[10.984,48.381],[11.025,48.375],[11.093,48.325],[11.017,48.025],[11.085,47.889],[10.968,47.815],[10.926,47.756],[10.916,47.662],[10.896,47.614],[10.915,47.614],[10.927,47.567],[10.854,47.5],[10.842,47.451],[10.758,47.413],[10.753,47.363],[10.709,47.353],[10.643,47.311],[10.583,47.301],[10.466,47.199],[10.429,47.225],[10.268,47.207],[10.248,47.173],[10.21,47.179],[10.121,47.137],[10.101,46.984]],[[12.58,49.165],[12.597,49.168],[12.603,49.204],[12.631,49.207],[12.611,49.214],[12.601,49.224],[12.6,49.244],[12.589,49.245],[12.615,49.288],[12.611,49.312],[12.623,49.316],[12.624,49.337],[12.652,49.347],[12.665,49.322],[12.689,49.317],[12.713,49.292],[12.726,49.315],[12.779,49.326],[12.805,49.307],[12.807,49.295],[12.832,49.296],[12.848,49.275],[12.817,49.263],[12.798,49.266],[12.792,49.258],[12.817,49.211],[12.795,49.209],[12.78,49.194],[12.747,49.2],[12.741,49.167],[12.722,49.164],[12.71,49.125],[12.713,49.107],[12.65,49.1],[12.639,49.083],[12.621,49.094],[12.602,49.093],[12.596,49.115],[12.583,49.121],[12.58,49.165]],[[13.288,48.338],[13.357,48.369],[13.376,48.357],[13.32,48.319],[13.288,48.338]]],[[[10.99,49.497],[10.991,49.486],[11.004,49.422],[11.011,49.414],[11.059,49.414],[11.046,49.429],[11.03,49.43],[11.012,49.459],[11.018,49.481],[11.012,49.494],[10.99,49.497]]],[[[11.083,49.066],[11.106,49.043],[11.131,49.053],[11.109,49.074],[11.083,49.066]]],[[[13.437,48.637],[13.491,48.574],[13.483,48.6],[13.502,48.609],[13.532,48.606],[13.536,48.63],[13.437,48.637]]],[[[13.592,48.957],[13.606,48.941],[13.624,48.948],[13.592,48.957]]],[[[13.734,48.885],[13.768,48.833],[13.786,48.83],[13.734,48.885]]]]}},{"type":"Feature","properties":{"NAME":"Duchy of Bohemia","SUBJECTO":"Holy Roman Empire","PARTOF":"Holy Roman Empire","ADMIN_LEVEL":4,"OHM_RELATION_ID":2805282,"START_DATE":"1017","END_DATE":"1100"},"geometry":{"type":"Polygon","coordinates":[[[12.437,50.168],[12.494,50.108],[12.519,49.99],[12.478,49.903],[12.464,49.831],[12.5,49.716],[12.588,49.73],[12.651,49.522],[12.646,49.479],[12.673,49.427],[12.717,49.426],[12.793,49.344],[12.91,49.343],[13.037,49.307],[13.033,49.267],[13.067,49.268],[13.171,49.182],[13.223,49.119],[13.299,49.126],[13.344,49.094],[13.418,49.009],[13.402,48.976],[13.488,48.937],[13.507,48.957],[13.506,48.96],[13.512,48.969],[13.519,48.969],[13.526,48.976],[13.546,48.97],[13.58,48.971],[13.592,48.957],[13.624,48.948],[13.625,48.949],[13.625,48.948],[13.632,48.946],[13.625,48.937],[13.652,48.905],[13.676,48.879],[13.693,48.879],[13.727,48.884],[13.733,48.887],[13.734,48.885],[13.786,48.83],[13.793,48.829],[13.794,48.821],[13.816,48.799],[13.815,48.797],[13.814,48.796],[13.807,48.78],[13.833,48.773],[13.872,48.772],[13.941,48.725],[14.002,48.705],[14.061,48.675],[14.053,48.654],[14.018,48.645],[14.052,48.606],[14.267,48.584],[14.333,48.553],[14.387,48.595],[14.435,48.589],[14.45,48.643],[14.478,48.648],[14.558,48.607],[14.613,48.63],[14.662,48.584],[14.705,48.585],[14.735,48.699],[14.811,48.794],[14.874,48.84],[14.892,48.911],[14.945,48.894],[14.989,48.9],[14.974,48.944],[14.996,49.008],[15.068,49.014],[15.094,48.98],[15.203,48.975],[15.215,48.964],[15.197,48.953],[15.215,48.941],[15.295,48.956],[15.323,48.98],[15.353,48.986],[15.361,48.964],[15.399,48.972],[15.437,48.955],[15.498,48.964],[15.555,48.913],[15.616,48.918],[15.677,48.86],[15.719,48.842],[15.76,48.852],[15.781,48.876],[15.96,48.821],[15.966,48.796],[16.102,48.741],[16.147,48.739],[16.201,48.721],[16.277,48.708],[16.362,48.707],[16.452,48.72],[16.518,48.756],[16.572,48.751],[16.682,48.722],[16.762,48.72],[16.779,48.683],[16.858,48.63],[16.947,48.618],[16.981,48.683],[17.043,48.762],[17.087,48.782],[17.118,48.829],[17.206,48.876],[17.381,48.81],[17.464,48.84],[17.501,48.81],[17.711,48.861],[17.792,48.928],[17.886,48.93],[17.931,49.023],[18.081,49.042],[18.134,49.236],[18.188,49.287],[18.381,49.326],[18.413,49.371],[18.406,49.398],[18.439,49.395],[18.546,49.469],[18.462,49.455],[18.366,49.566],[18.36,49.666],[18.318,49.689],[18.283,49.788],[18.276,49.864],[18.321,49.894],[18.345,49.943],[18.266,49.991],[18.176,49.994],[18.122,50.031],[18.082,50.121],[18.041,50.16],[18,50.245],[17.939,50.264],[17.732,50.173],[17.666,50.183],[17.582,50.209],[17.483,50.194],[17.409,50.239],[17.354,50.253],[17.205,50.221],[17.018,50.247],[17.005,50.254],[17.022,50.283],[16.969,50.315],[16.944,50.315],[16.91,50.39],[16.871,50.409],[16.826,50.396],[16.483,50.679],[16.383,50.638],[16.339,50.665],[16.232,50.671],[16.216,50.635],[16.181,50.629],[16.1,50.663],[16.026,50.598],[15.988,50.613],[16.012,50.632],[15.983,50.696],[15.873,50.671],[15.818,50.754],[15.716,50.737],[15.438,50.813],[15.387,50.775],[15.359,50.855],[15.279,50.896],[14.865,50.835],[14.648,50.87],[14.623,50.971],[14.389,50.974],[14.359,50.917],[14.197,50.856],[13.825,50.771],[13.633,50.749],[13.564,50.683],[13.537,50.622],[13.45,50.624],[13.395,50.654],[13.307,50.624],[13.149,50.513],[13.064,50.54],[13.024,50.437],[12.881,50.441],[12.8,50.41],[12.704,50.406],[12.66,50.425],[12.511,50.391],[12.497,50.366],[12.557,50.305],[12.557,50.238],[12.437,50.168]]]}},{"type":"Feature","properties":{"NAME":"Duchy of Franconia","SUBJECTO":"Holy Roman Empire","PARTOF":"Holy Roman Empire","ADMIN_LEVEL":4,"OHM_RELATION_ID":2890059,"START_DATE":"0939-10-02","END_DATE":"1168"},"geometry":{"type":"MultiPolygon","coordinates":[[[[7.092,49.764],[7.144,49.713],[7.233,49.693],[7.277,49.652],[7.274,49.624],[7.243,49.595],[7.27,49.56],[7.256,49.549],[7.256,49.534],[7.21,49.546],[7.18,49.543],[7.188,49.508],[7.215,49.488],[7.227,49.469],[7.292,49.469],[7.322,49.447],[7.393,49.449],[7.445,49.411],[7.449,49.397],[7.487,49.392],[7.506,49.373],[7.507,49.349],[7.537,49.35],[7.542,49.345],[7.56,49.357],[7.582,49.345],[7.584,49.335],[7.571,49.32],[7.572,49.319],[7.603,49.312],[7.626,49.279],[7.659,49.275],[7.711,49.233],[7.695,49.134],[7.728,49.128],[7.777,49.104],[7.821,49.095],[7.877,49.064],[7.876,49.043],[7.902,49.011],[7.971,48.998],[8.032,48.963],[8.194,48.964],[8.203,48.941],[8.133,48.829],[8.182,48.804],[8.267,48.792],[8.356,48.664],[8.407,48.653],[8.447,48.676],[8.48,48.67],[8.519,48.686],[8.535,48.751],[8.674,48.76],[8.803,48.72],[8.847,48.764],[8.915,48.791],[8.951,48.773],[8.995,48.805],[9.119,48.819],[9.132,48.878],[9.363,48.882],[9.369,48.899],[9.439,48.892],[9.476,48.918],[9.597,48.92],[9.638,48.96],[9.759,48.977],[9.849,49.004],[9.966,49.009],[10.022,49.043],[10.102,49.027],[10.16,49.051],[10.169,49.077],[10.157,49.075],[10.161,49.066],[10.151,49.065],[10.142,49.076],[10.111,49.074],[10.095,49.092],[10.097,49.102],[10.05,49.077],[10.014,49.078],[10.019,49.096],[10,49.095],[9.946,49.123],[9.946,49.139],[9.973,49.158],[9.96,49.158],[9.957,49.169],[9.984,49.174],[9.989,49.188],[10.01,49.178],[10.021,49.183],[10.011,49.193],[10.031,49.206],[10.02,49.212],[10.019,49.229],[9.996,49.245],[9.975,49.233],[9.957,49.24],[9.904,49.234],[9.876,49.24],[9.875,49.256],[9.99,49.261],[9.975,49.272],[9.955,49.273],[9.953,49.284],[9.938,49.287],[9.922,49.325],[9.948,49.325],[9.978,49.31],[10.036,49.32],[10.06,49.311],[10.06,49.294],[10.04,49.296],[10.046,49.271],[10.037,49.259],[10.059,49.247],[10.085,49.257],[10.114,49.241],[10.168,49.229],[10.164,49.239],[10.234,49.257],[10.3,49.259],[10.295,49.264],[10.319,49.279],[10.318,49.292],[10.338,49.299],[10.317,49.311],[10.305,49.304],[10.298,49.311],[10.307,49.324],[10.271,49.338],[10.279,49.346],[10.266,49.352],[10.253,49.384],[10.265,49.389],[10.257,49.403],[10.269,49.404],[10.276,49.419],[10.289,49.419],[10.307,49.433],[10.288,49.451],[10.245,49.461],[10.221,49.476],[10.171,49.484],[10.173,49.468],[10.095,49.462],[10.089,49.449],[10.122,49.446],[10.143,49.429],[10.116,49.422],[10.098,49.438],[10.084,49.434],[10.064,49.447],[10.055,49.434],[10.021,49.443],[10.009,49.425],[9.986,49.431],[9.993,49.446],[9.975,49.481],[10.02,49.485],[10.028,49.503],[10.049,49.507],[10.059,49.519],[10.041,49.529],[10.061,49.537],[10.062,49.545],[10.088,49.541],[10.099,49.529],[10.125,49.531],[10.231,49.558],[10.263,49.554],[10.292,49.566],[10.325,49.564],[10.314,49.548],[10.321,49.534],[10.359,49.534],[10.4,49.488],[10.372,49.483],[10.387,49.465],[10.412,49.474],[10.432,49.504],[10.415,49.504],[10.384,49.525],[10.384,49.542],[10.397,49.542],[10.395,49.552],[10.491,49.596],[10.537,49.596],[10.524,49.62],[10.486,49.632],[10.561,49.677],[10.605,49.677],[10.64,49.687],[10.665,49.682],[10.702,49.694],[10.793,49.66],[10.846,49.663],[10.866,49.636],[10.813,49.622],[10.828,49.604],[10.852,49.604],[10.835,49.592],[10.866,49.547],[10.835,49.534],[10.869,49.52],[10.903,49.534],[10.926,49.523],[10.937,49.545],[10.898,49.555],[10.917,49.574],[10.953,49.567],[10.971,49.583],[10.989,49.616],[10.971,49.623],[10.976,49.661],[11.034,49.673],[11.061,49.663],[11.034,49.645],[11.012,49.602],[11.09,49.615],[11.164,49.595],[11.169,49.586],[11.253,49.586],[11.265,49.621],[11.353,49.674],[11.449,49.702],[11.522,49.753],[11.593,49.77],[11.683,49.779],[11.757,49.83],[11.787,49.863],[11.808,49.956],[11.846,49.992],[11.824,50.057],[11.883,50.116],[12.037,50.225],[12.085,50.272],[12.106,50.348],[12.095,50.382],[11.979,50.455],[11.746,50.453],[11.651,50.434],[11.543,50.434],[11.471,50.46],[11.378,50.467],[11.275,50.496],[11.045,50.488],[10.968,50.515],[10.931,50.553],[10.942,50.588],[10.97,50.615],[10.923,50.654],[10.683,50.711],[10.511,50.77],[10.467,50.829],[10.413,50.85],[10.367,50.825],[10.346,50.735],[10.284,50.744],[10.169,50.731],[10.093,50.743],[10.097,50.74],[10.076,50.72],[10.079,50.707],[10.043,50.734],[10.048,50.748],[10.047,50.749],[10.046,50.749],[10.032,50.759],[9.988,50.766],[9.969,50.783],[9.944,50.771],[9.955,50.786],[9.944,50.794],[9.957,50.81],[9.952,50.821],[9.899,50.817],[9.892,50.811],[9.896,50.79],[9.881,50.796],[9.812,50.794],[9.799,50.806],[9.807,50.814],[9.791,50.82],[9.74,50.807],[9.729,50.82],[9.7,50.813],[9.695,50.8],[9.629,50.78],[9.602,50.759],[9.56,50.763],[9.553,50.784],[9.501,50.81],[9.511,50.828],[9.507,50.834],[9.518,50.839],[9.495,50.875],[9.547,50.895],[9.561,50.913],[9.597,50.93],[9.616,50.922],[9.692,50.926],[9.712,50.91],[9.753,50.909],[9.755,50.896],[9.748,50.899],[9.73,50.886],[9.813,50.857],[9.934,50.864],[9.953,50.858],[9.89,50.938],[9.896,51.007],[9.842,51.053],[9.794,51.073],[9.772,51.188],[9.79,51.219],[9.77,51.289],[9.713,51.321],[9.69,51.398],[9.734,51.402],[9.726,51.421],[9.657,51.445],[9.551,51.421],[9.502,51.429],[9.474,51.454],[9.227,51.45],[9.025,51.339],[9.017,51.286],[8.895,51.279],[8.656,51.091],[8.604,51.099],[8.527,51.074],[8.468,51.087],[8.461,51.138],[8.341,51.131],[8.31,51.097],[8.234,51.084],[8.201,51.096],[8.177,51.026],[7.944,51.02],[7.939,50.974],[7.951,50.952],[7.933,50.927],[7.858,50.935],[7.84,50.854],[7.813,50.825],[7.795,50.752],[7.914,50.737],[7.953,50.696],[7.944,50.661],[7.885,50.658],[7.839,50.605],[7.77,50.597],[7.695,50.665],[7.646,50.68],[7.539,50.669],[7.457,50.575],[7.399,50.443],[7.523,50.416],[7.578,50.347],[7.633,50.154],[7.325,50.025],[7.221,49.917],[7.232,49.849],[7.202,49.806],[7.147,49.779],[7.092,49.764]],[[7.701,49.498],[7.716,49.504],[7.755,49.491],[7.754,49.476],[7.738,49.473],[7.701,49.498]],[[7.831,49.373],[7.833,49.387],[7.88,49.41],[7.891,49.402],[7.921,49.42],[7.93,49.421],[7.939,49.409],[7.919,49.388],[7.905,49.394],[7.885,49.388],[7.876,49.376],[7.848,49.367],[7.831,49.373]],[[7.845,49.134],[7.865,49.144],[7.863,49.156],[7.875,49.153],[7.901,49.175],[7.91,49.164],[7.899,49.149],[7.921,49.129],[7.906,49.118],[7.86,49.117],[7.854,49.132],[7.845,49.134]],[[7.888,49.191],[7.918,49.21],[7.951,49.186],[7.938,49.177],[7.915,49.178],[7.906,49.189],[7.888,49.191]],[[7.926,50.576],[7.971,50.601],[7.991,50.594],[7.993,50.575],[8.026,50.573],[8.04,50.553],[7.996,50.525],[7.967,50.536],[7.969,50.552],[7.956,50.563],[7.933,50.565],[7.926,50.576]],[[7.929,49.595],[7.944,49.606],[7.977,49.608],[7.97,49.595],[7.938,49.588],[7.929,49.595]],[[7.943,49.453],[7.957,49.463],[7.95,49.484],[7.957,49.489],[8.002,49.499],[8.011,49.509],[8.042,49.519],[8.08,49.533],[8.042,49.523],[8.08,49.545],[8.101,49.554],[8.094,49.563],[8.124,49.568],[8.128,49.574],[8.115,49.585],[8.087,49.576],[8.078,49.59],[8.088,49.611],[8.121,49.621],[8.129,49.612],[8.188,49.619],[8.184,49.635],[8.194,49.636],[8.191,49.652],[8.207,49.653],[8.232,49.618],[8.205,49.612],[8.215,49.602],[8.234,49.604],[8.21,49.594],[8.21,49.583],[8.186,49.581],[8.19,49.555],[8.205,49.556],[8.216,49.525],[8.168,49.526],[8.174,49.517],[8.189,49.518],[8.192,49.504],[8.184,49.501],[8.195,49.495],[8.258,49.495],[8.251,49.482],[8.219,49.468],[8.221,49.463],[8.161,49.455],[8.159,49.463],[8.134,49.467],[8.115,49.461],[8.132,49.453],[8.087,49.438],[8.06,49.402],[8.024,49.397],[8.044,49.389],[8.049,49.375],[8.024,49.366],[7.988,49.391],[8.019,49.392],[8.025,49.423],[8.011,49.418],[7.995,49.423],[8.021,49.433],[7.995,49.433],[8.028,49.446],[8.017,49.458],[8.007,49.448],[7.996,49.449],[7.995,49.442],[7.982,49.443],[7.978,49.451],[7.959,49.442],[7.943,49.453]],[[8.029,49.831],[8.04,49.84],[8.058,49.836],[8.063,49.817],[8.05,49.801],[8.03,49.809],[8.029,49.831]],[[8.051,49.252],[8.083,49.256],[8.109,49.247],[8.076,49.244],[8.051,49.252]],[[8.15,50.413],[8.164,50.421],[8.176,50.418],[8.178,50.409],[8.162,50.407],[8.15,50.413]],[[8.197,49.722],[8.216,49.73],[8.291,49.744],[8.338,49.737],[8.338,49.724],[8.27,49.724],[8.203,49.713],[8.197,49.722]],[[8.212,49.587],[8.233,49.588],[8.281,49.587],[8.275,49.539],[8.24,49.537],[8.233,49.548],[8.22,49.546],[8.213,49.556],[8.222,49.56],[8.212,49.587]],[[8.215,49.819],[8.224,49.822],[8.271,49.805],[8.33,49.83],[8.332,49.811],[8.385,49.817],[8.4,49.803],[8.355,49.783],[8.259,49.788],[8.215,49.819]],[[8.235,49.829],[8.238,49.841],[8.279,49.842],[8.279,49.833],[8.261,49.823],[8.235,49.829]],[[8.275,49.609],[8.278,49.616],[8.374,49.616],[8.39,49.628],[8.418,49.628],[8.443,49.613],[8.487,49.614],[8.516,49.623],[8.532,49.619],[8.573,49.634],[8.562,49.604],[8.591,49.6],[8.59,49.592],[8.554,49.586],[8.513,49.587],[8.495,49.573],[8.464,49.59],[8.423,49.584],[8.414,49.559],[8.423,49.541],[8.394,49.55],[8.376,49.54],[8.372,49.547],[8.353,49.552],[8.359,49.558],[8.317,49.55],[8.311,49.555],[8.325,49.561],[8.317,49.568],[8.325,49.582],[8.344,49.596],[8.338,49.601],[8.29,49.591],[8.283,49.608],[8.275,49.609]],[[8.276,49.423],[8.28,49.434],[8.308,49.43],[8.291,49.394],[8.283,49.393],[8.276,49.423]],[[10.061,49.647],[10.097,49.655],[10.148,49.649],[10.179,49.687],[10.123,49.696],[10.159,49.723],[10.219,49.725],[10.239,49.714],[10.234,49.695],[10.216,49.694],[10.21,49.679],[10.187,49.679],[10.184,49.652],[10.162,49.622],[10.174,49.598],[10.202,49.604],[10.201,49.593],[10.223,49.584],[10.072,49.588],[10.072,49.607],[10.088,49.625],[10.068,49.624],[10.061,49.647]]],[[[9.899,50.841],[9.937,50.837],[9.944,50.845],[9.905,50.86],[9.899,50.841]]],[[[10.149,49.112],[10.155,49.108],[10.17,49.113],[10.153,49.12],[10.149,49.112]]],[[[10.192,49.126],[10.218,49.119],[10.232,49.148],[10.218,49.158],[10.217,49.149],[10.206,49.147],[10.192,49.126]]],[[[10.357,49.243],[10.368,49.22],[10.403,49.23],[10.427,49.223],[10.466,49.206],[10.5,49.211],[10.486,49.202],[10.491,49.192],[10.578,49.177],[10.564,49.201],[10.581,49.249],[10.537,49.262],[10.516,49.258],[10.477,49.267],[10.479,49.277],[10.463,49.276],[10.456,49.284],[10.44,49.278],[10.439,49.258],[10.39,49.261],[10.372,49.244],[10.357,49.243]]],[[[10.431,49.424],[10.479,49.407],[10.478,49.397],[10.585,49.392],[10.587,49.412],[10.543,49.415],[10.536,49.409],[10.524,49.416],[10.545,49.426],[10.542,49.437],[10.559,49.451],[10.47,49.451],[10.431,49.424]]],[[[10.58,49.156],[10.585,49.127],[10.622,49.122],[10.631,49.103],[10.647,49.117],[10.672,49.113],[10.69,49.135],[10.66,49.197],[10.61,49.179],[10.647,49.164],[10.58,49.156]]],[[[10.615,48.925],[10.664,48.882],[10.664,48.821],[10.744,48.777],[10.829,48.755],[10.904,48.811],[11.018,48.822],[11.106,48.82],[11.125,48.89],[11.113,48.978],[11.129,49.021],[11.121,49.029],[10.986,49.022],[11.017,49.052],[11.013,49.059],[10.987,49.063],[10.967,49.076],[10.937,49.075],[10.93,49.056],[10.958,49.04],[10.939,49.03],[10.911,49.03],[10.905,49.025],[10.916,49.012],[10.88,48.998],[10.906,48.971],[10.909,48.945],[10.889,48.934],[10.806,48.94],[10.796,48.916],[10.745,48.919],[10.709,48.896],[10.671,48.907],[10.62,48.962],[10.615,48.925]],[[10.936,48.857],[10.955,48.881],[10.942,48.906],[10.996,48.929],[11.035,48.91],[11.037,48.9],[10.998,48.87],[10.979,48.872],[10.977,48.857],[10.936,48.857]]],[[[10.621,49.235],[10.679,49.231],[10.718,49.247],[10.735,49.245],[10.774,49.259],[10.78,49.28],[10.766,49.288],[10.742,49.283],[10.735,49.301],[10.69,49.31],[10.652,49.299],[10.653,49.286],[10.671,49.287],[10.655,49.252],[10.628,49.246],[10.621,49.235]]],[[[10.667,49.053],[10.668,49.045],[10.684,49.043],[10.695,49.028],[10.744,49.028],[10.734,49.051],[10.742,49.058],[10.699,49.071],[10.676,49.065],[10.68,49.056],[10.667,49.053]]],[[[10.682,49.465],[10.71,49.465],[10.729,49.455],[10.747,49.456],[10.734,49.488],[10.713,49.494],[10.703,49.473],[10.683,49.472],[10.682,49.465]]],[[[10.787,49.212],[10.806,49.209],[10.811,49.218],[10.791,49.222],[10.787,49.212]]],[[[10.842,49.183],[10.86,49.179],[10.872,49.16],[10.901,49.163],[10.906,49.151],[10.927,49.152],[10.968,49.093],[10.996,49.093],[11.042,49.062],[11.062,49.086],[11.039,49.109],[11.018,49.173],[11.017,49.173],[11.01,49.159],[10.985,49.159],[10.972,49.149],[10.966,49.157],[10.985,49.187],[10.933,49.198],[10.917,49.191],[10.879,49.213],[10.844,49.201],[10.842,49.183]]],[[[10.854,49.135],[10.858,49.13],[10.873,49.134],[10.912,49.127],[10.921,49.134],[10.882,49.153],[10.854,49.135]]],[[[10.881,49.074],[10.884,49.06],[10.915,49.064],[10.89,49.087],[10.881,49.074]]],[[[10.902,49.459],[10.929,49.445],[10.975,49.455],[11.005,49.414],[11.011,49.414],[11.004,49.422],[10.991,49.486],[10.99,49.497],[10.989,49.497],[10.985,49.52],[10.973,49.523],[10.951,49.505],[10.956,49.478],[10.902,49.459]]],[[[10.933,49.353],[10.947,49.35],[10.936,49.333],[10.962,49.326],[10.999,49.336],[10.968,49.347],[10.972,49.36],[10.996,49.371],[10.993,49.395],[10.975,49.396],[10.973,49.379],[10.954,49.384],[10.937,49.377],[10.933,49.353]]],[[[10.936,49.208],[10.972,49.208],[11.03,49.232],[10.994,49.265],[10.948,49.249],[10.947,49.227],[10.937,49.223],[10.936,49.208]]],[[[11.075,49.064],[11.093,49.038],[11.106,49.043],[11.083,49.066],[11.075,49.064]]]]}},{"type":"Feature","properties":{"NAME":"Duchy of Lower Lotharingia","SUBJECTO":"Holy Roman Empire","PARTOF":"Holy Roman Empire","ADMIN_LEVEL":4,"OHM_RELATION_ID":2805253,"START_DATE":"0959","END_DATE":"1190"},"geometry":{"type":"MultiPolygon","coordinates":[[[[3.091,50.121],[3.103,50.082],[3.136,50.058],[3.261,50.052],[3.362,50.028],[3.468,50.051],[3.531,50.039],[3.648,50.046],[3.186,50.19],[3.131,50.181],[3.091,50.121]]],[[[3.466,50.771],[4.1,51.038],[4.067,51.049],[4.009,51.006],[3.92,51.017],[3.816,50.991],[3.769,51.049],[3.738,51.047],[3.722,51],[3.687,50.958],[3.65,50.955],[3.659,50.92],[3.688,50.908],[3.678,50.89],[3.631,50.881],[3.624,50.854],[3.576,50.822],[3.555,50.819],[3.466,50.771]]],[[[3.648,50.046],[3.798,50],[3.656,50.047],[3.648,50.046]]],[[[4.143,51.056],[4.173,51.031],[4.193,51.035],[4.197,51.057],[4.186,51.074],[4.143,51.056]]],[[[4.177,51.086],[4.186,51.074],[4.322,51.131],[4.257,51.114],[4.216,51.12],[4.182,51.1],[4.177,51.086]]],[[[4.242,51.354],[4.268,51.336],[4.848,49.796],[5.757,49.833],[6.015,49.85],[6.155,49.895],[6.273,49.979],[6.248,50.092],[6.262,50.233],[6.375,50.302],[6.567,50.298],[6.633,50.196],[6.787,50.209],[6.957,50.263],[7.072,50.437],[7.229,50.48],[7.399,50.443],[7.457,50.575],[7.539,50.669],[7.646,50.68],[7.695,50.665],[7.77,50.597],[7.839,50.605],[7.885,50.658],[7.944,50.661],[7.953,50.696],[7.914,50.737],[7.795,50.752],[7.813,50.825],[7.84,50.854],[7.858,50.935],[7.726,51.001],[7.717,51.057],[7.682,51.081],[7.611,51.081],[7.487,51.126],[7.421,51.215],[7.234,51.253],[7.133,51.296],[7.052,51.354],[7.036,51.347],[6.991,51.359],[6.967,51.347],[6.952,51.349],[6.897,51.389],[6.925,51.406],[6.926,51.429],[6.937,51.435],[6.932,51.438],[6.739,51.513],[6.706,51.618],[6.799,51.64],[6.946,51.661],[6.963,51.671],[6.933,51.701],[6.752,51.76],[6.632,51.736],[6.49,51.822],[6.419,51.752],[6.354,51.754],[6.335,51.762],[6.305,51.805],[6.251,51.826],[6.113,51.846],[6.012,51.883],[5.971,51.854],[5.917,51.876],[5.865,51.851],[5.701,51.895],[5.6,51.895],[5.466,51.924],[5.421,51.918],[5.491,51.83],[5.54,51.818],[5.552,51.827],[5.594,51.829],[5.643,51.819],[5.663,51.795],[5.736,51.77],[5.76,51.752],[5.554,51.696],[5.283,51.644],[5.216,51.653],[4.984,51.642],[4.853,51.668],[4.64,51.627],[4.488,51.613],[4.493,51.499],[4.473,51.475],[4.491,51.395],[4.436,51.36],[4.242,51.354]],[[5.834,51.274],[5.844,51.278],[5.858,51.311],[5.906,51.294],[5.906,51.3],[5.925,51.309],[6.009,51.278],[6.007,51.255],[5.999,51.249],[6.006,51.231],[5.968,51.22],[5.977,51.202],[5.934,51.188],[5.917,51.174],[5.923,51.172],[5.872,51.168],[5.858,51.181],[5.876,51.182],[5.893,51.217],[5.893,51.24],[5.859,51.24],[5.841,51.25],[5.834,51.274]]]]}},{"type":"Feature","properties":{"NAME":"Duchy of Saxony","SUBJECTO":"Holy Roman Empire","PARTOF":"Holy Roman Empire","ADMIN_LEVEL":4,"OHM_RELATION_ID":2805386,"START_DATE":"0804","END_DATE":"1180"},"geometry":{"type":"Polygon","coordinates":[[[6.237,51.987],[6.276,51.899],[6.49,51.822],[6.632,51.736],[6.752,51.76],[6.933,51.701],[6.963,51.671],[6.946,51.661],[6.799,51.64],[6.706,51.618],[6.739,51.513],[6.932,51.438],[6.937,51.435],[6.946,51.44],[6.958,51.432],[6.986,51.433],[7.016,51.419],[7.046,51.419],[7.063,51.439],[7.08,51.443],[7.096,51.41],[7.119,51.392],[7.117,51.381],[7.052,51.354],[7.133,51.296],[7.234,51.253],[7.421,51.215],[7.487,51.126],[7.611,51.081],[7.682,51.081],[7.717,51.057],[7.726,51.001],[7.858,50.935],[7.933,50.927],[7.951,50.952],[7.939,50.974],[7.944,51.02],[8.177,51.026],[8.201,51.096],[8.234,51.084],[8.31,51.097],[8.341,51.131],[8.461,51.138],[8.468,51.087],[8.527,51.074],[8.604,51.099],[8.656,51.091],[8.895,51.279],[9.017,51.286],[9.025,51.339],[9.227,51.45],[9.474,51.454],[9.502,51.429],[9.551,51.421],[9.657,51.445],[9.726,51.421],[9.734,51.402],[9.862,51.338],[10.018,51.445],[10.279,51.486],[10.385,51.551],[10.435,51.566],[10.529,51.565],[10.54,51.585],[10.53,51.61],[10.537,51.643],[10.607,51.715],[10.717,51.693],[10.86,51.636],[11.194,51.618],[11.308,51.58],[11.426,51.528],[11.468,51.462],[11.341,51.418],[11.334,51.338],[11.45,51.28],[11.537,51.269],[11.577,51.298],[11.649,51.284],[11.635,51.249],[11.673,51.251],[11.678,51.229],[11.737,51.208],[11.761,51.211],[11.803,51.176],[11.829,51.172],[11.83,51.157],[11.853,51.154],[11.867,51.163],[11.861,51.187],[11.903,51.187],[11.926,51.203],[11.974,51.206],[12.022,51.238],[12.062,51.292],[12.035,51.331],[12.015,51.342],[11.922,51.445],[11.96,51.479],[11.943,51.521],[11.892,51.536],[11.828,51.531],[11.83,51.573],[11.762,51.587],[11.753,51.656],[11.667,51.718],[11.712,51.741],[11.703,51.785],[11.781,51.804],[11.766,51.862],[11.799,51.913],[11.921,51.945],[11.88,51.984],[11.891,52.006],[11.879,52.026],[11.856,52.025],[11.841,52.008],[11.715,52.043],[11.645,52.123],[11.675,52.156],[11.717,52.263],[11.78,52.332],[11.862,52.351],[11.941,52.396],[12.001,52.446],[11.996,52.49],[11.972,52.535],[12,52.569],[12.029,52.625],[12.053,52.748],[12.014,52.865],[11.922,52.897],[11.88,52.896],[11.868,52.933],[11.841,52.96],[11.654,52.996],[11.6,53.038],[11.511,53.048],[11.448,53.079],[11.34,53.054],[11.247,53.136],[11.218,53.145],[11.186,53.135],[11.172,53.157],[11.149,53.168],[11.131,53.167],[11.092,53.138],[10.997,53.175],[10.893,53.241],[10.806,53.259],[10.729,53.304],[10.743,53.329],[10.73,53.352],[10.7,53.369],[10.595,53.364],[10.622,53.382],[10.649,53.447],[10.691,53.503],[10.687,53.55],[10.61,53.572],[10.569,53.611],[10.546,53.693],[10.552,53.78],[10.471,53.888],[10.489,53.964],[10.474,54.038],[10.37,54.086],[10.376,54.113],[10.327,54.117],[10.316,54.158],[10.403,54.168],[10.397,54.234],[10.316,54.248],[10.261,54.325],[10.217,54.355],[10.173,54.291],[10.138,54.282],[10.088,54.205],[10.032,54.214],[10.057,54.287],[10.035,54.313],[9.963,54.307],[9.921,54.322],[9.923,54.37],[9.792,54.363],[9.711,54.317],[9.651,54.301],[9.597,54.221],[9.547,54.195],[9.441,54.174],[9.444,54.251],[9.376,54.29],[9.288,54.27],[9.257,54.33],[9.135,54.322],[9.092,54.365],[9.006,54.376],[8.897,54.263],[8.794,54.269],[8.734,54.25],[8.531,54.221],[8.529,54.193],[8.542,54.169],[8.529,54.152],[8.527,54.124],[8.512,54.097],[8.521,54.061],[8.52,54.024],[8.523,54.012],[8.386,54.025],[8.33,54.022],[8.281,53.996],[8.264,53.959],[8.268,53.939],[8.288,53.911],[8.582,53.806],[8.605,53.549],[8.499,53.493],[8.487,53.373],[8.3,53.364],[8.263,53.342],[8.204,53.34],[8.216,53.355],[8.171,53.387],[8.123,53.377],[8.091,53.355],[8.026,53.365],[7.943,53.333],[7.792,53.219],[7.769,53.182],[7.678,53.169],[7.622,53.145],[7.623,53.112],[7.612,53.077],[7.537,53.056],[7.445,53.089],[7.203,53.113],[7.036,53.097],[6.996,53.132],[6.939,53.125],[6.913,53.082],[6.842,53.079],[6.832,53.059],[7.035,52.922],[7.059,52.864],[7.087,52.85],[7.093,52.838],[7.072,52.81],[7.056,52.643],[7.042,52.633],[7.036,52.634],[7.035,52.629],[7.087,52.585],[7.088,52.551],[6.993,52.515],[7.048,52.238],[7.02,52.206],[6.869,52.176],[6.831,52.113],[6.735,52.112],[6.537,52.174],[6.33,52.086],[6.237,51.987]]]}},{"type":"Feature","properties":{"NAME":"Duchy of Swabia","SUBJECTO":"Holy Roman Empire","PARTOF":"Holy Roman Empire","ADMIN_LEVEL":4,"OHM_RELATION_ID":2805256,"START_DATE":"0922","END_DATE":"1268-10-28"},"geometry":{"type":"MultiPolygon","coordinates":[[[[6.716,47.671],[6.79,47.598],[6.839,47.612],[6.894,47.653],[7.189,47.523],[7.166,47.49],[7.203,47.491],[7.187,47.483],[7.186,47.479],[7.335,47.447],[7.43,47.462],[7.517,47.529],[7.501,47.529],[7.5,47.54],[7.544,47.56],[7.572,47.612],[7.618,47.619],[7.693,47.578],[7.803,47.598],[7.854,47.62],[7.929,47.613],[7.965,47.591],[8.183,47.657],[8.255,47.59],[8.275,47.464],[8.361,47.416],[8.429,47.283],[8.443,47.203],[8.388,47.142],[8.352,47.044],[8.366,46.819],[8.453,46.775],[8.458,46.707],[8.428,46.664],[8.425,46.558],[8.464,46.536],[8.633,46.605],[8.746,46.632],[8.836,46.614],[8.893,46.423],[8.863,46.385],[8.931,46.288],[8.946,46.18],[8.928,46.13],[9.009,46.148],[9.108,46.147],[9.248,46.253],[9.454,46.269],[9.553,46.328],[9.682,46.342],[9.756,46.407],[9.86,46.426],[9.94,46.48],[10.009,46.492],[10.107,46.605],[10.24,46.632],[10.333,46.547],[10.453,46.531],[10.491,46.563],[10.488,46.622],[10.405,46.634],[10.384,46.688],[10.417,46.708],[10.423,46.777],[10.452,46.809],[10.486,46.911],[10.485,46.943],[10.424,46.959],[10.428,46.974],[10.392,47],[10.349,46.99],[10.307,46.926],[10.24,46.93],[10.232,46.873],[10.152,46.853],[10.101,46.984],[10.121,47.137],[10.21,47.179],[10.248,47.173],[10.268,47.207],[10.429,47.225],[10.466,47.199],[10.583,47.301],[10.643,47.311],[10.709,47.353],[10.753,47.363],[10.758,47.413],[10.842,47.451],[10.854,47.5],[10.927,47.567],[10.915,47.614],[10.896,47.614],[10.916,47.662],[10.926,47.756],[10.968,47.815],[11.085,47.889],[11.017,48.025],[11.093,48.325],[11.025,48.375],[10.984,48.381],[10.974,48.428],[10.904,48.456],[10.911,48.516],[10.96,48.679],[10.996,48.732],[10.938,48.726],[10.867,48.734],[10.829,48.755],[10.744,48.777],[10.664,48.821],[10.664,48.882],[10.615,48.925],[10.62,48.962],[10.613,48.97],[10.591,48.969],[10.587,48.998],[10.604,49],[10.606,49.009],[10.583,49.032],[10.551,49.033],[10.539,49.027],[10.534,49.013],[10.44,49.014],[10.332,49.054],[10.365,49.075],[10.313,49.09],[10.299,49.082],[10.294,49.066],[10.282,49.066],[10.262,49.086],[10.242,49.077],[10.255,49.103],[10.237,49.097],[10.225,49.104],[10.193,49.088],[10.196,49.08],[10.169,49.077],[10.16,49.051],[10.102,49.027],[10.022,49.043],[9.966,49.009],[9.849,49.004],[9.759,48.977],[9.638,48.96],[9.597,48.92],[9.476,48.918],[9.439,48.892],[9.369,48.899],[9.363,48.882],[9.132,48.878],[9.119,48.819],[8.995,48.805],[8.951,48.773],[8.915,48.791],[8.847,48.764],[8.803,48.72],[8.674,48.76],[8.535,48.751],[8.519,48.686],[8.48,48.67],[8.447,48.676],[8.407,48.653],[8.356,48.664],[8.267,48.792],[8.182,48.804],[8.133,48.829],[8.203,48.941],[8.194,48.964],[8.032,48.963],[7.971,48.998],[7.902,49.011],[7.876,49.043],[7.877,49.064],[7.821,49.095],[7.777,49.104],[7.728,49.128],[7.695,49.134],[7.592,49.066],[7.59,49.043],[7.533,49.019],[7.497,49.019],[7.339,48.942],[7.327,48.918],[7.334,48.901],[7.358,48.893],[7.35,48.863],[7.215,48.812],[7.193,48.777],[7.228,48.746],[7.18,48.72],[7.185,48.656],[7.241,48.614],[7.228,48.548],[7.185,48.517],[7.171,48.467],[7.134,48.46],[7.11,48.382],[7.171,48.357],[7.199,48.308],[7.121,48.241],[7.122,48.175],[7.092,48.149],[7.078,48.102],[7.024,48.041],[6.961,48.022],[6.969,47.935],[6.893,47.836],[6.823,47.814],[6.741,47.754],[6.761,47.7],[6.716,47.671]],[[7.519,47.674],[7.549,47.681],[7.562,47.665],[7.549,47.661],[7.542,47.646],[7.519,47.674]],[[7.551,47.744],[7.574,47.776],[7.614,47.775],[7.616,47.755],[7.63,47.737],[7.628,47.725],[7.58,47.735],[7.551,47.744]]],[[[10.164,49.239],[10.168,49.229],[10.182,49.226],[10.198,49.236],[10.204,49.227],[10.221,49.226],[10.253,49.232],[10.302,49.256],[10.3,49.259],[10.234,49.257],[10.164,49.239]]],[[[10.218,49.158],[10.232,49.148],[10.218,49.119],[10.222,49.118],[10.255,49.13],[10.248,49.149],[10.218,49.161],[10.218,49.158]]],[[[10.345,49.225],[10.367,49.22],[10.368,49.22],[10.357,49.243],[10.353,49.243],[10.345,49.225]]],[[[10.366,49.11],[10.39,49.093],[10.427,49.102],[10.415,49.111],[10.377,49.117],[10.366,49.11]]],[[[10.419,49.024],[10.459,49.024],[10.455,49.043],[10.419,49.039],[10.419,49.024]]],[[[10.47,49.055],[10.491,49.041],[10.507,49.045],[10.507,49.051],[10.476,49.06],[10.47,49.055]]]]}},{"type":"Feature","properties":{"NAME":"Duchy of Thuringia","SUBJECTO":"Holy Roman Empire","PARTOF":"Holy Roman Empire","ADMIN_LEVEL":4,"OHM_RELATION_ID":2805287,"START_DATE":"0962","END_DATE":"1100"},"geometry":{"type":"MultiPolygon","coordinates":[[[[9.69,51.398],[9.713,51.321],[9.77,51.289],[9.79,51.219],[9.772,51.188],[9.794,51.073],[9.842,51.053],[9.896,51.007],[9.89,50.938],[9.953,50.858],[9.982,50.85],[10.044,50.876],[10.061,50.876],[10.05,50.857],[10.054,50.851],[10.041,50.841],[10.057,50.821],[10.079,50.81],[10.078,50.79],[10.086,50.784],[10.075,50.783],[10.069,50.761],[10.06,50.76],[10.093,50.743],[10.169,50.731],[10.284,50.744],[10.346,50.735],[10.367,50.825],[10.413,50.85],[10.467,50.829],[10.511,50.77],[10.683,50.711],[10.923,50.654],[10.97,50.615],[10.942,50.588],[10.931,50.553],[10.968,50.515],[11.045,50.488],[11.275,50.496],[11.378,50.467],[11.471,50.46],[11.504,50.448],[11.497,50.484],[11.536,50.515],[11.577,50.538],[11.671,50.569],[11.641,50.6],[11.654,50.636],[11.692,50.661],[11.779,50.66],[11.883,50.696],[11.97,50.768],[11.985,50.813],[11.887,50.832],[11.556,50.781],[11.617,50.847],[11.581,50.915],[11.668,50.989],[11.694,51.025],[11.677,51.044],[11.71,51.052],[11.667,51.109],[11.709,51.112],[11.72,51.144],[11.774,51.157],[11.803,51.176],[11.761,51.211],[11.737,51.208],[11.678,51.229],[11.673,51.251],[11.635,51.249],[11.649,51.284],[11.577,51.298],[11.537,51.269],[11.45,51.28],[11.334,51.338],[11.341,51.418],[11.468,51.462],[11.426,51.528],[11.308,51.58],[11.194,51.618],[10.86,51.636],[10.717,51.693],[10.607,51.715],[10.537,51.643],[10.53,51.61],[10.54,51.585],[10.529,51.565],[10.435,51.566],[10.385,51.551],[10.279,51.486],[10.018,51.445],[9.862,51.338],[9.734,51.402],[9.69,51.398]],[[10.074,50.879],[10.094,50.893],[10.111,50.893],[10.137,50.907],[10.143,50.894],[10.17,50.902],[10.179,50.883],[10.198,50.88],[10.211,50.894],[10.22,50.888],[10.19,50.873],[10.185,50.866],[10.21,50.863],[10.189,50.853],[10.143,50.857],[10.114,50.869],[10.1,50.866],[10.092,50.874],[10.076,50.872],[10.074,50.879]],[[10.771,50.859],[10.804,50.887],[10.819,50.89],[10.821,50.921],[10.86,50.916],[10.862,50.88],[10.874,50.878],[10.862,50.851],[10.845,50.839],[10.787,50.843],[10.771,50.859]],[[10.781,50.986],[10.836,51.007],[10.889,50.995],[10.915,51.004],[10.911,51.021],[10.87,51.028],[10.869,51.058],[10.831,51.073],[10.838,51.095],[10.88,51.098],[10.884,51.084],[10.91,51.089],[10.95,51.101],[10.948,51.116],[10.957,51.119],[10.951,51.125],[10.97,51.124],[10.981,51.097],[10.964,51.086],[10.988,51.036],[11.025,51.031],[11.028,51.059],[11.02,51.06],[11.023,51.066],[11.041,51.065],[11.044,51.08],[11.081,51.074],[11.085,51.065],[11.128,51.082],[11.126,51.06],[11.147,51.066],[11.159,51.057],[11.177,51.07],[11.206,51.036],[11.195,51.021],[11.214,51.006],[11.237,51.007],[11.226,50.997],[11.241,50.985],[11.266,50.985],[11.267,50.971],[11.221,50.95],[11.232,50.946],[11.221,50.931],[11.253,50.889],[11.246,50.875],[11.208,50.882],[11.206,50.865],[11.181,50.879],[11.172,50.875],[11.188,50.872],[11.178,50.867],[11.152,50.877],[11.127,50.902],[11.113,50.893],[11.036,50.88],[11.024,50.859],[11.005,50.864],[10.995,50.874],[11.007,50.895],[11.055,50.896],[11.055,50.91],[10.98,50.904],[10.97,50.922],[11.023,50.929],[11.026,50.938],[11.002,50.939],[11,50.948],[10.953,50.938],[10.939,50.947],[10.912,50.941],[10.916,50.93],[10.905,50.923],[10.876,50.927],[10.868,50.942],[10.897,50.945],[10.894,50.961],[10.855,50.963],[10.852,50.952],[10.827,50.951],[10.832,50.99],[10.814,50.98],[10.781,50.986]],[[11.061,51.15],[11.086,51.151],[11.085,51.169],[11.115,51.174],[11.115,51.185],[11.128,51.18],[11.122,51.172],[11.157,51.163],[11.174,51.128],[11.175,51.106],[11.138,51.092],[11.093,51.112],[11.102,51.118],[11.097,51.128],[11.064,51.129],[11.061,51.15]],[[11.226,51.071],[11.266,51.073],[11.272,51.061],[11.257,51.055],[11.263,51.052],[11.273,51.052],[11.28,51.062],[11.312,51.054],[11.296,51.032],[11.274,51.026],[11.229,51.049],[11.226,51.071]],[[11.255,51.103],[11.256,51.131],[11.287,51.127],[11.294,51.126],[11.282,51.102],[11.255,51.103]],[[11.289,50.867],[11.32,50.873],[11.353,50.895],[11.357,50.911],[11.338,50.924],[11.381,50.925],[11.395,50.902],[11.418,50.898],[11.399,50.89],[11.379,50.865],[11.409,50.857],[11.405,50.833],[11.364,50.832],[11.358,50.815],[11.335,50.819],[11.307,50.804],[11.289,50.867]]],[[[11.108,51.035],[11.124,51.021],[11.147,51.017],[11.144,51.009],[11.151,51.004],[11.188,51.022],[11.155,51.037],[11.108,51.035]]],[[[11.12,50.918],[11.134,50.905],[11.147,50.908],[11.176,50.896],[11.19,50.903],[11.191,50.91],[11.153,50.919],[11.12,50.918]]],[[[11.17,50.94],[11.188,50.938],[11.188,50.948],[11.172,50.956],[11.17,50.94]]]]}},{"type":"Feature","properties":{"NAME":"Duchy of Upper Lotharingia","SUBJECTO":"Holy Roman Empire","PARTOF":"Holy Roman Empire","ADMIN_LEVEL":4,"OHM_RELATION_ID":2805254,"START_DATE":"0959","END_DATE":"1100"},"geometry":{"type":"MultiPolygon","coordinates":[[[[4.618,49.727],[4.684,49.653],[4.816,49.565],[4.83,49.458],[4.79,49.354],[4.791,49.284],[4.732,49.201],[4.822,49.166],[4.941,49.148],[5.024,49.126],[5.05,49.052],[4.981,48.986],[4.927,48.917],[4.928,48.914],[4.951,48.928],[5.076,48.956],[5.145,48.944],[5.225,48.981],[5.223,49.022],[5.24,49.04],[5.217,49.081],[5.254,49.083],[5.282,49.056],[5.313,49.059],[5.301,49.08],[5.321,49.106],[5.348,49.115],[5.369,49.114],[5.376,49.102],[5.4,49.094],[5.392,49.081],[5.416,49.064],[5.404,49.051],[5.376,49.05],[5.35,49.068],[5.311,49.028],[5.359,48.997],[5.354,48.986],[5.335,48.983],[5.334,48.97],[5.392,48.936],[5.422,48.938],[5.443,48.927],[5.466,48.931],[5.449,48.963],[5.464,48.986],[5.431,49.007],[5.423,49.021],[5.438,49.031],[5.512,49.028],[5.531,49.038],[5.571,49.037],[5.587,49.026],[5.604,49.027],[5.608,49.036],[5.652,49.041],[5.67,49.057],[5.74,49.076],[5.74,49.086],[5.725,49.094],[5.7,49.091],[5.662,49.108],[5.605,49.104],[5.58,49.111],[5.58,49.131],[5.646,49.122],[5.669,49.137],[5.704,49.141],[5.707,49.158],[5.658,49.17],[5.68,49.179],[5.68,49.189],[5.652,49.192],[5.627,49.181],[5.598,49.193],[5.598,49.216],[5.635,49.239],[5.644,49.262],[5.622,49.284],[5.619,49.302],[5.648,49.312],[5.655,49.333],[5.637,49.348],[5.641,49.368],[5.555,49.397],[5.568,49.42],[5.505,49.406],[5.476,49.442],[5.511,49.454],[5.516,49.462],[5.494,49.473],[5.464,49.471],[5.469,49.481],[5.46,49.485],[5.428,49.488],[5.445,49.501],[5.467,49.492],[5.486,49.508],[5.525,49.511],[5.558,49.529],[5.594,49.521],[5.611,49.506],[5.622,49.534],[5.661,49.553],[5.704,49.539],[5.749,49.54],[5.758,49.561],[5.743,49.578],[5.754,49.593],[5.786,49.593],[5.825,49.573],[5.85,49.575],[5.872,49.549],[5.834,49.525],[5.864,49.501],[5.941,49.501],[5.974,49.489],[5.969,49.486],[5.974,49.467],[5.988,49.461],[5.982,49.451],[6.001,49.457],[6.042,49.448],[6.037,49.424],[6.013,49.418],[6.01,49.403],[6.022,49.394],[6.012,49.369],[5.983,49.377],[5.956,49.362],[5.962,49.347],[5.987,49.34],[6.032,49.345],[6.047,49.337],[6.034,49.329],[6.035,49.317],[6.047,49.316],[6.046,49.31],[6.1,49.312],[6.096,49.287],[6.108,49.258],[6.097,49.245],[6.117,49.236],[6.136,49.24],[6.139,49.222],[6.131,49.213],[6.119,49.22],[6.068,49.214],[6.07,49.199],[6.122,49.198],[6.122,49.184],[6.144,49.182],[6.144,49.165],[6.12,49.162],[6.131,49.152],[6.125,49.148],[6.086,49.148],[6.064,49.16],[6.068,49.179],[6.037,49.174],[6.012,49.155],[5.989,49.155],[5.997,49.149],[5.984,49.142],[5.991,49.136],[5.968,49.109],[6.006,49.114],[6.01,49.105],[5.99,49.092],[5.935,49.088],[5.944,49.072],[5.979,49.07],[5.981,49.078],[6.006,49.077],[6.005,49.084],[6.02,49.075],[6.03,49.053],[6.06,49.05],[6.074,49.057],[6.088,49.04],[6.087,49.027],[6.064,48.999],[6.065,48.981],[6.081,48.963],[6.081,48.945],[6.121,48.944],[6.124,48.95],[6.132,48.935],[6.161,48.929],[6.166,48.913],[6.125,48.905],[6.144,48.889],[6.122,48.881],[6.085,48.892],[6.062,48.884],[6.065,48.874],[6.082,48.875],[6.029,48.848],[6.027,48.811],[6.008,48.805],[6.017,48.799],[6.017,48.774],[5.998,48.771],[5.98,48.781],[5.951,48.753],[5.913,48.77],[5.904,48.768],[5.911,48.758],[5.88,48.752],[5.865,48.775],[5.887,48.781],[5.886,48.788],[5.85,48.811],[5.834,48.801],[5.83,48.813],[5.819,48.807],[5.817,48.797],[5.828,48.787],[5.82,48.774],[5.85,48.776],[5.847,48.757],[5.83,48.765],[5.803,48.757],[5.806,48.748],[5.792,48.748],[5.782,48.74],[5.785,48.734],[5.754,48.727],[5.725,48.733],[5.674,48.721],[5.668,48.711],[5.628,48.693],[5.583,48.687],[5.576,48.67],[5.552,48.649],[5.567,48.605],[5.553,48.579],[5.569,48.576],[5.574,48.557],[5.612,48.546],[5.629,48.564],[5.65,48.554],[5.639,48.542],[5.668,48.515],[5.648,48.474],[5.602,48.459],[5.57,48.472],[5.588,48.483],[5.577,48.492],[5.509,48.488],[5.511,48.476],[5.491,48.47],[5.484,48.46],[5.517,48.444],[5.519,48.425],[5.473,48.44],[5.412,48.399],[5.383,48.429],[5.39,48.445],[5.443,48.482],[5.439,48.534],[5.402,48.548],[5.408,48.56],[5.455,48.588],[5.476,48.612],[5.428,48.636],[5.401,48.623],[5.329,48.622],[5.31,48.605],[5.334,48.582],[5.353,48.574],[5.355,48.553],[5.317,48.51],[5.255,48.513],[5.254,48.356],[5.342,48.335],[5.365,48.303],[5.422,48.29],[5.474,48.226],[5.461,48.178],[5.463,48.184],[5.464,48.188],[5.484,48.187],[5.501,48.199],[5.492,48.219],[5.538,48.244],[5.548,48.276],[5.523,48.293],[5.517,48.32],[5.532,48.34],[5.533,48.365],[5.572,48.385],[5.599,48.388],[5.634,48.373],[5.614,48.33],[5.694,48.329],[5.685,48.29],[5.647,48.256],[5.648,48.234],[5.664,48.224],[5.676,48.228],[5.678,48.241],[5.705,48.235],[5.717,48.202],[5.756,48.183],[5.773,48.197],[5.768,48.21],[5.742,48.216],[5.746,48.229],[5.724,48.258],[5.741,48.265],[5.801,48.255],[5.82,48.265],[5.843,48.262],[5.833,48.252],[5.842,48.241],[5.896,48.238],[5.906,48.222],[5.901,48.208],[5.885,48.205],[5.873,48.217],[5.853,48.2],[5.875,48.188],[5.896,48.189],[5.905,48.181],[5.901,48.164],[5.863,48.153],[5.854,48.126],[5.882,48.117],[5.89,48.123],[5.922,48.12],[5.934,48.094],[5.974,48.096],[5.98,48.071],[5.939,48.073],[5.939,48.071],[6.015,48.011],[6.088,48.024],[6.084,48.05],[6.027,48.115],[6.008,48.178],[6.13,48.178],[6.225,48.097],[6.38,48.086],[6.428,47.986],[6.475,47.973],[6.511,47.986],[6.563,47.97],[6.659,47.882],[6.823,47.814],[6.893,47.836],[6.969,47.935],[6.961,48.022],[7.024,48.041],[7.078,48.102],[7.092,48.149],[7.122,48.175],[7.121,48.241],[7.199,48.308],[7.171,48.357],[7.11,48.382],[7.134,48.46],[7.171,48.467],[7.185,48.517],[7.228,48.548],[7.241,48.614],[7.185,48.656],[7.18,48.72],[7.228,48.746],[7.193,48.777],[7.215,48.812],[7.35,48.863],[7.358,48.893],[7.334,48.901],[7.327,48.918],[7.339,48.942],[7.497,49.019],[7.533,49.019],[7.59,49.043],[7.592,49.066],[7.695,49.134],[7.711,49.233],[7.659,49.275],[7.626,49.279],[7.603,49.312],[7.572,49.319],[7.571,49.32],[7.564,49.311],[7.575,49.291],[7.568,49.276],[7.556,49.273],[7.528,49.299],[7.524,49.333],[7.542,49.345],[7.537,49.35],[7.507,49.349],[7.506,49.373],[7.487,49.392],[7.449,49.397],[7.445,49.411],[7.393,49.449],[7.322,49.447],[7.292,49.469],[7.227,49.469],[7.215,49.488],[7.188,49.508],[7.18,49.543],[7.21,49.546],[7.256,49.534],[7.256,49.549],[7.27,49.56],[7.243,49.595],[7.274,49.624],[7.277,49.652],[7.233,49.693],[7.144,49.713],[7.092,49.764],[7.147,49.779],[7.202,49.806],[7.232,49.849],[7.221,49.917],[7.325,50.025],[7.633,50.154],[7.578,50.347],[7.523,50.416],[7.399,50.443],[7.229,50.48],[7.072,50.437],[6.957,50.263],[6.787,50.209],[6.633,50.196],[6.567,50.298],[6.375,50.302],[6.262,50.233],[6.248,50.092],[6.273,49.979],[6.155,49.895],[6.015,49.85],[5.757,49.833],[4.682,49.789],[4.618,49.727]],[[5.4,49.226],[5.406,49.238],[5.475,49.235],[5.497,49.243],[5.516,49.235],[5.486,49.223],[5.416,49.216],[5.4,49.226]],[[5.436,49.078],[5.45,49.104],[5.469,49.111],[5.473,49.126],[5.453,49.147],[5.464,49.162],[5.556,49.188],[5.562,49.179],[5.545,49.167],[5.554,49.14],[5.501,49.126],[5.503,49.114],[5.523,49.108],[5.519,49.092],[5.495,49.082],[5.464,49.055],[5.444,49.056],[5.436,49.078]],[[5.745,48.66],[5.755,48.697],[5.786,48.714],[5.808,48.712],[5.811,48.699],[5.817,48.678],[5.811,48.653],[5.846,48.646],[5.759,48.62],[5.76,48.632],[5.745,48.66]],[[5.817,48.698],[5.837,48.71],[5.857,48.7],[5.872,48.706],[5.863,48.699],[5.867,48.692],[5.855,48.688],[5.817,48.698]]],[[[5.464,48.164],[5.471,48.136],[5.491,48.134],[5.477,48.158],[5.464,48.164]]],[[[5.635,48.061],[5.677,48.062],[5.647,48.071],[5.642,48.062],[5.635,48.061]]],[[[5.707,49.421],[5.732,49.398],[5.802,49.398],[5.833,49.412],[5.855,49.44],[5.838,49.45],[5.818,49.443],[5.799,49.448],[5.77,49.434],[5.739,49.438],[5.707,49.421]]],[[[5.869,49.375],[5.89,49.354],[5.889,49.344],[5.919,49.373],[5.897,49.383],[5.869,49.375]]]]}},{"type":"Feature","properties":{"NAME":"Erfurt Territory","SUBJECTO":"Holy Roman Empire","PARTOF":"Holy Roman Empire","ADMIN_LEVEL":5,"OHM_RELATION_ID":2831882,"START_DATE":"1000","END_DATE":"1803-04-27"},"geometry":{"type":"MultiPolygon","coordinates":[[[[10.821,50.921],[10.819,50.89],[10.804,50.887],[10.771,50.859],[10.787,50.843],[10.845,50.839],[10.862,50.851],[10.874,50.878],[10.862,50.88],[10.86,50.916],[10.821,50.921]]],[[[11.023,50.929],[10.97,50.922],[10.98,50.904],[11.055,50.91],[11.055,50.896],[11.007,50.895],[10.995,50.874],[11.005,50.864],[11.024,50.859],[11.036,50.88],[11.113,50.893],[11.127,50.902],[11.152,50.877],[11.178,50.867],[11.188,50.872],[11.172,50.875],[11.181,50.879],[11.206,50.865],[11.208,50.882],[11.246,50.875],[11.253,50.889],[11.221,50.931],[11.232,50.946],[11.221,50.95],[11.267,50.971],[11.266,50.985],[11.241,50.985],[11.226,50.997],[11.237,51.007],[11.214,51.006],[11.195,51.021],[11.206,51.036],[11.177,51.07],[11.159,51.057],[11.147,51.066],[11.126,51.06],[11.128,51.082],[11.085,51.065],[11.081,51.074],[11.044,51.08],[11.041,51.065],[11.023,51.066],[11.02,51.06],[11.028,51.059],[11.025,51.031],[10.988,51.036],[10.964,51.086],[10.981,51.097],[10.97,51.124],[10.951,51.125],[10.957,51.119],[10.948,51.116],[10.95,51.101],[10.91,51.089],[10.884,51.084],[10.88,51.098],[10.838,51.095],[10.831,51.073],[10.869,51.058],[10.87,51.028],[10.911,51.021],[10.915,51.004],[10.889,50.995],[10.836,51.007],[10.781,50.986],[10.814,50.98],[10.832,50.99],[10.827,50.951],[10.852,50.952],[10.855,50.963],[10.894,50.961],[10.897,50.945],[10.868,50.942],[10.876,50.927],[10.905,50.923],[10.916,50.93],[10.912,50.941],[10.939,50.947],[10.953,50.938],[11,50.948],[11.002,50.939],[11.026,50.938],[11.023,50.929]],[[11.153,50.919],[11.191,50.91],[11.19,50.903],[11.176,50.896],[11.147,50.908],[11.134,50.905],[11.12,50.918],[11.153,50.919]],[[11.17,50.94],[11.172,50.956],[11.188,50.948],[11.188,50.938],[11.17,50.94]],[[11.108,51.035],[11.155,51.037],[11.188,51.022],[11.151,51.004],[11.144,51.009],[11.147,51.017],[11.124,51.021],[11.108,51.035]]],[[[11.307,50.804],[11.335,50.819],[11.358,50.815],[11.364,50.832],[11.405,50.833],[11.409,50.857],[11.379,50.865],[11.399,50.89],[11.418,50.898],[11.395,50.902],[11.381,50.925],[11.338,50.924],[11.357,50.911],[11.353,50.895],[11.32,50.873],[11.289,50.867],[11.307,50.804]]],[[[11.093,51.112],[11.138,51.092],[11.175,51.106],[11.174,51.128],[11.157,51.163],[11.122,51.172],[11.128,51.18],[11.115,51.185],[11.115,51.174],[11.085,51.169],[11.086,51.151],[11.061,51.15],[11.064,51.129],[11.097,51.128],[11.102,51.118],[11.093,51.112]]],[[[11.226,51.071],[11.229,51.049],[11.274,51.026],[11.296,51.032],[11.312,51.054],[11.28,51.062],[11.273,51.052],[11.263,51.052],[11.257,51.055],[11.272,51.061],[11.266,51.073],[11.226,51.071]]],[[[11.287,51.127],[11.256,51.131],[11.255,51.103],[11.282,51.102],[11.294,51.126],[11.287,51.127]]]]}},{"type":"Feature","properties":{"NAME":"Imperial Abbey of Hersfeld","SUBJECTO":"Holy Roman Empire","PARTOF":"Holy Roman Empire","ADMIN_LEVEL":4,"OHM_RELATION_ID":2830973,"START_DATE":"0775","END_DATE":"1648-10-24"},"geometry":{"type":"MultiPolygon","coordinates":[[[[10.061,50.876],[10.044,50.876],[9.982,50.85],[9.934,50.864],[9.813,50.857],[9.73,50.886],[9.748,50.899],[9.755,50.896],[9.753,50.909],[9.712,50.91],[9.692,50.926],[9.616,50.922],[9.597,50.93],[9.561,50.913],[9.547,50.895],[9.495,50.875],[9.518,50.839],[9.507,50.834],[9.511,50.828],[9.501,50.81],[9.553,50.784],[9.56,50.763],[9.602,50.759],[9.629,50.78],[9.695,50.8],[9.7,50.813],[9.729,50.82],[9.74,50.807],[9.791,50.82],[9.807,50.814],[9.799,50.806],[9.812,50.794],[9.881,50.796],[9.896,50.79],[9.892,50.811],[9.899,50.817],[9.952,50.821],[9.957,50.81],[9.944,50.794],[9.955,50.786],[9.944,50.771],[9.969,50.783],[9.988,50.766],[10.04,50.758],[10.048,50.748],[10.043,50.734],[10.079,50.707],[10.076,50.72],[10.097,50.74],[10.06,50.76],[10.069,50.761],[10.075,50.783],[10.086,50.784],[10.078,50.79],[10.079,50.81],[10.057,50.821],[10.041,50.841],[10.054,50.851],[10.05,50.857],[10.061,50.876]],[[9.937,50.837],[9.899,50.841],[9.905,50.86],[9.944,50.845],[9.937,50.837]]],[[[10.074,50.879],[10.076,50.872],[10.092,50.874],[10.1,50.866],[10.114,50.869],[10.143,50.857],[10.189,50.853],[10.21,50.863],[10.185,50.866],[10.19,50.873],[10.22,50.888],[10.211,50.894],[10.198,50.88],[10.179,50.883],[10.17,50.902],[10.143,50.894],[10.137,50.907],[10.111,50.893],[10.094,50.893],[10.074,50.879]]]]}},{"type":"Feature","properties":{"NAME":"Imperial Abbey of Werden","SUBJECTO":"Holy Roman Empire","PARTOF":"Holy Roman Empire","ADMIN_LEVEL":4,"OHM_RELATION_ID":2831007,"START_DATE":"0877-05-22","END_DATE":"1803-04-27"},"geometry":{"type":"MultiPolygon","coordinates":[[[[6.926,51.429],[6.925,51.406],[6.897,51.389],[6.952,51.349],[6.967,51.347],[6.991,51.359],[7.036,51.347],[7.117,51.381],[7.119,51.392],[7.096,51.41],[7.08,51.443],[7.063,51.439],[7.046,51.419],[7.016,51.419],[6.986,51.433],[6.958,51.432],[6.946,51.44],[6.926,51.429]]]]}},{"type":"Feature","properties":{"NAME":"March of Cham","SUBJECTO":"Holy Roman Empire","PARTOF":"Holy Roman Empire","ADMIN_LEVEL":4,"OHM_RELATION_ID":2809509,"START_DATE":"1055","END_DATE":"1204"},"geometry":{"type":"MultiPolygon","coordinates":[[[[12.779,49.326],[12.726,49.315],[12.713,49.292],[12.689,49.317],[12.665,49.322],[12.652,49.347],[12.624,49.337],[12.623,49.316],[12.611,49.312],[12.615,49.288],[12.589,49.245],[12.6,49.244],[12.601,49.224],[12.611,49.214],[12.631,49.207],[12.603,49.204],[12.597,49.168],[12.58,49.165],[12.583,49.121],[12.596,49.115],[12.602,49.093],[12.621,49.094],[12.639,49.083],[12.65,49.1],[12.713,49.107],[12.71,49.125],[12.722,49.164],[12.741,49.167],[12.747,49.2],[12.78,49.194],[12.795,49.209],[12.817,49.211],[12.792,49.258],[12.798,49.266],[12.817,49.263],[12.848,49.275],[12.832,49.296],[12.807,49.295],[12.805,49.307],[12.779,49.326]]]]}},{"type":"Feature","properties":{"NAME":"March of Verona","SUBJECTO":"Holy Roman Empire","PARTOF":"Holy Roman Empire","ADMIN_LEVEL":4,"OHM_RELATION_ID":2805258,"START_DATE":"0888","END_DATE":"1151"},"geometry":{"type":"MultiPolygon","coordinates":[[[[10.841,45.298],[10.885,45.274],[10.916,45.199],[10.969,45.153],[11.041,45.137],[11.077,45.112],[11.066,45.043],[11.125,45.062],[11.163,45.045],[11.196,45.056],[11.239,45.044],[11.266,45.055],[11.268,45.091],[11.315,45.09],[11.367,45.062],[11.489,45.149],[11.545,45.166],[11.775,45.136],[11.922,45.151],[12.104,45.127],[12.15,45.101],[12.159,45.125],[12.153,45.237],[12.173,45.317],[12.168,45.457],[12.266,45.556],[12.355,45.585],[12.439,45.589],[12.767,45.649],[12.781,45.631],[12.826,45.624],[12.892,45.559],[12.967,45.587],[13.121,45.605],[13.143,45.621],[13.154,45.646],[13.204,45.677],[13.281,45.674],[13.37,45.642],[13.458,45.646],[13.497,45.671],[13.579,45.695],[13.599,45.712],[13.605,45.73],[13.641,45.713],[13.748,45.768],[14.01,45.984],[13.998,46.137],[13.931,46.172],[13.789,46.292],[13.839,46.336],[13.773,46.413],[13.615,46.414],[13.517,46.383],[13.501,46.409],[13.434,46.436],[13.439,46.453],[13.463,46.465],[13.456,46.475],[13.352,46.477],[13.288,46.518],[13.211,46.527],[13.202,46.546],[13.148,46.578],[13.022,46.602],[12.91,46.61],[12.848,46.605],[12.834,46.61],[12.837,46.627],[12.819,46.628],[12.784,46.645],[12.763,46.648],[12.735,46.636],[12.691,46.657],[12.641,46.652],[12.619,46.662],[12.569,46.651],[12.505,46.679],[12.434,46.668],[12.406,46.643],[12.382,46.644],[12.378,46.636],[12.39,46.627],[12.383,46.623],[12.36,46.619],[12.342,46.631],[12.315,46.63],[12.307,46.619],[12.284,46.617],[12.261,46.63],[12.244,46.624],[12.242,46.616],[12.211,46.61],[12.192,46.594],[12.194,46.622],[12.183,46.621],[12.161,46.637],[12.144,46.634],[12.07,46.675],[12.066,46.654],[12.075,46.643],[12.064,46.622],[12.044,46.607],[12.047,46.584],[11.997,46.534],[11.99,46.546],[11.949,46.54],[11.944,46.529],[11.828,46.509],[11.748,46.505],[11.716,46.512],[11.645,46.491],[11.601,46.387],[11.563,46.38],[11.558,46.349],[11.484,46.36],[11.452,46.336],[11.34,46.297],[11.244,46.232],[11.167,46.292],[11.205,46.35],[11.22,46.469],[11.19,46.507],[11.094,46.537],[10.862,46.434],[10.799,46.444],[10.765,46.487],[10.621,46.448],[10.53,46.471],[10.513,46.295],[10.432,46.252],[10.43,46.205],[10.414,46.14],[10.475,46.082],[10.448,45.98],[10.441,45.916],[10.399,45.837],[10.35,45.823],[10.332,45.761],[10.331,45.662],[10.361,45.581],[10.457,45.523],[10.494,45.474],[10.578,45.437],[10.662,45.419],[10.759,45.358],[10.793,45.316],[10.841,45.298]]]]}},{"type":"Feature","properties":{"NAME":"Prince-Bishopric of Basel","SUBJECTO":"Holy Roman Empire","PARTOF":"Holy Roman Empire","ADMIN_LEVEL":4,"OHM_RELATION_ID":2852254,"START_DATE":"1032","END_DATE":"1797-10-17"},"geometry":{"type":"MultiPolygon","coordinates":[[[[6.842,47.172],[6.855,47.161],[6.862,47.166],[6.889,47.131],[6.869,47.087],[6.931,47.108],[7.028,47.127],[7.041,47.124],[7.024,47.113],[7.029,47.104],[7.041,47.109],[7.076,47.096],[7.089,47.083],[7.077,47.076],[7.088,47.06],[7.135,47.084],[7.128,47.089],[7.142,47.098],[7.137,47.107],[7.2,47.134],[7.241,47.128],[7.294,47.161],[7.326,47.162],[7.344,47.153],[7.37,47.159],[7.374,47.149],[7.366,47.144],[7.376,47.141],[7.386,47.148],[7.389,47.158],[7.361,47.171],[7.357,47.184],[7.339,47.195],[7.346,47.207],[7.341,47.217],[7.422,47.242],[7.416,47.253],[7.471,47.266],[7.487,47.284],[7.532,47.295],[7.572,47.326],[7.524,47.371],[7.46,47.37],[7.437,47.379],[7.444,47.401],[7.478,47.402],[7.48,47.388],[7.519,47.388],[7.53,47.414],[7.572,47.417],[7.575,47.438],[7.582,47.429],[7.614,47.436],[7.627,47.463],[7.605,47.47],[7.614,47.521],[7.594,47.519],[7.581,47.544],[7.556,47.544],[7.565,47.557],[7.555,47.564],[7.5,47.54],[7.501,47.529],[7.53,47.53],[7.523,47.519],[7.536,47.514],[7.53,47.462],[7.456,47.449],[7.443,47.461],[7.43,47.459],[7.421,47.446],[7.438,47.446],[7.456,47.428],[7.449,47.415],[7.438,47.413],[7.376,47.414],[7.376,47.433],[7.333,47.441],[7.282,47.435],[7.249,47.421],[7.231,47.439],[7.2,47.435],[7.17,47.443],[7.187,47.483],[7.203,47.491],[7.162,47.49],[7.13,47.503],[7.075,47.488],[7.037,47.498],[7.011,47.484],[7.002,47.469],[7.006,47.458],[6.996,47.45],[6.942,47.434],[6.938,47.406],[6.913,47.405],[6.91,47.385],[6.884,47.373],[6.879,47.356],[6.976,47.361],[7.014,47.372],[7.046,47.363],[7.062,47.344],[7.046,47.326],[6.967,47.325],[6.971,47.318],[7.015,47.317],[7.01,47.297],[7.003,47.289],[6.956,47.292],[6.928,47.281],[6.924,47.275],[6.935,47.27],[6.93,47.258],[6.955,47.243],[6.88,47.2],[6.874,47.185],[6.842,47.172]]],[[[7.519,47.674],[7.542,47.646],[7.549,47.661],[7.562,47.665],[7.549,47.681],[7.519,47.674]]],[[[7.551,47.744],[7.58,47.735],[7.628,47.725],[7.63,47.737],[7.616,47.755],[7.614,47.775],[7.574,47.776],[7.551,47.744]]]]}},{"type":"Feature","properties":{"NAME":"Prince-Bishopric of Passau","SUBJECTO":"Holy Roman Empire","PARTOF":"Holy Roman Empire","ADMIN_LEVEL":4,"OHM_RELATION_ID":2809505,"START_DATE":"999","END_DATE":"1803-04-27"},"geometry":{"type":"MultiPolygon","coordinates":[[[[13.234,48.671],[13.242,48.655],[13.266,48.644],[13.267,48.608],[13.385,48.595],[13.408,48.578],[13.45,48.576],[13.438,48.566],[13.401,48.567],[13.39,48.542],[13.362,48.531],[13.362,48.488],[13.383,48.487],[13.387,48.473],[13.41,48.476],[13.435,48.497],[13.447,48.494],[13.457,48.511],[13.436,48.553],[13.45,48.564],[13.475,48.556],[13.475,48.562],[13.504,48.572],[13.505,48.587],[13.516,48.591],[13.573,48.561],[13.597,48.57],[13.654,48.549],[13.657,48.544],[13.639,48.544],[13.643,48.539],[13.637,48.528],[13.654,48.504],[13.68,48.491],[13.677,48.484],[13.696,48.472],[13.704,48.476],[13.7,48.479],[13.72,48.506],[13.715,48.512],[13.727,48.513],[13.749,48.532],[13.744,48.542],[13.755,48.564],[13.768,48.554],[13.802,48.574],[13.802,48.595],[13.824,48.618],[13.826,48.63],[13.814,48.65],[13.819,48.672],[13.813,48.692],[13.833,48.692],[13.837,48.7],[13.812,48.702],[13.799,48.712],[13.82,48.733],[13.821,48.755],[13.84,48.772],[13.804,48.781],[13.815,48.797],[13.796,48.815],[13.793,48.829],[13.768,48.833],[13.733,48.887],[13.719,48.879],[13.676,48.879],[13.624,48.937],[13.625,48.949],[13.606,48.941],[13.58,48.971],[13.512,48.969],[13.506,48.96],[13.515,48.937],[13.507,48.923],[13.523,48.898],[13.522,48.879],[13.507,48.863],[13.453,48.856],[13.449,48.848],[13.47,48.843],[13.461,48.832],[13.447,48.831],[13.449,48.818],[13.44,48.81],[13.449,48.79],[13.425,48.756],[13.455,48.718],[13.451,48.688],[13.437,48.677],[13.39,48.682],[13.381,48.67],[13.372,48.67],[13.367,48.688],[13.348,48.689],[13.342,48.676],[13.308,48.68],[13.271,48.694],[13.238,48.686],[13.234,48.671]],[[13.437,48.637],[13.536,48.63],[13.532,48.606],[13.502,48.609],[13.483,48.6],[13.491,48.574],[13.437,48.637]]],[[[13.288,48.338],[13.32,48.319],[13.376,48.357],[13.357,48.369],[13.288,48.338]]]]}},{"type":"Feature","properties":{"NAME":"Prince-Bishopric of Worms","SUBJECTO":"Holy Roman Empire","PARTOF":"Holy Roman Empire","ADMIN_LEVEL":4,"OHM_RELATION_ID":2830736,"START_DATE":"0861","END_DATE":"1797-10-10"},"geometry":{"type":"MultiPolygon","coordinates":[[[[8.08,49.545],[8.042,49.523],[8.08,49.533],[8.089,49.524],[8.075,49.519],[8.085,49.513],[8.154,49.541],[8.149,49.554],[8.136,49.555],[8.135,49.562],[8.094,49.534],[8.08,49.545]]],[[[8.423,49.541],[8.414,49.559],[8.423,49.584],[8.464,49.59],[8.495,49.573],[8.513,49.587],[8.554,49.586],[8.59,49.592],[8.591,49.6],[8.562,49.604],[8.573,49.634],[8.532,49.619],[8.516,49.623],[8.487,49.614],[8.443,49.613],[8.418,49.628],[8.39,49.628],[8.374,49.616],[8.278,49.616],[8.275,49.609],[8.283,49.608],[8.29,49.591],[8.338,49.601],[8.344,49.596],[8.325,49.582],[8.317,49.568],[8.325,49.561],[8.311,49.555],[8.317,49.55],[8.359,49.558],[8.353,49.552],[8.372,49.547],[8.376,49.54],[8.394,49.55],[8.423,49.541]]],[[[8.233,49.588],[8.212,49.587],[8.222,49.56],[8.213,49.556],[8.22,49.546],[8.233,49.548],[8.24,49.537],[8.275,49.539],[8.281,49.587],[8.233,49.588]]]]}},{"type":"Feature","properties":{"NAME":"Saxon Eastern March","SUBJECTO":"Holy Roman Empire","PARTOF":"Holy Roman Empire","ADMIN_LEVEL":4,"OHM_RELATION_ID":2805286,"START_DATE":"0965","END_DATE":"1128"},"geometry":{"type":"MultiPolygon","coordinates":[[[[13.288,52.337],[13.107,52.356],[13.026,52.333],[12.921,52.251],[12.733,52.229],[12.685,52.272],[12.618,52.272],[12.509,52.25],[12.515,52.219],[12.568,52.203],[12.549,52.169],[12.415,52.162],[12.155,52.085],[11.879,52.026],[11.891,52.006],[11.88,51.984],[11.921,51.945],[11.799,51.913],[11.766,51.862],[11.781,51.804],[11.703,51.785],[11.712,51.741],[11.667,51.718],[11.753,51.656],[11.762,51.587],[11.83,51.573],[11.828,51.531],[11.892,51.536],[11.943,51.521],[11.96,51.479],[11.922,51.445],[12.015,51.342],[12.137,51.377],[12.165,51.358],[12.354,51.387],[12.541,51.387],[12.634,51.492],[12.695,51.495],[12.769,51.437],[12.791,51.363],[12.936,51.372],[13.079,51.44],[13.14,51.401],[13.236,51.401],[13.302,51.442],[13.428,51.452],[13.472,51.473],[13.571,51.433],[13.686,51.432],[13.826,51.457],[13.914,51.451],[13.955,51.493],[14.06,51.464],[14.09,51.505],[14.17,51.519],[14.186,51.541],[14.504,51.539],[14.515,51.585],[14.537,51.592],[14.565,51.584],[14.593,51.547],[14.626,51.548],[14.632,51.57],[14.757,51.57],[14.753,51.547],[14.772,51.523],[14.801,51.523],[14.879,51.484],[14.931,51.482],[14.963,51.438],[14.953,51.393],[15.052,51.38],[15.129,51.383],[15.136,51.395],[15.413,51.394],[15.389,51.463],[15.37,51.48],[15.368,51.491],[15.379,51.517],[15.373,51.531],[15.395,51.551],[15.39,51.571],[15.395,51.575],[15.371,51.58],[15.332,51.609],[15.317,51.607],[15.235,51.807],[15.103,51.958],[15.106,51.985],[15.123,51.994],[15.11,51.998],[15.082,51.984],[15.059,51.991],[15.05,52.002],[15.081,52.045],[15.048,52.065],[15.012,52.068],[14.979,52.051],[14.963,52.055],[14.942,52.046],[14.912,52.046],[14.843,52.077],[14.789,52.071],[14.775,52.081],[14.756,52.07],[14.737,52.088],[14.695,52.102],[14.682,52.114],[14.68,52.145],[14.705,52.174],[14.686,52.192],[14.708,52.211],[14.716,52.234],[14.695,52.255],[14.597,52.273],[14.579,52.287],[14.582,52.249],[14.553,52.24],[14.527,52.236],[14.417,52.252],[14.282,52.296],[14.208,52.305],[14.144,52.347],[13.999,52.367],[13.998,52.373],[13.934,52.393],[13.922,52.39],[13.915,52.4],[13.892,52.39],[13.885,52.401],[13.901,52.428],[13.927,52.442],[13.674,52.459],[13.462,52.443],[13.384,52.361],[13.288,52.337]]]]}}],"metadata":{"generatedBy":"scripts/build-fief-flat.ts","input":"data/hre_fiefs_1100.geojson","year":1100,"cutPolicy":"keep-smaller","containmentCoverageThreshold":0.9,"minOverlapAreaM2":1000,"sliverAreaLimitM2":1000000000,"resolutions":[{"kind":"sliver","cutName":"County of Leiningen","keptName":"Prince-Bishopric of Worms","overlapKm2":1.65,"coverageOfSmaller":0.0118},{"kind":"sliver","cutName":"Duchy of Bavaria","keptName":"Burgraviate of Nuremberg","overlapKm2":712.53,"coverageOfSmaller":0.1503},{"kind":"containment","cutName":"Duchy of Bavaria","keptName":"March of Cham","overlapKm2":311.38,"coverageOfSmaller":1},{"kind":"sliver","cutName":"Duchy of Bavaria","keptName":"March of Verona","overlapKm2":1.5,"coverageOfSmaller":0},{"kind":"containment","cutName":"Duchy of Bavaria","keptName":"Prince-Bishopric of Passau","overlapKm2":1224.52,"coverageOfSmaller":0.9971},{"kind":"sliver","cutName":"Duchy of Bohemia","keptName":"Prince-Bishopric of Passau","overlapKm2":3.54,"coverageOfSmaller":0.0029},{"kind":"sliver","cutName":"Duchy of Franconia","keptName":"Burgraviate of Nuremberg","overlapKm2":3672.97,"coverageOfSmaller":0.7747},{"kind":"containment","cutName":"Duchy of Franconia","keptName":"County of Leiningen","overlapKm2":421.52,"coverageOfSmaller":0.9576},{"kind":"sliver","cutName":"Duchy of Franconia","keptName":"Imperial Abbey of Hersfeld","overlapKm2":342.54,"coverageOfSmaller":0.7652},{"kind":"containment","cutName":"Duchy of Franconia","keptName":"Prince-Bishopric of Worms","overlapKm2":140.77,"coverageOfSmaller":1},{"kind":"containment","cutName":"Duchy of Lower Lotharingia","keptName":"County of Horne","overlapKm2":115.65,"coverageOfSmaller":1},{"kind":"sliver","cutName":"Duchy of Lower Lotharingia","keptName":"Duchy of Upper Lotharingia","overlapKm2":1.85,"coverageOfSmaller":0},{"kind":"sliver","cutName":"Duchy of Lower Lotharingia","keptName":"Imperial Abbey of Werden","overlapKm2":47.43,"coverageOfSmaller":0.4494},{"kind":"sliver","cutName":"Duchy of Saxony","keptName":"County of Drenthe","overlapKm2":154.77,"coverageOfSmaller":0.055},{"kind":"sliver","cutName":"Duchy of Saxony","keptName":"Imperial Abbey of Werden","overlapKm2":58.11,"coverageOfSmaller":0.5506},{"kind":"sliver","cutName":"Duchy of Swabia","keptName":"Burgraviate of Nuremberg","overlapKm2":355.92,"coverageOfSmaller":0.0751},{"kind":"sliver","cutName":"Duchy of Swabia","keptName":"Prince-Bishopric of Basel","overlapKm2":33.9,"coverageOfSmaller":0.0214},{"kind":"containment","cutName":"Duchy of Thuringia","keptName":"Erfurt Territory","overlapKm2":644.05,"coverageOfSmaller":1},{"kind":"sliver","cutName":"Duchy of Thuringia","keptName":"Imperial Abbey of Hersfeld","overlapKm2":105.11,"coverageOfSmaller":0.2348},{"kind":"sliver","cutName":"Duchy of Upper Lotharingia","keptName":"County of Leiningen","overlapKm2":18.66,"coverageOfSmaller":0.0424},{"kind":"sliver","cutName":"Prince-Bishopric of Basel","keptName":"County/Principality of Neuchâtel","overlapKm2":1.49,"coverageOfSmaller":0.0019}],"externalInputs":["data/france_fiefs_flat_1100.geojson","data/italy_fiefs_flat_1100.geojson"],"externalRemovals":[{"cutName":"Duchy of Upper Lotharingia","externalName":"County of Bar","overlapKm2":5542.83}],"source":"OpenHistoricalMap","sourceUrl":"https://www.openhistoricalmap.org/","license":"CC0-1.0","borderPrecision":"史料に基づく復元（概略。測量された境界ではない）"}}