{"type":"FeatureCollection","features":[{"type":"Feature","properties":{"NAME":"Holy Roman Empire","SUBJECTO":"Holy Roman Empire","PARTOF":"Holy Roman Empire","ADMIN_LEVEL":2,"OHM_RELATION_ID":2696467,"START_DATE":"1797-10-17","END_DATE":"1803-04-27"},"geometry":{"type":"MultiPolygon","coordinates":[[[[5.903,51.956],[5.906,51.946],[5.924,51.943],[5.91,51.935],[5.925,51.921],[5.93,51.903],[5.962,51.925],[5.975,51.914],[6.015,51.917],[6.088,51.903],[6.135,51.886],[6.139,51.863],[6.119,51.86],[6.092,51.882],[6.042,51.874],[6.098,51.85],[6.264,51.823],[6.308,51.802],[6.342,51.758],[6.413,51.753],[6.423,51.743],[6.409,51.719],[6.464,51.699],[6.481,51.665],[6.482,51.634],[6.499,51.637],[6.506,51.653],[6.519,51.661],[6.595,51.656],[6.604,51.639],[6.587,51.623],[6.601,51.572],[6.62,51.567],[6.663,51.578],[6.684,51.572],[6.676,51.539],[6.724,51.509],[6.681,51.481],[6.723,51.46],[6.712,51.439],[6.742,51.412],[6.744,51.396],[6.715,51.376],[6.661,51.365],[6.655,51.354],[6.717,51.332],[6.734,51.317],[6.728,51.299],[6.705,51.278],[6.705,51.267],[6.756,51.249],[6.769,51.228],[6.759,51.22],[6.733,51.229],[6.723,51.224],[6.732,51.187],[6.793,51.182],[6.798,51.172],[6.793,51.15],[6.802,51.143],[6.819,51.146],[6.838,51.161],[6.855,51.16],[6.849,51.133],[6.884,51.107],[6.854,51.08],[6.972,51.026],[6.963,50.997],[6.999,50.973],[6.966,50.942],[6.975,50.914],[6.995,50.898],[7.037,50.894],[7.052,50.885],[6.981,50.843],[6.981,50.832],[7.026,50.817],[7.036,50.785],[7.1,50.757],[7.117,50.727],[7.161,50.711],[7.21,50.652],[7.215,50.588],[7.264,50.575],[7.303,50.512],[7.382,50.449],[7.44,50.442],[7.472,50.413],[7.544,50.421],[7.607,50.389],[7.614,50.377],[7.59,50.315],[7.603,50.295],[7.653,50.257],[7.639,50.246],[7.599,50.25],[7.577,50.241],[7.613,50.228],[7.642,50.203],[7.644,50.179],[7.689,50.169],[7.687,50.192],[7.701,50.204],[7.717,50.197],[7.717,50.223],[7.734,50.231],[7.715,50.241],[7.734,50.248],[7.741,50.266],[7.762,50.266],[7.787,50.245],[7.853,50.263],[7.873,50.28],[7.938,50.303],[7.962,50.291],[7.958,50.274],[7.965,50.267],[7.948,50.256],[7.951,50.25],[8.032,50.239],[8.044,50.22],[8.099,50.222],[8.096,50.206],[8.065,50.198],[8.072,50.184],[8.059,50.178],[8.068,50.167],[8.096,50.16],[8.089,50.147],[8.108,50.131],[8.118,50.092],[8.084,50.103],[8.056,50.091],[8.012,50.087],[8.006,50.109],[7.977,50.115],[7.955,50.106],[7.95,50.117],[7.925,50.123],[7.924,50.134],[7.934,50.146],[7.902,50.154],[7.848,50.151],[7.839,50.136],[7.76,50.106],[7.732,50.123],[7.721,50.114],[7.774,50.076],[7.777,50.055],[7.855,50.01],[7.867,49.981],[7.888,49.972],[7.938,49.973],[8.179,50.035],[8.243,50.028],[8.332,49.964],[8.355,49.918],[8.341,49.885],[8.353,49.866],[8.382,49.857],[8.38,49.821],[8.405,49.817],[8.442,49.837],[8.476,49.826],[8.471,49.816],[8.432,49.807],[8.417,49.775],[8.429,49.766],[8.471,49.769],[8.48,49.761],[8.438,49.722],[8.376,49.705],[8.361,49.697],[8.355,49.681],[8.384,49.625],[8.422,49.585],[8.418,49.547],[8.47,49.527],[8.467,49.515],[8.442,49.501],[8.465,49.471],[8.445,49.458],[8.446,49.447],[8.519,49.433],[8.5,49.425],[8.496,49.402],[8.462,49.387],[8.463,49.375],[8.476,49.371],[8.508,49.388],[8.525,49.373],[8.512,49.363],[8.47,49.36],[8.471,49.34],[8.451,49.326],[8.454,49.316],[8.485,49.304],[8.486,49.287],[8.467,49.283],[8.434,49.294],[8.424,49.288],[8.431,49.273],[8.467,49.259],[8.466,49.249],[8.442,49.244],[8.426,49.254],[8.396,49.24],[8.405,49.22],[8.369,49.165],[8.383,49.148],[8.362,49.142],[8.357,49.131],[8.373,49.101],[8.365,49.09],[8.341,49.069],[8.309,49.071],[8.299,49.06],[8.275,49.059],[8.281,49.043],[8.308,49.035],[8.303,49.023],[8.283,49.023],[8.277,49.015],[8.289,49.004],[8.312,49.001],[8.309,48.994],[8.286,48.995],[8.28,48.98],[8.257,48.977],[8.235,48.96],[8.196,48.954],[8.197,48.936],[8.177,48.931],[8.173,48.911],[8.144,48.919],[8.127,48.912],[8.123,48.9],[8.144,48.893],[8.149,48.883],[8.12,48.867],[8.105,48.833],[8.113,48.812],[8.081,48.813],[8.079,48.794],[8.035,48.789],[8.014,48.761],[7.971,48.756],[7.98,48.742],[7.958,48.735],[7.951,48.706],[7.903,48.675],[7.899,48.661],[7.879,48.662],[7.829,48.635],[7.83,48.611],[7.804,48.584],[7.81,48.55],[7.802,48.538],[7.803,48.511],[7.783,48.498],[7.775,48.467],[7.751,48.443],[7.751,48.43],[7.738,48.416],[7.746,48.409],[7.727,48.38],[7.721,48.357],[7.743,48.333],[7.74,48.322],[7.702,48.289],[7.698,48.269],[7.682,48.257],[7.674,48.234],[7.601,48.158],[7.598,48.134],[7.577,48.119],[7.568,48.036],[7.609,48],[7.622,47.977],[7.58,47.925],[7.581,47.896],[7.556,47.878],[7.563,47.841],[7.53,47.777],[7.548,47.731],[7.511,47.698],[7.52,47.665],[7.566,47.633],[7.575,47.615],[7.593,47.603],[7.589,47.59],[7.605,47.58],[7.619,47.577],[7.643,47.595],[7.675,47.592],[7.692,47.6],[7.672,47.587],[7.681,47.583],[7.686,47.566],[7.684,47.571],[7.638,47.563],[7.668,47.536],[7.695,47.532],[7.713,47.54],[7.742,47.526],[7.789,47.521],[7.791,47.494],[7.831,47.513],[7.835,47.533],[7.859,47.534],[7.903,47.482],[7.944,47.483],[7.988,47.429],[8.019,47.431],[8.028,47.436],[8.029,47.461],[8.064,47.466],[8.11,47.457],[8.096,47.479],[8.074,47.486],[8.073,47.505],[8.104,47.524],[8.143,47.529],[8.134,47.545],[8.146,47.554],[8.175,47.569],[8.226,47.546],[8.23,47.558],[8.249,47.561],[8.253,47.576],[8.221,47.601],[8.239,47.613],[8.291,47.609],[8.296,47.591],[8.325,47.572],[8.383,47.566],[8.399,47.577],[8.433,47.567],[8.486,47.577],[8.49,47.586],[8.467,47.584],[8.459,47.602],[8.508,47.618],[8.516,47.633],[8.558,47.624],[8.575,47.612],[8.562,47.6],[8.583,47.596],[8.605,47.613],[8.598,47.644],[8.612,47.65],[8.603,47.64],[8.615,47.638],[8.628,47.649],[8.603,47.673],[8.576,47.662],[8.564,47.67],[8.529,47.661],[8.532,47.646],[8.526,47.645],[8.494,47.642],[8.475,47.65],[8.472,47.639],[8.467,47.656],[8.445,47.654],[8.41,47.668],[8.408,47.678],[8.418,47.688],[8.405,47.698],[8.455,47.722],[8.45,47.738],[8.456,47.747],[8.486,47.772],[8.517,47.772],[8.555,47.784],[8.574,47.78],[8.574,47.79],[8.564,47.792],[8.567,47.807],[8.58,47.8],[8.616,47.8],[8.619,47.768],[8.631,47.759],[8.649,47.77],[8.646,47.791],[8.657,47.8],[8.657,47.792],[8.682,47.784],[8.691,47.757],[8.727,47.762],[8.741,47.748],[8.721,47.743],[8.712,47.731],[8.734,47.718],[8.728,47.693],[8.79,47.675],[8.796,47.675],[8.798,47.689],[8.809,47.692],[8.793,47.704],[8.772,47.707],[8.77,47.717],[8.808,47.737],[8.807,47.726],[8.819,47.713],[8.873,47.704],[8.872,47.694],[8.853,47.697],[8.851,47.685],[8.874,47.67],[8.875,47.655],[8.899,47.648],[9.025,47.686],[9.101,47.678],[9.138,47.664],[9.155,47.667],[9.173,47.655],[9.256,47.659],[9.445,47.595],[9.515,47.537],[9.551,47.537],[9.564,47.493],[9.594,47.464],[9.612,47.469],[9.621,47.458],[9.656,47.454],[9.645,47.432],[9.652,47.408],[9.674,47.389],[9.673,47.382],[9.662,47.371],[9.624,47.366],[9.611,47.356],[9.584,47.313],[9.559,47.3],[9.533,47.273],[9.486,47.184],[9.512,47.132],[9.519,47.097],[9.513,47.085],[9.475,47.067],[9.476,47.052],[9.536,47.064],[9.56,47.049],[9.606,47.061],[9.633,47.051],[9.644,47.059],[9.677,47.061],[9.718,47.044],[9.781,47.038],[9.839,47.012],[9.86,47.023],[9.876,47.021],[9.872,47.01],[9.892,46.99],[9.875,46.972],[9.876,46.935],[9.933,46.915],[9.978,46.916],[9.988,46.904],[10.02,46.899],[10.05,46.877],[10.055,46.862],[10.087,46.861],[10.105,46.841],[10.169,46.851],[10.194,46.866],[10.233,46.866],[10.237,46.875],[10.256,46.86],[10.276,46.88],[10.283,46.918],[10.316,46.925],[10.307,46.938],[10.309,46.95],[10.325,46.952],[10.349,46.99],[10.372,46.991],[10.389,47.001],[10.427,46.976],[10.422,46.96],[10.434,46.956],[10.42,46.944],[10.418,46.926],[10.452,46.928],[10.479,46.911],[10.465,46.884],[10.471,46.849],[10.457,46.83],[10.458,46.817],[10.443,46.799],[10.42,46.793],[10.439,46.775],[10.443,46.754],[10.402,46.735],[10.415,46.709],[10.382,46.685],[10.407,46.635],[10.455,46.637],[10.492,46.615],[10.472,46.544],[10.459,46.541],[10.453,46.531],[10.458,46.511],[10.477,46.496],[10.546,46.493],[10.601,46.469],[10.622,46.448],[10.616,46.43],[10.633,46.402],[10.608,46.379],[10.567,46.378],[10.544,46.366],[10.54,46.355],[10.52,46.356],[10.516,46.343],[10.566,46.326],[10.564,46.314],[10.58,46.299],[10.56,46.283],[10.576,46.275],[10.585,46.249],[10.541,46.189],[10.514,46.178],[10.514,46.163],[10.587,46.162],[10.588,46.123],[10.598,46.105],[10.592,46.081],[10.575,46.056],[10.543,46.035],[10.507,46.041],[10.483,46.022],[10.467,46.018],[10.457,46.009],[10.453,45.985],[10.453,45.978],[10.486,45.971],[10.485,45.946],[10.507,45.925],[10.511,45.916],[10.49,45.887],[10.504,45.874],[10.502,45.83],[10.544,45.817],[10.526,45.805],[10.533,45.805],[10.533,45.788],[10.546,45.785],[10.57,45.75],[10.567,45.728],[10.624,45.742],[10.669,45.776],[10.645,45.802],[10.657,45.823],[10.653,45.833],[10.735,45.842],[10.753,45.833],[10.773,45.843],[10.792,45.833],[10.825,45.838],[10.884,45.817],[10.888,45.811],[10.873,45.788],[10.885,45.779],[10.883,45.772],[10.87,45.765],[10.845,45.723],[10.924,45.701],[10.912,45.688],[10.929,45.677],[10.943,45.673],[10.971,45.701],[10.968,45.68],[10.99,45.691],[10.998,45.697],[10.993,45.708],[11.008,45.71],[11.011,45.719],[11.018,45.719],[11.017,45.706],[11.042,45.706],[11.053,45.716],[11.094,45.692],[11.114,45.697],[11.123,45.689],[11.139,45.697],[11.146,45.717],[11.178,45.736],[11.181,45.766],[11.174,45.782],[11.183,45.788],[11.204,45.784],[11.189,45.813],[11.219,45.833],[11.218,45.844],[11.234,45.86],[11.236,45.88],[11.218,45.905],[11.223,45.927],[11.236,45.932],[11.336,45.895],[11.358,45.895],[11.367,45.909],[11.357,45.927],[11.358,45.944],[11.382,45.943],[11.374,45.984],[11.447,45.981],[11.489,46.008],[11.511,46.012],[11.577,46.007],[11.588,45.969],[11.63,45.969],[11.628,45.961],[11.67,45.964],[11.682,45.968],[11.69,45.989],[11.667,46.017],[11.682,46.028],[11.666,46.036],[11.706,46.046],[11.682,46.079],[11.689,46.095],[11.703,46.09],[11.717,46.103],[11.751,46.105],[11.759,46.094],[11.773,46.107],[11.811,46.103],[11.887,46.118],[11.922,46.15],[11.929,46.172],[11.965,46.172],[11.961,46.196],[11.939,46.199],[11.912,46.223],[11.929,46.249],[11.89,46.255],[11.886,46.278],[11.838,46.27],[11.827,46.284],[11.84,46.304],[11.828,46.327],[11.803,46.333],[11.801,46.344],[11.774,46.358],[11.792,46.368],[11.815,46.368],[11.822,46.376],[11.832,46.366],[11.832,46.386],[11.843,46.411],[11.839,46.414],[11.851,46.434],[11.876,46.435],[11.892,46.444],[11.887,46.463],[11.915,46.463],[11.951,46.478],[12.003,46.438],[12.028,46.445],[12.031,46.476],[12.059,46.498],[12.084,46.493],[12.116,46.465],[12.146,46.466],[12.197,46.509],[12.23,46.505],[12.239,46.513],[12.24,46.526],[12.254,46.537],[12.243,46.564],[12.193,46.581],[12.191,46.59],[12.211,46.61],[12.242,46.616],[12.244,46.624],[12.261,46.63],[12.284,46.617],[12.307,46.619],[12.315,46.63],[12.371,46.62],[12.39,46.627],[12.378,46.636],[12.382,46.644],[12.406,46.643],[12.434,46.668],[12.504,46.68],[12.569,46.651],[12.619,46.662],[12.641,46.652],[12.691,46.657],[12.716,46.649],[12.73,46.635],[12.763,46.648],[12.784,46.645],[12.804,46.633],[12.837,46.627],[12.835,46.614],[12.848,46.605],[12.932,46.61],[12.945,46.604],[13.065,46.598],[13.158,46.574],[13.202,46.546],[13.211,46.527],[13.29,46.518],[13.352,46.477],[13.454,46.477],[13.463,46.465],[13.439,46.453],[13.434,46.436],[13.501,46.409],[13.517,46.381],[13.471,46.362],[13.439,46.36],[13.448,46.332],[13.417,46.317],[13.418,46.307],[13.403,46.3],[13.452,46.279],[13.435,46.253],[13.449,46.245],[13.439,46.227],[13.502,46.224],[13.573,46.208],[13.585,46.216],[13.666,46.175],[13.645,46.138],[13.535,46.073],[13.543,46.064],[13.502,46.025],[13.51,46.029],[13.521,46.022],[13.519,46.013],[13.511,46.004],[13.486,46.002],[13.494,45.988],[13.489,45.983],[13.426,45.954],[13.425,45.942],[13.395,45.931],[13.396,45.919],[13.386,45.914],[13.369,45.926],[13.333,45.916],[13.339,45.899],[13.327,45.897],[13.334,45.888],[13.328,45.87],[13.338,45.852],[13.349,45.859],[13.357,45.851],[13.372,45.856],[13.388,45.875],[13.404,45.872],[13.403,45.858],[13.417,45.85],[13.411,45.842],[13.4,45.85],[13.39,45.846],[13.385,45.825],[13.348,45.806],[13.355,45.831],[13.353,45.838],[13.34,45.837],[13.338,45.826],[13.306,45.811],[13.302,45.796],[13.31,45.79],[13.302,45.779],[13.266,45.776],[13.251,45.767],[13.253,45.749],[13.313,45.753],[13.323,45.744],[13.408,45.73],[13.404,45.739],[13.458,45.749],[13.462,45.752],[13.451,45.748],[13.436,45.759],[13.421,45.756],[13.442,45.791],[13.432,45.797],[13.426,45.834],[13.474,45.874],[13.502,45.869],[13.564,45.808],[13.585,45.8],[13.579,45.797],[13.581,45.755],[13.671,45.679],[13.702,45.665],[13.691,45.637],[13.782,45.607],[13.81,45.607],[13.839,45.593],[13.84,45.582],[13.859,45.587],[13.883,45.56],[13.859,45.546],[13.871,45.538],[13.893,45.55],[13.907,45.541],[13.926,45.546],[13.944,45.533],[13.939,45.527],[13.951,45.509],[14.005,45.47],[14.107,45.46],[14.166,45.415],[14.205,45.404],[14.181,45.385],[14.188,45.376],[14.181,45.364],[14.152,45.354],[14.11,45.386],[14.088,45.383],[14.094,45.371],[14.07,45.35],[14.078,45.345],[14.072,45.327],[14.024,45.334],[14.029,45.325],[14.019,45.314],[13.985,45.29],[13.987,45.296],[13.955,45.316],[13.909,45.336],[13.883,45.33],[13.876,45.319],[13.887,45.302],[13.881,45.289],[13.841,45.261],[13.823,45.234],[13.783,45.223],[13.787,45.214],[13.779,45.199],[13.789,45.167],[13.82,45.158],[13.844,45.16],[13.841,45.146],[13.855,45.107],[13.915,45.102],[13.935,45.09],[13.984,45.104],[14.019,45.099],[14.033,45.152],[14.107,45.15],[14.162,45.171],[14.259,45.148],[14.278,45.187],[14.302,45.209],[14.335,45.294],[14.4,45.345],[14.414,45.358],[14.413,45.372],[14.437,45.388],[14.417,45.401],[14.424,45.425],[14.406,45.44],[14.458,45.479],[14.452,45.49],[14.474,45.51],[14.474,45.532],[14.499,45.549],[14.503,45.603],[14.544,45.622],[14.565,45.651],[14.57,45.672],[14.606,45.664],[14.601,45.625],[14.692,45.578],[14.699,45.564],[14.687,45.545],[14.69,45.527],[14.72,45.534],[14.767,45.507],[14.795,45.503],[14.817,45.461],[14.908,45.477],[14.915,45.52],[14.933,45.529],[14.989,45.496],[15.01,45.498],[15.028,45.486],[15.054,45.494],[15.083,45.483],[15.086,45.467],[15.168,45.422],[15.182,45.424],[15.192,45.436],[15.206,45.425],[15.223,45.426],[15.242,45.451],[15.274,45.466],[15.329,45.453],[15.346,45.457],[15.356,45.47],[15.349,45.479],[15.306,45.493],[15.333,45.508],[15.303,45.535],[15.298,45.585],[15.277,45.603],[15.308,45.614],[15.305,45.632],[15.35,45.636],[15.346,45.646],[15.389,45.638],[15.406,45.648],[15.37,45.69],[15.351,45.669],[15.352,45.684],[15.364,45.693],[15.358,45.713],[15.343,45.715],[15.319,45.696],[15.326,45.676],[15.321,45.674],[15.309,45.687],[15.311,45.697],[15.299,45.697],[15.301,45.687],[15.295,45.689],[15.279,45.71],[15.268,45.704],[15.268,45.694],[15.241,45.72],[15.301,45.754],[15.381,45.779],[15.398,45.792],[15.472,45.797],[15.467,45.815],[15.481,45.828],[15.527,45.824],[15.542,45.846],[15.559,45.835],[15.572,45.853],[15.63,45.831],[15.642,45.82],[15.667,45.842],[15.709,45.846],[15.678,45.869],[15.681,45.882],[15.691,45.884],[15.68,45.904],[15.707,45.925],[15.71,45.963],[15.702,45.998],[15.711,46.004],[15.707,46.013],[15.718,46.038],[15.732,46.044],[15.682,46.07],[15.658,46.072],[15.648,46.087],[15.624,46.088],[15.606,46.112],[15.611,46.136],[15.598,46.143],[15.613,46.153],[15.607,46.16],[15.612,46.169],[15.649,46.191],[15.642,46.21],[15.649,46.217],[15.682,46.227],[15.752,46.22],[15.752,46.21],[15.766,46.209],[15.794,46.228],[15.8,46.241],[15.791,46.259],[15.863,46.268],[15.871,46.278],[15.899,46.287],[15.944,46.291],[15.977,46.312],[16.014,46.309],[16.036,46.337],[16.052,46.335],[16.077,46.348],[16.054,46.38],[16.056,46.39],[16.089,46.388],[16.148,46.405],[16.2,46.377],[16.23,46.387],[16.271,46.374],[16.302,46.378],[16.308,46.397],[16.272,46.415],[16.259,46.47],[16.242,46.488],[16.24,46.514],[16.268,46.538],[16.152,46.601],[16.107,46.603],[16.075,46.631],[16.036,46.65],[16.042,46.686],[16.029,46.701],[16.03,46.711],[16.005,46.717],[15.985,46.752],[15.997,46.812],[15.988,46.828],[16.005,46.845],[16.014,46.885],[16.062,46.913],[16.073,46.936],[16.095,46.935],[16.095,46.954],[16.123,46.99],[16.152,46.993],[16.115,47.03],[16.121,47.044],[16.09,47.075],[16.096,47.112],[16.107,47.119],[16.114,47.143],[16.113,47.161],[16.083,47.225],[16.086,47.245],[16.057,47.315],[16.044,47.34],[16.016,47.368],[16.034,47.372],[16.031,47.379],[16.063,47.385],[16.067,47.397],[16.084,47.409],[16.095,47.408],[16.082,47.398],[16.093,47.39],[16.105,47.397],[16.101,47.413],[16.224,47.427],[16.257,47.451],[16.302,47.467],[16.306,47.474],[16.297,47.479],[16.316,47.485],[16.311,47.489],[16.333,47.505],[16.339,47.523],[16.311,47.546],[16.35,47.617],[16.37,47.623],[16.367,47.648],[16.349,47.68],[16.313,47.689],[16.295,47.724],[16.294,47.768],[16.304,47.784],[16.269,47.791],[16.277,47.809],[16.29,47.81],[16.315,47.805],[16.308,47.803],[16.308,47.793],[16.316,47.785],[16.347,47.804],[16.352,47.819],[16.377,47.827],[16.388,47.843],[16.348,47.867],[16.389,47.882],[16.4,47.876],[16.415,47.889],[16.41,47.892],[16.42,47.895],[16.424,47.912],[16.419,47.913],[16.437,47.928],[16.489,47.943],[16.514,47.943],[16.574,47.886],[16.581,47.888],[16.632,47.93],[16.634,47.946],[16.652,47.949],[16.659,47.961],[16.7,47.967],[16.701,48.01],[16.754,48.012],[16.803,48.029],[16.837,48.032],[16.831,48.038],[16.847,48.054],[16.873,48.072],[16.894,48.074],[16.919,48.066],[16.92,48.051],[16.972,48.039],[16.97,48.027],[16.982,48.025],[17.016,48.075],[16.972,48.095],[16.976,48.106],[16.995,48.109],[17.005,48.099],[17.02,48.106],[17.029,48.1],[17.002,48.093],[17.036,48.084],[17.042,48.102],[17.064,48.11],[17.068,48.124],[17.057,48.142],[17.051,48.14],[17.056,48.131],[17.029,48.129],[17.018,48.133],[17.017,48.147],[17.008,48.152],[16.962,48.169],[16.975,48.172],[16.975,48.185],[16.946,48.236],[16.958,48.264],[16.949,48.275],[16.923,48.272],[16.897,48.294],[16.901,48.3],[16.889,48.307],[16.906,48.311],[16.9,48.314],[16.908,48.323],[16.869,48.34],[16.872,48.349],[16.847,48.349],[16.834,48.379],[16.856,48.384],[16.85,48.388],[16.856,48.398],[16.847,48.402],[16.853,48.402],[16.85,48.413],[16.862,48.421],[16.847,48.43],[16.85,48.449],[16.864,48.454],[16.859,48.458],[16.88,48.477],[16.889,48.476],[16.896,48.486],[16.89,48.492],[16.918,48.497],[16.907,48.515],[16.929,48.513],[16.945,48.522],[16.936,48.527],[16.95,48.536],[16.943,48.539],[16.949,48.543],[16.941,48.552],[16.945,48.56],[16.933,48.559],[16.942,48.571],[16.933,48.58],[16.945,48.588],[16.932,48.602],[16.942,48.605],[16.943,48.618],[16.953,48.619],[16.948,48.62],[16.953,48.628],[16.964,48.626],[16.958,48.639],[16.972,48.646],[16.969,48.673],[16.974,48.671],[16.981,48.689],[16.998,48.69],[16.993,48.698],[17.003,48.698],[16.995,48.704],[17.005,48.715],[16.998,48.723],[17.017,48.73],[17.046,48.768],[17.092,48.789],[17.114,48.838],[17.148,48.838],[17.151,48.848],[17.168,48.86],[17.177,48.857],[17.178,48.867],[17.195,48.875],[17.222,48.874],[17.277,48.861],[17.302,48.845],[17.322,48.845],[17.33,48.833],[17.364,48.814],[17.395,48.814],[17.45,48.846],[17.477,48.842],[17.526,48.812],[17.592,48.827],[17.601,48.84],[17.618,48.842],[17.634,48.855],[17.706,48.862],[17.781,48.915],[17.781,48.925],[17.884,48.927],[17.922,49.018],[17.991,49.028],[18.024,49.021],[18.069,49.037],[18.092,49.058],[18.116,49.093],[18.111,49.114],[18.119,49.124],[18.107,49.134],[18.133,49.16],[18.132,49.19],[18.153,49.216],[18.149,49.249],[18.185,49.27],[18.184,49.285],[18.297,49.304],[18.374,49.329],[18.416,49.368],[18.408,49.399],[18.45,49.394],[18.475,49.408],[18.49,49.432],[18.548,49.469],[18.534,49.486],[18.543,49.497],[18.572,49.508],[18.595,49.51],[18.603,49.497],[18.616,49.495],[18.676,49.508],[18.755,49.488],[18.808,49.515],[18.946,49.517],[18.952,49.543],[18.975,49.549],[18.987,49.573],[18.984,49.587],[19.005,49.6],[19.017,49.622],[19.001,49.656],[18.962,49.665],[18.954,49.679],[18.994,49.712],[18.99,49.739],[19.027,49.759],[19.068,49.762],[19.084,49.772],[19.051,49.801],[19.046,49.814],[19.051,49.834],[19.041,49.85],[19.042,49.87],[19.028,49.906],[19.032,49.92],[19.01,49.945],[18.96,49.919],[18.941,49.92],[18.906,49.936],[18.856,49.932],[18.818,49.938],[18.777,49.918],[18.753,49.935],[18.741,49.926],[18.712,49.938],[18.712,49.924],[18.728,49.907],[18.723,49.898],[18.662,49.879],[18.63,49.9],[18.574,49.911],[18.573,49.922],[18.561,49.918],[18.54,49.926],[18.545,49.91],[18.533,49.9],[18.492,49.903],[18.465,49.921],[18.429,49.925],[18.425,49.931],[18.435,49.94],[18.427,49.946],[18.416,49.936],[18.39,49.933],[18.336,49.946],[18.336,49.937],[18.347,49.938],[18.332,49.934],[18.347,49.931],[18.332,49.928],[18.322,49.916],[18.321,49.89],[18.299,49.889],[18.301,49.877],[18.262,49.86],[18.26,49.865],[18.239,49.86],[18.215,49.832],[18.198,49.839],[18.194,49.872],[18.171,49.89],[18.15,49.891],[18.113,49.907],[18.043,49.911],[18.009,49.928],[17.99,49.919],[17.979,49.925],[17.958,49.92],[17.93,49.933],[17.941,49.964],[17.921,49.972],[17.922,49.978],[17.867,49.973],[17.773,50.024],[17.772,50.046],[17.759,50.066],[17.726,50.095],[17.743,50.101],[17.704,50.107],[17.69,50.117],[17.683,50.117],[17.68,50.105],[17.654,50.11],[17.638,50.132],[17.613,50.14],[17.594,50.159],[17.606,50.171],[17.703,50.185],[17.72,50.208],[17.738,50.202],[17.759,50.208],[17.762,50.241],[17.745,50.243],[17.726,50.262],[17.726,50.273],[17.751,50.298],[17.731,50.303],[17.719,50.32],[17.691,50.327],[17.687,50.309],[17.695,50.304],[17.615,50.267],[17.587,50.278],[17.562,50.27],[17.491,50.274],[17.459,50.269],[17.453,50.256],[17.44,50.252],[17.429,50.256],[17.422,50.276],[17.404,50.276],[17.416,50.288],[17.409,50.287],[17.363,50.28],[17.367,50.257],[17.36,50.265],[17.35,50.264],[17.34,50.282],[17.349,50.311],[17.322,50.315],[17.352,50.326],[17.283,50.319],[17.248,50.332],[17.188,50.372],[17.202,50.38],[17.198,50.388],[17.143,50.38],[17.103,50.406],[17.078,50.404],[17.052,50.412],[17.037,50.406],[17.039,50.412],[17.025,50.421],[17.003,50.426],[16.973,50.42],[16.937,50.44],[16.903,50.448],[16.909,50.457],[16.885,50.444],[16.861,50.411],[16.909,50.39],[16.918,50.361],[16.938,50.341],[16.94,50.322],[17.009,50.295],[17.017,50.269],[17.003,50.253],[17.025,50.228],[17.001,50.216],[16.978,50.243],[16.962,50.237],[16.957,50.223],[16.902,50.223],[16.873,50.197],[16.843,50.206],[16.802,50.181],[16.784,50.147],[16.748,50.135],[16.709,50.098],[16.634,50.111],[16.611,50.133],[16.581,50.142],[16.585,50.151],[16.562,50.163],[16.556,50.193],[16.562,50.208],[16.549,50.229],[16.483,50.271],[16.433,50.323],[16.399,50.319],[16.386,50.327],[16.361,50.354],[16.36,50.38],[16.305,50.383],[16.283,50.367],[16.265,50.391],[16.249,50.394],[16.25,50.407],[16.235,50.414],[16.214,50.406],[16.212,50.42],[16.193,50.433],[16.217,50.452],[16.23,50.443],[16.234,50.447],[16.222,50.457],[16.233,50.46],[16.232,50.466],[16.255,50.467],[16.258,50.48],[16.274,50.477],[16.271,50.485],[16.293,50.48],[16.312,50.497],[16.291,50.503],[16.317,50.508],[16.348,50.497],[16.359,50.501],[16.402,50.53],[16.387,50.542],[16.41,50.552],[16.404,50.567],[16.447,50.574],[16.432,50.599],[16.388,50.624],[16.362,50.648],[16.351,50.648],[16.341,50.662],[16.284,50.66],[16.277,50.668],[16.236,50.672],[16.217,50.633],[16.185,50.627],[16.171,50.644],[16.101,50.663],[16.062,50.632],[16.057,50.611],[16.04,50.612],[16.02,50.6],[15.987,50.613],[16.018,50.63],[16.002,50.644],[16.003,50.659],[15.988,50.685],[15.959,50.692],[15.882,50.671],[15.865,50.674],[15.851,50.708],[15.83,50.724],[15.831,50.74],[15.814,50.755],[15.74,50.736],[15.703,50.736],[15.681,50.754],[15.605,50.776],[15.528,50.778],[15.512,50.79],[15.479,50.792],[15.439,50.814],[15.399,50.78],[15.395,50.763],[15.37,50.778],[15.369,50.835],[15.346,50.854],[15.31,50.861],[15.277,50.891],[15.312,50.932],[15.337,50.942],[15.328,50.963],[15.361,50.977],[15.366,50.99],[15.383,50.991],[15.407,51.007],[15.413,51.028],[15.396,51.024],[15.407,51.041],[15.397,51.05],[15.368,51.052],[15.349,51.045],[15.354,51.03],[15.375,51.03],[15.375,51.019],[15.341,51.02],[15.333,51.03],[15.263,51.03],[15.292,51.081],[15.332,51.09],[15.329,51.097],[15.3,51.099],[15.299,51.129],[15.32,51.161],[15.386,51.19],[15.406,51.247],[15.433,51.293],[15.419,51.309],[15.423,51.387],[15.394,51.436],[15.398,51.445],[15.386,51.466],[15.365,51.48],[15.329,51.43],[15.325,51.418],[15.334,51.41],[15.302,51.405],[15.273,51.438],[15.252,51.449],[15.234,51.476],[15.226,51.506],[15.206,51.512],[15.195,51.493],[15.203,51.478],[15.197,51.462],[15.095,51.425],[15.018,51.446],[14.984,51.441],[14.986,51.464],[14.94,51.477],[14.929,51.473],[14.91,51.486],[14.888,51.487],[14.9,51.479],[14.883,51.459],[14.842,51.469],[14.786,51.462],[14.77,51.468],[14.836,51.486],[14.832,51.504],[14.787,51.517],[14.797,51.521],[14.778,51.536],[14.774,51.56],[14.748,51.573],[14.75,51.58],[14.767,51.58],[14.784,51.568],[14.806,51.592],[14.825,51.587],[14.811,51.56],[14.856,51.553],[14.878,51.57],[14.886,51.594],[14.897,51.601],[14.949,51.612],[15.044,51.603],[15.105,51.547],[15.174,51.551],[15.163,51.585],[15.233,51.583],[15.237,51.598],[15.259,51.607],[15.269,51.662],[15.234,51.706],[15.218,51.776],[15.236,51.782],[15.194,51.856],[15.211,51.861],[15.198,51.897],[15.24,51.907],[15.275,51.904],[15.302,51.926],[15.373,51.935],[15.353,51.966],[15.313,51.975],[15.308,51.964],[15.297,51.962],[15.277,51.974],[15.282,51.982],[15.261,52.011],[15.278,52.022],[15.27,52.034],[15.276,52.039],[15.265,52.063],[15.271,52.067],[15.285,52.056],[15.302,52.063],[15.329,52.049],[15.32,52.009],[15.406,51.997],[15.435,52.006],[15.44,52.018],[15.462,52.017],[15.495,52.037],[15.518,52.037],[15.511,52.029],[15.516,52.028],[15.532,52.035],[15.544,52.027],[15.547,52.033],[15.556,52.026],[15.565,52.034],[15.573,52.027],[15.57,52.034],[15.588,52.033],[15.585,52.026],[15.595,52.028],[15.61,52.007],[15.65,52.007],[15.674,51.999],[15.713,52.015],[15.775,52.021],[15.801,52.041],[15.81,52.065],[15.791,52.074],[15.783,52.093],[15.741,52.099],[15.739,52.112],[15.756,52.115],[15.766,52.127],[15.756,52.147],[15.723,52.169],[15.671,52.161],[15.663,52.176],[15.576,52.152],[15.556,52.164],[15.531,52.161],[15.464,52.136],[15.456,52.122],[15.398,52.115],[15.364,52.115],[15.306,52.131],[15.293,52.149],[15.314,52.2],[15.286,52.214],[15.274,52.238],[15.304,52.258],[15.332,52.295],[15.398,52.315],[15.359,52.333],[15.378,52.348],[15.399,52.343],[15.412,52.355],[15.481,52.346],[15.497,52.361],[15.455,52.36],[15.455,52.368],[15.442,52.368],[15.436,52.376],[15.456,52.39],[15.416,52.41],[15.415,52.438],[15.395,52.455],[15.378,52.456],[15.348,52.442],[15.325,52.455],[15.317,52.43],[15.274,52.412],[15.231,52.416],[15.248,52.429],[15.224,52.439],[15.227,52.449],[15.299,52.462],[15.304,52.473],[15.266,52.485],[15.266,52.492],[15.291,52.497],[15.275,52.508],[15.276,52.53],[15.357,52.536],[15.348,52.604],[15.372,52.643],[15.398,52.658],[15.414,52.656],[15.418,52.646],[15.431,52.649],[15.439,52.636],[15.462,52.636],[15.507,52.652],[15.501,52.666],[15.514,52.696],[15.568,52.697],[15.604,52.714],[15.634,52.701],[15.739,52.713],[15.78,52.7],[15.795,52.709],[15.902,52.714],[15.945,52.729],[15.947,52.755],[15.925,52.784],[15.939,52.786],[15.934,52.8],[15.957,52.81],[15.952,52.833],[15.975,52.846],[15.966,52.854],[15.99,52.866],[15.969,52.898],[15.981,52.912],[15.973,52.93],[15.981,52.934],[15.961,52.956],[15.961,52.971],[15.946,52.972],[15.956,52.976],[15.95,52.999],[15.957,53.032],[15.952,53.034],[15.974,53.051],[15.972,53.057],[15.988,53.055],[15.985,53.064],[15.997,53.083],[15.981,53.097],[15.982,53.115],[16,53.135],[16.032,53.151],[16.03,53.164],[16.016,53.178],[16.048,53.189],[16.062,53.204],[16.061,53.245],[16.118,53.263],[16.142,53.286],[16.07,53.291],[16.064,53.295],[16.069,53.311],[16.046,53.311],[16.052,53.318],[16.023,53.312],[15.999,53.316],[15.97,53.299],[15.969,53.315],[15.917,53.327],[15.915,53.36],[15.956,53.365],[16.022,53.403],[16.043,53.392],[16.051,53.364],[16.08,53.376],[16.151,53.376],[16.217,53.396],[16.319,53.407],[16.366,53.426],[16.317,53.478],[16.281,53.479],[16.278,53.492],[16.253,53.504],[16.254,53.515],[16.233,53.532],[16.198,53.519],[16.183,53.524],[16.167,53.519],[16.132,53.525],[16.133,53.532],[16.101,53.542],[16.121,53.552],[16.06,53.542],[16.073,53.554],[16.07,53.565],[16.057,53.566],[16.053,53.577],[16.075,53.576],[16.075,53.588],[16.082,53.59],[16.072,53.602],[16.1,53.608],[16.105,53.628],[16.064,53.646],[16.059,53.658],[16.027,53.662],[16.032,53.677],[16.059,53.684],[16.084,53.703],[16.107,53.704],[16.115,53.709],[16.113,53.723],[16.148,53.733],[16.146,53.743],[16.167,53.745],[16.166,53.755],[16.178,53.764],[16.245,53.751],[16.267,53.726],[16.248,53.707],[16.248,53.681],[16.283,53.653],[16.352,53.636],[16.395,53.604],[16.459,53.536],[16.469,53.533],[16.505,53.545],[16.594,53.517],[16.652,53.483],[16.652,53.454],[16.674,53.455],[16.725,53.437],[16.701,53.418],[16.731,53.4],[16.748,53.397],[16.762,53.41],[16.765,53.432],[16.776,53.445],[16.803,53.443],[16.807,53.454],[16.802,53.456],[16.818,53.467],[16.852,53.462],[16.863,53.443],[16.889,53.445],[16.908,53.454],[16.905,53.463],[16.921,53.475],[16.916,53.479],[16.94,53.489],[16.939,53.505],[16.949,53.516],[16.953,53.541],[16.94,53.583],[16.898,53.62],[16.876,53.715],[16.858,53.747],[16.789,53.81],[16.791,53.849],[16.8,53.843],[16.824,53.868],[16.818,53.893],[16.798,53.891],[16.8,53.885],[16.773,53.868],[16.747,53.879],[16.728,53.911],[16.761,53.906],[16.778,53.927],[16.867,53.948],[16.935,53.914],[16.982,53.905],[16.991,53.926],[17.02,53.94],[17.006,53.953],[17.015,53.969],[17.107,53.978],[17.098,53.989],[17.121,54.011],[17.154,54.003],[17.195,54.012],[17.199,54.003],[17.213,54.026],[17.212,54.042],[17.27,54.045],[17.255,54.054],[17.259,54.068],[17.248,54.073],[17.312,54.133],[17.277,54.146],[17.282,54.24],[17.336,54.237],[17.422,54.269],[17.471,54.258],[17.542,54.257],[17.564,54.283],[17.613,54.297],[17.616,54.331],[17.628,54.326],[17.662,54.333],[17.688,54.319],[17.741,54.321],[17.755,54.339],[17.738,54.352],[17.709,54.353],[17.717,54.368],[17.717,54.404],[17.727,54.406],[17.726,54.415],[17.692,54.432],[17.68,54.424],[17.627,54.42],[17.6,54.442],[17.606,54.456],[17.598,54.463],[17.683,54.488],[17.67,54.507],[17.587,54.542],[17.547,54.549],[17.569,54.57],[17.581,54.606],[17.607,54.615],[17.618,54.635],[17.578,54.653],[17.509,54.662],[17.44,54.693],[17.416,54.712],[17.538,54.754],[17.48,54.811],[17.36,54.805],[17.234,54.785],[17.012,54.721],[16.926,54.67],[16.857,54.645],[16.738,54.626],[16.625,54.62],[16.476,54.589],[16.366,54.53],[16.331,54.49],[16.301,54.475],[16.206,54.393],[16.125,54.346],[16.058,54.321],[15.811,54.293],[15.682,54.259],[15.522,54.239],[15.469,54.22],[15.353,54.213],[15.241,54.197],[14.859,54.104],[14.679,54.071],[14.634,54.053],[14.466,54.013],[14.381,53.973],[14.345,53.967],[14.261,53.98],[14.061,54.1],[13.971,54.121],[13.927,54.152],[13.911,54.168],[13.986,54.201],[14.008,54.218],[14.016,54.238],[14.009,54.266],[13.982,54.292],[13.943,54.305],[13.845,54.295],[13.864,54.335],[13.851,54.365],[13.796,54.395],[13.761,54.429],[13.682,54.46],[13.74,54.483],[13.768,54.51],[13.774,54.546],[13.757,54.591],[13.721,54.616],[13.657,54.635],[13.505,54.633],[13.527,54.674],[13.515,54.706],[13.479,54.729],[13.426,54.737],[13.239,54.72],[13.174,54.692],[13.14,54.661],[13.06,54.645],[13.01,54.61],[13.006,54.565],[12.974,54.511],[12.867,54.496],[12.668,54.497],[12.63,54.503],[12.6,54.529],[12.56,54.542],[12.524,54.543],[12.468,54.531],[12.418,54.499],[12.378,54.435],[12.324,54.401],[12.274,54.336],[12.15,54.289],[12.078,54.239],[11.982,54.231],[11.838,54.198],[11.724,54.207],[11.645,54.198],[11.556,54.152],[11.497,54.138],[11.451,54.104],[11.43,54.079],[11.307,54.031],[11.187,54.069],[11.07,54.066],[10.923,54.029],[10.905,54.038],[10.943,54.049],[11.029,54.107],[11.112,54.138],[11.172,54.173],[11.185,54.199],[11.184,54.24],[11.18,54.291],[11.166,54.325],[11.209,54.354],[11.229,54.358],[11.299,54.347],[11.35,54.354],[11.387,54.374],[11.405,54.398],[11.396,54.441],[11.324,54.525],[11.292,54.547],[11.201,54.573],[11.069,54.593],[11.004,54.577],[10.934,54.521],[10.913,54.478],[10.916,54.432],[10.818,54.403],[10.747,54.363],[10.676,54.402],[10.507,54.443],[10.424,54.474],[10.358,54.489],[10.267,54.491],[10.2,54.389],[10.167,54.364],[10.098,54.372],[10.082,54.381],[10.058,54.359],[10.027,54.36],[9.985,54.345],[9.94,54.341],[9.874,54.359],[9.869,54.371],[9.853,54.376],[9.823,54.372],[9.833,54.359],[9.827,54.345],[9.799,54.35],[9.793,54.361],[9.748,54.342],[9.74,54.341],[9.742,54.351],[9.676,54.353],[9.67,54.347],[9.69,54.327],[9.682,54.324],[9.595,54.344],[9.57,54.334],[9.547,54.31],[9.545,54.283],[9.572,54.256],[9.573,54.244],[9.587,54.239],[9.558,54.221],[9.541,54.224],[9.504,54.203],[9.485,54.206],[9.468,54.197],[9.441,54.198],[9.43,54.207],[9.442,54.222],[9.433,54.237],[9.443,54.238],[9.443,54.246],[9.422,54.264],[9.409,54.261],[9.394,54.289],[9.365,54.293],[9.363,54.281],[9.328,54.283],[9.307,54.272],[9.285,54.278],[9.284,54.29],[9.259,54.308],[9.271,54.308],[9.278,54.324],[9.263,54.33],[9.263,54.343],[9.22,54.346],[9.228,54.34],[9.224,54.322],[9.215,54.326],[9.194,54.316],[9.197,54.329],[9.176,54.335],[9.163,54.329],[9.172,54.319],[9.16,54.318],[9.147,54.32],[9.143,54.329],[9.151,54.334],[9.131,54.351],[9.092,54.37],[9.075,54.363],[9.007,54.378],[8.982,54.361],[8.993,54.332],[8.872,54.264],[8.794,54.269],[8.734,54.25],[8.525,54.221],[8.524,54.188],[8.535,54.169],[8.523,54.153],[8.521,54.125],[8.506,54.097],[8.515,54.06],[8.514,54.025],[8.517,54.012],[8.354,54.028],[8.293,54.009],[8.268,53.988],[8.259,53.964],[8.261,53.943],[8.281,53.913],[8.253,53.902],[8.225,53.878],[8.218,53.858],[8.226,53.83],[8.083,53.815],[8.024,53.831],[7.866,53.846],[7.811,53.836],[7.683,53.835],[7.618,53.815],[7.494,53.81],[7.412,53.789],[7.327,53.78],[7.181,53.776],[7.124,53.765],[7.066,53.742],[6.833,53.72],[6.757,53.692],[6.73,53.67],[6.62,53.655],[6.572,53.631],[6.556,53.613],[6.551,53.583],[6.613,53.548],[6.614,53.539],[6.657,53.528],[6.699,53.494],[6.854,53.457],[6.892,53.439],[6.883,53.419],[6.897,53.365],[6.924,53.34],[7.048,53.307],[7.192,53.315],[7.219,53.205],[7.208,53.191],[7.228,53.18],[7.205,53.178],[7.18,53.133],[7.203,53.113],[7.201,53.071],[7.217,53.007],[7.182,52.943],[7.087,52.85],[7.093,52.838],[7.072,52.81],[7.055,52.644],[7.042,52.633],[6.975,52.646],[6.919,52.64],[6.896,52.651],[6.817,52.648],[6.792,52.654],[6.742,52.645],[6.71,52.628],[6.725,52.619],[6.719,52.589],[6.767,52.564],[6.728,52.563],[6.711,52.549],[6.685,52.553],[6.705,52.521],[6.698,52.486],[6.753,52.464],[6.854,52.46],[6.853,52.45],[6.942,52.435],[6.962,52.444],[6.981,52.467],[6.992,52.467],[7.009,52.433],[7.036,52.403],[7.057,52.399],[7.072,52.374],[7.071,52.351],[7.026,52.283],[7.042,52.256],[7.066,52.241],[7.039,52.228],[6.987,52.226],[6.951,52.181],[6.908,52.176],[6.883,52.158],[6.873,52.133],[6.855,52.12],[6.763,52.119],[6.755,52.095],[6.746,52.094],[6.747,52.082],[6.696,52.07],[6.688,52.04],[6.753,52.028],[6.827,51.994],[6.832,51.974],[6.828,51.964],[6.799,51.959],[6.794,51.935],[6.77,51.916],[6.722,51.896],[6.696,51.915],[6.675,51.916],[6.542,51.884],[6.471,51.854],[6.452,51.864],[6.434,51.86],[6.394,51.873],[6.387,51.865],[6.408,51.854],[6.402,51.845],[6.407,51.828],[6.363,51.835],[6.358,51.847],[6.335,51.851],[6.265,51.833],[6.193,51.861],[6.209,51.866],[6.191,51.891],[6.163,51.908],[6.164,51.914],[6.127,51.916],[6.097,51.931],[6.094,51.969],[6.072,51.968],[6.066,51.982],[6.041,51.982],[6.034,51.971],[6.009,51.979],[5.986,51.97],[5.991,51.949],[5.974,51.939],[5.966,51.938],[5.962,51.96],[5.948,51.966],[5.906,51.962],[5.903,51.956]],[[14.469,51.583],[14.47,51.605],[14.494,51.599],[14.502,51.582],[14.469,51.583]],[[14.503,51.558],[14.512,51.576],[14.545,51.574],[14.548,51.564],[14.541,51.56],[14.503,51.558]],[[14.602,51.57],[14.608,51.59],[14.649,51.593],[14.651,51.58],[14.696,51.575],[14.681,51.553],[14.646,51.554],[14.638,51.529],[14.603,51.538],[14.609,51.55],[14.633,51.551],[14.639,51.56],[14.636,51.571],[14.602,51.57]]],[[[6.132,51.979],[6.155,51.954],[6.203,51.937],[6.204,51.944],[6.236,51.95],[6.241,51.943],[6.259,51.951],[6.214,51.982],[6.132,51.979]]],[[[8.661,47.692],[8.669,47.685],[8.689,47.695],[8.718,47.694],[8.703,47.715],[8.666,47.713],[8.675,47.701],[8.661,47.692]]],[[[10.195,46.77],[10.217,46.754],[10.21,46.719],[10.223,46.708],[10.217,46.695],[10.264,46.685],[10.277,46.691],[10.255,46.709],[10.267,46.732],[10.277,46.736],[10.282,46.767],[10.293,46.769],[10.296,46.789],[10.195,46.77]]],[[[12.937,45.975],[12.957,45.963],[12.981,45.966],[12.998,45.984],[12.956,45.971],[12.937,45.975]]],[[[12.947,45.909],[12.958,45.894],[12.969,45.894],[12.965,45.888],[12.975,45.889],[12.974,45.9],[12.958,45.912],[12.947,45.909]]],[[[13.024,45.793],[13.041,45.744],[13.058,45.731],[13.048,45.719],[13.052,45.713],[13.083,45.715],[13.089,45.722],[13.075,45.751],[13.081,45.758],[13.059,45.758],[13.077,45.771],[13.086,45.794],[13.07,45.801],[13.024,45.793]]],[[[13.024,45.84],[13.038,45.833],[13.048,45.846],[13.036,45.856],[13.024,45.84]]],[[[13.035,45.827],[13.054,45.83],[13.064,45.822],[13.062,45.813],[13.073,45.818],[13.083,45.81],[13.086,45.826],[13.064,45.831],[13.082,45.848],[13.071,45.858],[13.051,45.844],[13.056,45.837],[13.035,45.827]]],[[[13.038,45.89],[13.055,45.877],[13.079,45.872],[13.085,45.904],[13.075,45.91],[13.071,45.899],[13.039,45.899],[13.038,45.89]]],[[[13.059,45.907],[13.083,45.946],[13.074,45.946],[13.059,45.907]]],[[[13.132,45.794],[13.133,45.772],[13.182,45.765],[13.181,45.771],[13.192,45.774],[13.2,45.766],[13.219,45.773],[13.224,45.757],[13.245,45.753],[13.245,45.793],[13.256,45.805],[13.242,45.83],[13.291,45.808],[13.288,45.833],[13.273,45.853],[13.274,45.888],[13.294,45.89],[13.288,45.909],[13.258,45.904],[13.238,45.919],[13.23,45.915],[13.222,45.897],[13.204,45.886],[13.201,45.873],[13.213,45.869],[13.195,45.857],[13.195,45.841],[13.18,45.843],[13.175,45.831],[13.16,45.826],[13.161,45.804],[13.132,45.794]]],[[[13.472,46.02],[13.498,46.034],[13.479,46.036],[13.472,46.02]]],[[[15.355,45.486],[15.36,45.477],[15.386,45.487],[15.355,45.486]]]]}}],"metadata":{"source":"OpenHistoricalMap","sourceUrl":"https://www.openhistoricalmap.org/","license":"CC0-1.0","year":1800,"relationId":2696467,"startDate":"1797-10-17","endDate":"1803-04-27","partCount":19,"missingWays":[],"unclosedRings":0,"droppedInnerRings":0,"borderPrecision":"史料に基づく復元（概略。測量された境界ではない）"}}