{"type":"FeatureCollection","features":[{"type":"Feature","properties":{"NAME":"Holy Roman Empire","SUBJECTO":"Holy Roman Empire","PARTOF":"Holy Roman Empire","ADMIN_LEVEL":2,"OHM_RELATION_ID":2815489,"START_DATE":"1713-04-02","END_DATE":"1742-07-28"},"geometry":{"type":"MultiPolygon","coordinates":[[[[2.503,51.142],[2.545,51.089],[2.561,51.067],[2.576,51.002],[2.605,50.991],[2.631,50.949],[2.59,50.919],[2.607,50.913],[2.613,50.868],[2.6,50.853],[2.604,50.84],[2.588,50.813],[2.593,50.81],[2.673,50.82],[2.681,50.813],[2.715,50.814],[2.74,50.827],[2.747,50.807],[2.771,50.799],[2.769,50.785],[2.755,50.782],[2.755,50.775],[2.762,50.771],[2.763,50.758],[2.783,50.751],[2.79,50.727],[2.818,50.716],[2.849,50.722],[2.891,50.689],[2.925,50.705],[2.93,50.725],[2.944,50.732],[2.938,50.745],[2.952,50.752],[2.972,50.75],[3.017,50.774],[3.033,50.77],[3.054,50.78],[3.09,50.774],[3.111,50.794],[3.127,50.787],[3.138,50.799],[3.16,50.795],[3.163,50.789],[3.153,50.78],[3.199,50.735],[3.194,50.723],[3.219,50.711],[3.248,50.711],[3.261,50.692],[3.296,50.697],[3.282,50.682],[3.29,50.679],[3.25,50.673],[3.241,50.661],[3.255,50.623],[3.28,50.596],[3.278,50.564],[3.283,50.563],[3.276,50.559],[3.288,50.527],[3.325,50.514],[3.322,50.524],[3.342,50.522],[3.348,50.53],[3.357,50.519],[3.38,50.523],[3.358,50.505],[3.374,50.491],[3.405,50.499],[3.413,50.491],[3.404,50.484],[3.421,50.482],[3.456,50.49],[3.442,50.499],[3.447,50.502],[3.507,50.488],[3.501,50.504],[3.526,50.527],[3.553,50.525],[3.555,50.511],[3.566,50.51],[3.583,50.491],[3.606,50.496],[3.633,50.48],[3.645,50.463],[3.663,50.456],[3.673,50.396],[3.685,50.394],[3.657,50.369],[3.666,50.363],[3.674,50.337],[3.694,50.322],[3.684,50.321],[3.716,50.298],[3.734,50.305],[3.729,50.311],[3.726,50.305],[3.714,50.307],[3.707,50.316],[3.731,50.318],[3.73,50.329],[3.749,50.351],[3.843,50.357],[3.857,50.342],[3.887,50.341],[3.885,50.329],[3.903,50.327],[3.968,50.35],[3.968,50.344],[3.989,50.344],[4.024,50.359],[4.037,50.343],[4.078,50.321],[4.079,50.31],[4.102,50.311],[4.123,50.297],[4.138,50.26],[4.168,50.261],[4.15,50.276],[4.169,50.288],[4.179,50.275],[4.211,50.27],[4.219,50.251],[4.153,50.213],[4.16,50.202],[4.149,50.175],[4.154,50.161],[4.128,50.137],[4.153,50.129],[4.197,50.135],[4.203,50.122],[4.197,50.108],[4.231,50.074],[4.194,50.049],[4.163,50.049],[4.136,50.02],[4.14,50.009],[4.163,49.997],[4.145,49.98],[4.198,49.967],[4.195,49.957],[4.311,49.969],[4.349,49.953],[4.381,49.954],[4.444,49.939],[4.51,49.947],[4.54,49.968],[4.565,49.971],[4.583,49.983],[4.69,49.996],[4.686,50.026],[4.7,50.052],[4.698,50.064],[4.719,50.068],[4.735,50.093],[4.755,50.091],[4.749,50.081],[4.777,50.054],[4.826,50.059],[4.828,50.05],[4.841,50.044],[4.82,50.026],[4.817,49.993],[4.795,49.983],[4.791,49.958],[4.847,49.949],[4.89,49.909],[4.877,49.903],[4.887,49.9],[4.863,49.868],[4.852,49.866],[4.857,49.842],[4.902,49.842],[4.9,49.85],[4.918,49.855],[4.92,49.846],[4.909,49.839],[4.933,49.822],[4.946,49.823],[4.961,49.803],[4.971,49.804],[4.969,49.811],[4.988,49.824],[4.982,49.832],[4.986,49.839],[4.971,49.845],[4.975,49.85],[4.954,49.854],[4.944,49.876],[4.944,49.877],[5,49.884],[5.004,49.89],[5.013,49.889],[5.014,49.889],[5.014,49.888],[5.055,49.882],[5.064,49.887],[5.048,49.888],[5.073,49.912],[5.12,49.923],[5.099,49.936],[5.1,49.968],[5.123,49.984],[5.135,49.985],[5.126,49.98],[5.122,49.962],[5.158,49.957],[5.18,49.934],[5.219,49.952],[5.211,49.959],[5.226,49.948],[5.234,49.927],[5.228,49.926],[5.251,49.913],[5.316,49.914],[5.32,49.887],[5.367,49.893],[5.375,49.886],[5.298,49.869],[5.275,49.849],[5.258,49.82],[5.228,49.816],[5.207,49.831],[5.208,49.858],[5.164,49.83],[5.159,49.812],[5.166,49.812],[5.174,49.79],[5.189,49.796],[5.199,49.812],[5.204,49.809],[5.199,49.8],[5.218,49.8],[5.215,49.772],[5.226,49.733],[5.245,49.737],[5.257,49.729],[5.263,49.706],[5.276,49.709],[5.271,49.727],[5.299,49.721],[5.285,49.683],[5.332,49.654],[5.305,49.63],[5.312,49.612],[5.338,49.616],[5.349,49.631],[5.407,49.616],[5.412,49.626],[5.447,49.64],[5.458,49.631],[5.463,49.624],[5.445,49.61],[5.459,49.599],[5.466,49.579],[5.445,49.553],[5.465,49.539],[5.466,49.528],[5.449,49.519],[5.393,49.52],[5.394,49.501],[5.418,49.489],[5.46,49.485],[5.469,49.481],[5.464,49.471],[5.494,49.473],[5.516,49.462],[5.511,49.454],[5.476,49.442],[5.5,49.409],[5.531,49.407],[5.568,49.42],[5.555,49.397],[5.641,49.368],[5.637,49.348],[5.655,49.333],[5.648,49.312],[5.619,49.302],[5.622,49.284],[5.644,49.262],[5.635,49.239],[5.598,49.216],[5.598,49.193],[5.627,49.181],[5.652,49.192],[5.68,49.189],[5.68,49.179],[5.658,49.17],[5.707,49.158],[5.704,49.141],[5.669,49.137],[5.646,49.122],[5.58,49.131],[5.58,49.111],[5.605,49.104],[5.662,49.108],[5.7,49.091],[5.725,49.094],[5.74,49.086],[5.74,49.076],[5.779,49.109],[5.807,49.112],[5.794,49.089],[5.776,49.084],[5.801,49.073],[5.816,49.085],[5.838,49.079],[5.858,49.091],[5.852,49.103],[5.867,49.109],[5.911,49.109],[5.917,49.103],[5.922,49.109],[5.948,49.109],[5.942,49.123],[5.962,49.129],[5.957,49.143],[5.984,49.142],[5.997,49.149],[5.989,49.155],[6.012,49.155],[6.037,49.174],[6.068,49.179],[6.064,49.16],[6.086,49.148],[6.125,49.148],[6.131,49.152],[6.12,49.162],[6.144,49.165],[6.144,49.182],[6.122,49.184],[6.122,49.198],[6.07,49.199],[6.068,49.214],[6.119,49.22],[6.131,49.213],[6.139,49.222],[6.136,49.24],[6.117,49.236],[6.097,49.245],[6.108,49.258],[6.096,49.287],[6.1,49.312],[6.046,49.31],[6.047,49.316],[6.035,49.317],[6.034,49.329],[6.047,49.337],[6.032,49.345],[5.987,49.34],[5.962,49.347],[5.956,49.362],[5.983,49.377],[6.012,49.369],[6.022,49.394],[6.01,49.403],[6.013,49.418],[6.037,49.424],[6.042,49.448],[6.054,49.464],[6.098,49.453],[6.103,49.471],[6.123,49.473],[6.128,49.493],[6.141,49.487],[6.161,49.492],[6.154,49.501],[6.173,49.509],[6.227,49.52],[6.279,49.503],[6.289,49.485],[6.298,49.489],[6.3,49.48],[6.321,49.477],[6.334,49.467],[6.365,49.46],[6.368,49.469],[6.402,49.466],[6.409,49.386],[6.435,49.379],[6.449,49.383],[6.477,49.366],[6.479,49.372],[6.498,49.371],[6.483,49.36],[6.484,49.348],[6.46,49.334],[6.446,49.334],[6.454,49.32],[6.422,49.31],[6.409,49.317],[6.377,49.31],[6.391,49.3],[6.379,49.275],[6.369,49.274],[6.38,49.268],[6.354,49.251],[6.361,49.229],[6.372,49.223],[6.435,49.244],[6.472,49.227],[6.382,49.217],[6.393,49.208],[6.394,49.189],[6.388,49.182],[6.411,49.186],[6.418,49.169],[6.402,49.166],[6.413,49.162],[6.407,49.152],[6.346,49.166],[6.349,49.155],[6.365,49.153],[6.362,49.142],[6.343,49.14],[6.346,49.135],[6.422,49.144],[6.44,49.131],[6.506,49.132],[6.508,49.14],[6.466,49.141],[6.459,49.156],[6.475,49.171],[6.496,49.16],[6.499,49.148],[6.509,49.15],[6.519,49.132],[6.506,49.119],[6.499,49.09],[6.509,49.081],[6.572,49.091],[6.587,49.082],[6.577,49.08],[6.582,49.066],[6.532,49.063],[6.527,49.046],[6.506,49.047],[6.505,49.072],[6.477,49.073],[6.458,49.062],[6.415,49.067],[6.396,49.054],[6.359,49.043],[6.346,49.047],[6.35,49.027],[6.378,49.02],[6.387,49.02],[6.375,49.035],[6.45,49.053],[6.448,49.035],[6.463,49.033],[6.469,49.046],[6.492,49.028],[6.484,49.01],[6.522,48.978],[6.538,48.984],[6.545,48.975],[6.565,48.988],[6.597,48.97],[6.588,48.955],[6.561,48.953],[6.537,48.94],[6.531,48.948],[6.539,48.97],[6.498,48.968],[6.493,48.961],[6.503,48.946],[6.449,48.95],[6.432,48.939],[6.413,48.943],[6.41,48.96],[6.385,48.958],[6.373,48.943],[6.381,48.931],[6.37,48.927],[6.37,48.919],[6.396,48.901],[6.395,48.894],[6.453,48.877],[6.454,48.864],[6.462,48.859],[6.458,48.847],[6.468,48.843],[6.451,48.823],[6.467,48.808],[6.472,48.787],[6.516,48.791],[6.527,48.804],[6.528,48.821],[6.556,48.829],[6.554,48.844],[6.572,48.857],[6.557,48.905],[6.604,48.907],[6.621,48.891],[6.62,48.872],[6.637,48.874],[6.608,48.848],[6.576,48.843],[6.575,48.831],[6.59,48.818],[6.579,48.809],[6.578,48.784],[6.589,48.772],[6.585,48.766],[6.658,48.776],[6.712,48.761],[6.736,48.781],[6.743,48.772],[6.757,48.772],[6.771,48.747],[6.788,48.756],[6.811,48.749],[6.81,48.757],[6.833,48.759],[6.837,48.775],[6.827,48.777],[6.828,48.788],[6.84,48.791],[6.841,48.801],[6.893,48.79],[6.924,48.798],[6.943,48.833],[6.971,48.811],[6.999,48.813],[7.004,48.807],[6.982,48.798],[6.961,48.802],[6.94,48.792],[6.927,48.771],[6.934,48.752],[6.913,48.724],[6.958,48.716],[6.984,48.737],[7.022,48.747],[7.029,48.757],[7.138,48.762],[7.156,48.78],[7.163,48.771],[7.179,48.769],[7.189,48.779],[7.178,48.797],[7.184,48.804],[7.221,48.8],[7.222,48.83],[7.244,48.817],[7.254,48.82],[7.259,48.825],[7.245,48.833],[7.245,48.847],[7.227,48.843],[7.241,48.851],[7.237,48.86],[7.242,48.867],[7.256,48.865],[7.241,48.877],[7.246,48.893],[7.224,48.892],[7.2,48.878],[7.193,48.884],[7.138,48.874],[7.161,48.884],[7.169,48.902],[7.191,48.899],[7.182,48.912],[7.197,48.915],[7.192,48.928],[7.213,48.944],[7.259,48.936],[7.284,48.955],[7.306,48.957],[7.327,48.943],[7.359,48.957],[7.381,48.951],[7.43,48.961],[7.469,48.974],[7.525,49.013],[7.558,49.021],[7.57,49.017],[7.587,48.989],[7.607,49.01],[7.608,49.022],[7.637,49.046],[7.636,49.053],[7.676,49.045],[7.698,49.05],[7.698,49.056],[7.728,49.055],[7.732,49.044],[7.766,49.046],[7.794,49.066],[7.823,49.057],[7.827,49.069],[7.791,49.075],[7.803,49.103],[7.762,49.097],[7.755,49.084],[7.738,49.077],[7.716,49.083],[7.695,49.106],[7.725,49.152],[7.725,49.164],[7.716,49.171],[7.742,49.202],[7.787,49.208],[7.864,49.199],[7.873,49.188],[7.867,49.184],[7.873,49.183],[7.856,49.164],[7.865,49.144],[7.845,49.134],[7.854,49.132],[7.86,49.117],[7.912,49.114],[7.902,49.1],[7.91,49.099],[7.906,49.083],[7.888,49.076],[7.937,49.085],[7.947,49.099],[7.969,49.102],[7.989,49.088],[8.016,49.088],[8.012,49.081],[8.026,49.074],[8.073,49.072],[8.089,49.087],[8.212,49.102],[8.217,49.106],[8.175,49.127],[8.198,49.133],[8.171,49.136],[8.166,49.147],[8.177,49.169],[8.283,49.172],[8.302,49.181],[8.317,49.169],[8.316,49.158],[8.291,49.133],[8.307,49.13],[8.313,49.116],[8.304,49.107],[8.325,49.092],[8.305,49.077],[8.29,49.083],[8.259,49.079],[8.264,49.063],[8.253,49.061],[8.253,49.048],[8.235,49.045],[8.234,49.033],[8.225,49.032],[8.224,49.015],[8.232,49.016],[8.234,49.008],[8.189,48.981],[8.196,48.969],[8.21,48.972],[8.217,48.957],[8.196,48.954],[8.197,48.936],[8.104,48.923],[8.111,48.902],[8.038,48.9],[8.045,48.893],[8.041,48.881],[8.068,48.86],[8.06,48.853],[8.064,48.848],[8.108,48.828],[8.113,48.812],[8.081,48.813],[8.079,48.794],[8.035,48.789],[8.014,48.761],[7.971,48.756],[7.98,48.742],[7.958,48.735],[7.951,48.706],[7.903,48.675],[7.899,48.661],[7.879,48.662],[7.829,48.635],[7.83,48.611],[7.804,48.584],[7.81,48.55],[7.802,48.538],[7.803,48.511],[7.783,48.498],[7.775,48.467],[7.751,48.443],[7.751,48.43],[7.738,48.416],[7.746,48.409],[7.727,48.38],[7.721,48.357],[7.743,48.333],[7.74,48.322],[7.702,48.289],[7.698,48.269],[7.682,48.257],[7.674,48.234],[7.601,48.158],[7.598,48.134],[7.577,48.119],[7.568,48.036],[7.609,48],[7.622,47.977],[7.58,47.925],[7.581,47.896],[7.556,47.878],[7.563,47.841],[7.53,47.777],[7.548,47.731],[7.511,47.698],[7.52,47.665],[7.566,47.633],[7.575,47.615],[7.593,47.603],[7.589,47.59],[7.605,47.58],[7.619,47.577],[7.643,47.595],[7.675,47.592],[7.692,47.6],[7.672,47.587],[7.681,47.583],[7.686,47.566],[7.684,47.571],[7.638,47.563],[7.668,47.536],[7.695,47.532],[7.713,47.54],[7.742,47.526],[7.789,47.521],[7.791,47.494],[7.831,47.513],[7.835,47.533],[7.859,47.534],[7.903,47.482],[7.944,47.483],[7.988,47.429],[8.019,47.431],[8.028,47.436],[8.029,47.461],[8.064,47.466],[8.11,47.457],[8.096,47.479],[8.074,47.486],[8.073,47.505],[8.104,47.524],[8.143,47.529],[8.134,47.545],[8.146,47.554],[8.175,47.569],[8.226,47.546],[8.23,47.558],[8.249,47.561],[8.253,47.576],[8.221,47.601],[8.239,47.613],[8.291,47.609],[8.296,47.591],[8.325,47.572],[8.383,47.566],[8.399,47.577],[8.433,47.567],[8.486,47.577],[8.49,47.586],[8.467,47.584],[8.459,47.602],[8.508,47.618],[8.516,47.633],[8.558,47.624],[8.575,47.612],[8.562,47.6],[8.583,47.596],[8.605,47.613],[8.598,47.644],[8.612,47.65],[8.603,47.64],[8.615,47.638],[8.628,47.649],[8.603,47.673],[8.576,47.662],[8.564,47.67],[8.529,47.661],[8.532,47.646],[8.526,47.645],[8.494,47.642],[8.475,47.65],[8.472,47.639],[8.467,47.656],[8.445,47.654],[8.41,47.668],[8.408,47.678],[8.418,47.688],[8.405,47.698],[8.455,47.722],[8.45,47.738],[8.456,47.747],[8.486,47.772],[8.517,47.772],[8.555,47.784],[8.574,47.78],[8.574,47.79],[8.564,47.792],[8.567,47.807],[8.58,47.8],[8.616,47.8],[8.619,47.768],[8.631,47.759],[8.649,47.77],[8.646,47.791],[8.657,47.8],[8.657,47.792],[8.682,47.784],[8.691,47.757],[8.727,47.762],[8.741,47.748],[8.721,47.743],[8.712,47.731],[8.734,47.718],[8.728,47.693],[8.79,47.675],[8.796,47.675],[8.798,47.689],[8.809,47.692],[8.793,47.704],[8.772,47.707],[8.77,47.717],[8.808,47.737],[8.807,47.726],[8.819,47.713],[8.873,47.704],[8.872,47.694],[8.853,47.697],[8.851,47.685],[8.874,47.67],[8.875,47.655],[8.899,47.648],[9.025,47.686],[9.101,47.678],[9.138,47.664],[9.155,47.667],[9.173,47.655],[9.256,47.659],[9.445,47.595],[9.515,47.537],[9.551,47.537],[9.564,47.493],[9.594,47.464],[9.612,47.469],[9.621,47.458],[9.656,47.454],[9.645,47.432],[9.652,47.408],[9.674,47.389],[9.673,47.382],[9.662,47.371],[9.624,47.366],[9.611,47.356],[9.584,47.313],[9.559,47.3],[9.533,47.273],[9.486,47.184],[9.512,47.132],[9.519,47.097],[9.513,47.085],[9.475,47.067],[9.476,47.052],[9.536,47.064],[9.56,47.049],[9.606,47.061],[9.633,47.051],[9.644,47.059],[9.677,47.061],[9.718,47.044],[9.781,47.038],[9.839,47.012],[9.86,47.023],[9.876,47.021],[9.872,47.01],[9.892,46.99],[9.875,46.972],[9.876,46.935],[9.933,46.915],[9.978,46.916],[9.988,46.904],[10.02,46.899],[10.05,46.877],[10.055,46.862],[10.087,46.861],[10.105,46.841],[10.169,46.851],[10.194,46.866],[10.233,46.866],[10.237,46.875],[10.256,46.86],[10.276,46.88],[10.283,46.918],[10.316,46.925],[10.307,46.938],[10.309,46.95],[10.325,46.952],[10.349,46.99],[10.372,46.991],[10.389,47.001],[10.427,46.976],[10.422,46.96],[10.434,46.956],[10.42,46.944],[10.418,46.926],[10.452,46.928],[10.479,46.911],[10.465,46.884],[10.471,46.849],[10.457,46.83],[10.458,46.817],[10.443,46.799],[10.42,46.793],[10.439,46.775],[10.443,46.754],[10.402,46.735],[10.415,46.709],[10.382,46.685],[10.407,46.635],[10.455,46.637],[10.492,46.615],[10.472,46.544],[10.459,46.541],[10.453,46.531],[10.458,46.511],[10.477,46.496],[10.546,46.493],[10.601,46.469],[10.622,46.448],[10.616,46.43],[10.633,46.402],[10.608,46.379],[10.567,46.378],[10.544,46.366],[10.54,46.355],[10.52,46.356],[10.516,46.343],[10.566,46.326],[10.564,46.314],[10.58,46.299],[10.56,46.283],[10.576,46.275],[10.585,46.249],[10.541,46.189],[10.514,46.178],[10.514,46.163],[10.587,46.162],[10.588,46.123],[10.598,46.105],[10.592,46.081],[10.575,46.056],[10.543,46.035],[10.507,46.041],[10.483,46.022],[10.467,46.018],[10.457,46.009],[10.453,45.985],[10.453,45.978],[10.486,45.971],[10.485,45.946],[10.507,45.925],[10.511,45.916],[10.49,45.887],[10.504,45.874],[10.502,45.83],[10.544,45.817],[10.526,45.805],[10.533,45.805],[10.533,45.788],[10.546,45.785],[10.57,45.75],[10.567,45.728],[10.624,45.742],[10.669,45.776],[10.645,45.802],[10.657,45.823],[10.653,45.833],[10.735,45.842],[10.753,45.833],[10.773,45.843],[10.792,45.833],[10.825,45.838],[10.884,45.817],[10.888,45.811],[10.873,45.788],[10.885,45.779],[10.883,45.772],[10.87,45.765],[10.845,45.723],[10.924,45.701],[10.912,45.688],[10.929,45.677],[10.943,45.673],[10.971,45.701],[10.968,45.68],[10.99,45.691],[10.998,45.697],[10.993,45.708],[11.008,45.71],[11.011,45.719],[11.018,45.719],[11.017,45.706],[11.042,45.706],[11.053,45.716],[11.094,45.692],[11.114,45.697],[11.123,45.689],[11.139,45.697],[11.146,45.717],[11.178,45.736],[11.181,45.766],[11.174,45.782],[11.183,45.788],[11.204,45.784],[11.189,45.813],[11.219,45.833],[11.218,45.844],[11.234,45.86],[11.236,45.88],[11.218,45.905],[11.223,45.927],[11.236,45.932],[11.336,45.895],[11.358,45.895],[11.367,45.909],[11.357,45.927],[11.358,45.944],[11.382,45.943],[11.374,45.984],[11.447,45.981],[11.489,46.008],[11.511,46.012],[11.577,46.007],[11.588,45.969],[11.63,45.969],[11.628,45.961],[11.682,45.968],[11.69,45.989],[11.667,46.017],[11.682,46.028],[11.666,46.036],[11.706,46.046],[11.682,46.079],[11.689,46.095],[11.703,46.09],[11.717,46.103],[11.751,46.105],[11.759,46.094],[11.773,46.107],[11.811,46.103],[11.887,46.118],[11.922,46.15],[11.929,46.172],[11.965,46.172],[11.961,46.196],[11.939,46.199],[11.912,46.223],[11.929,46.249],[11.89,46.255],[11.886,46.278],[11.838,46.27],[11.827,46.284],[11.84,46.304],[11.828,46.327],[11.803,46.333],[11.801,46.344],[11.774,46.358],[11.792,46.368],[11.815,46.368],[11.822,46.376],[11.832,46.366],[11.832,46.386],[11.843,46.411],[11.839,46.414],[11.851,46.434],[11.876,46.435],[11.892,46.444],[11.887,46.463],[11.915,46.463],[11.951,46.478],[12.003,46.438],[12.028,46.445],[12.031,46.476],[12.059,46.498],[12.084,46.493],[12.108,46.469],[12.123,46.464],[12.146,46.466],[12.197,46.509],[12.23,46.505],[12.239,46.513],[12.24,46.526],[12.254,46.537],[12.243,46.564],[12.229,46.573],[12.201,46.575],[12.191,46.59],[12.211,46.61],[12.242,46.616],[12.244,46.624],[12.261,46.63],[12.284,46.617],[12.307,46.619],[12.315,46.63],[12.371,46.62],[12.39,46.627],[12.378,46.636],[12.382,46.644],[12.406,46.643],[12.434,46.668],[12.504,46.68],[12.569,46.651],[12.619,46.662],[12.641,46.652],[12.691,46.657],[12.716,46.649],[12.73,46.635],[12.763,46.648],[12.784,46.645],[12.804,46.633],[12.837,46.627],[12.835,46.614],[12.848,46.605],[12.932,46.61],[12.945,46.604],[13.065,46.598],[13.158,46.574],[13.202,46.546],[13.211,46.527],[13.29,46.518],[13.352,46.477],[13.454,46.477],[13.463,46.465],[13.439,46.453],[13.434,46.436],[13.501,46.409],[13.517,46.381],[13.471,46.362],[13.439,46.36],[13.448,46.332],[13.417,46.317],[13.418,46.307],[13.403,46.3],[13.452,46.279],[13.435,46.253],[13.449,46.245],[13.439,46.227],[13.502,46.224],[13.573,46.208],[13.585,46.216],[13.666,46.175],[13.645,46.138],[13.535,46.073],[13.543,46.064],[13.502,46.025],[13.51,46.029],[13.521,46.022],[13.519,46.013],[13.511,46.004],[13.486,46.002],[13.494,45.988],[13.489,45.983],[13.426,45.954],[13.425,45.942],[13.395,45.931],[13.396,45.919],[13.386,45.914],[13.369,45.926],[13.333,45.916],[13.339,45.899],[13.327,45.897],[13.334,45.888],[13.328,45.87],[13.338,45.852],[13.349,45.859],[13.357,45.851],[13.372,45.856],[13.388,45.875],[13.404,45.872],[13.403,45.858],[13.417,45.85],[13.411,45.842],[13.4,45.85],[13.39,45.846],[13.385,45.825],[13.348,45.806],[13.355,45.831],[13.353,45.838],[13.34,45.837],[13.338,45.826],[13.306,45.811],[13.302,45.796],[13.31,45.79],[13.302,45.779],[13.266,45.776],[13.251,45.767],[13.253,45.749],[13.313,45.753],[13.323,45.744],[13.408,45.73],[13.404,45.739],[13.458,45.749],[13.462,45.752],[13.451,45.748],[13.436,45.759],[13.421,45.756],[13.442,45.791],[13.432,45.797],[13.426,45.834],[13.474,45.874],[13.502,45.869],[13.564,45.808],[13.585,45.8],[13.579,45.797],[13.581,45.755],[13.671,45.679],[13.702,45.665],[13.691,45.637],[13.782,45.607],[13.81,45.607],[13.839,45.593],[13.84,45.582],[13.859,45.587],[13.883,45.56],[13.859,45.546],[13.871,45.538],[13.893,45.55],[13.907,45.541],[13.926,45.546],[13.944,45.533],[13.939,45.527],[13.951,45.509],[14.005,45.47],[14.107,45.46],[14.166,45.415],[14.205,45.404],[14.181,45.385],[14.188,45.376],[14.181,45.364],[14.152,45.354],[14.11,45.386],[14.088,45.383],[14.094,45.371],[14.07,45.35],[14.078,45.345],[14.072,45.327],[14.024,45.334],[14.029,45.325],[14.019,45.314],[13.985,45.29],[13.987,45.296],[13.955,45.316],[13.909,45.336],[13.883,45.33],[13.876,45.319],[13.887,45.302],[13.881,45.289],[13.841,45.261],[13.823,45.234],[13.783,45.223],[13.787,45.214],[13.779,45.199],[13.789,45.167],[13.82,45.158],[13.844,45.16],[13.841,45.146],[13.855,45.107],[13.915,45.102],[13.935,45.09],[13.984,45.104],[14.019,45.099],[14.033,45.152],[14.041,45.154],[14.089,45.147],[14.173,45.171],[14.259,45.148],[14.278,45.187],[14.302,45.209],[14.329,45.284],[14.346,45.307],[14.388,45.336],[14.437,45.319],[14.464,45.338],[14.441,45.373],[14.448,45.383],[14.417,45.401],[14.424,45.425],[14.406,45.44],[14.458,45.479],[14.452,45.49],[14.474,45.51],[14.474,45.532],[14.499,45.549],[14.503,45.603],[14.544,45.622],[14.565,45.651],[14.57,45.672],[14.606,45.664],[14.601,45.625],[14.692,45.578],[14.699,45.564],[14.687,45.545],[14.69,45.527],[14.72,45.534],[14.767,45.507],[14.795,45.503],[14.817,45.461],[14.908,45.477],[14.915,45.52],[14.933,45.529],[14.989,45.496],[15.01,45.498],[15.028,45.486],[15.054,45.494],[15.083,45.483],[15.086,45.467],[15.168,45.422],[15.182,45.424],[15.192,45.436],[15.206,45.425],[15.223,45.426],[15.242,45.451],[15.274,45.466],[15.329,45.453],[15.346,45.457],[15.356,45.47],[15.349,45.479],[15.306,45.493],[15.333,45.508],[15.303,45.535],[15.298,45.585],[15.277,45.603],[15.308,45.614],[15.305,45.632],[15.35,45.636],[15.346,45.646],[15.389,45.638],[15.406,45.648],[15.37,45.69],[15.351,45.669],[15.352,45.684],[15.364,45.693],[15.358,45.713],[15.343,45.715],[15.319,45.696],[15.326,45.676],[15.321,45.674],[15.309,45.687],[15.311,45.697],[15.299,45.697],[15.301,45.687],[15.295,45.689],[15.279,45.71],[15.268,45.704],[15.268,45.694],[15.241,45.72],[15.301,45.754],[15.381,45.779],[15.398,45.792],[15.472,45.797],[15.467,45.815],[15.481,45.828],[15.527,45.824],[15.542,45.846],[15.559,45.835],[15.572,45.853],[15.63,45.831],[15.642,45.82],[15.667,45.842],[15.709,45.846],[15.678,45.869],[15.681,45.882],[15.691,45.884],[15.68,45.904],[15.707,45.925],[15.71,45.963],[15.702,45.998],[15.711,46.004],[15.707,46.013],[15.718,46.038],[15.732,46.044],[15.682,46.07],[15.658,46.072],[15.648,46.087],[15.624,46.088],[15.606,46.112],[15.611,46.136],[15.598,46.143],[15.613,46.153],[15.607,46.16],[15.612,46.169],[15.649,46.191],[15.642,46.21],[15.649,46.217],[15.682,46.227],[15.752,46.22],[15.752,46.21],[15.766,46.209],[15.794,46.228],[15.8,46.241],[15.791,46.259],[15.863,46.268],[15.871,46.278],[15.899,46.287],[15.944,46.291],[15.977,46.312],[16.014,46.309],[16.036,46.337],[16.052,46.335],[16.077,46.348],[16.054,46.38],[16.056,46.39],[16.089,46.388],[16.148,46.405],[16.2,46.377],[16.23,46.387],[16.271,46.374],[16.302,46.378],[16.308,46.397],[16.272,46.415],[16.259,46.47],[16.242,46.488],[16.24,46.514],[16.268,46.538],[16.152,46.601],[16.107,46.603],[16.075,46.631],[16.036,46.65],[16.042,46.686],[16.029,46.701],[16.03,46.711],[16.005,46.717],[15.985,46.752],[15.997,46.812],[15.988,46.828],[16.005,46.845],[16.014,46.885],[16.062,46.913],[16.073,46.936],[16.095,46.935],[16.095,46.954],[16.123,46.99],[16.152,46.993],[16.115,47.03],[16.121,47.044],[16.09,47.075],[16.096,47.112],[16.107,47.119],[16.114,47.143],[16.113,47.161],[16.083,47.225],[16.086,47.245],[16.057,47.315],[16.044,47.34],[16.016,47.368],[16.034,47.372],[16.031,47.379],[16.063,47.385],[16.067,47.397],[16.084,47.409],[16.095,47.408],[16.082,47.398],[16.093,47.39],[16.105,47.397],[16.101,47.413],[16.224,47.427],[16.257,47.451],[16.302,47.467],[16.306,47.474],[16.297,47.479],[16.316,47.485],[16.311,47.489],[16.333,47.505],[16.339,47.523],[16.311,47.546],[16.35,47.617],[16.37,47.623],[16.367,47.648],[16.349,47.68],[16.313,47.689],[16.295,47.724],[16.294,47.768],[16.304,47.784],[16.269,47.791],[16.277,47.809],[16.29,47.81],[16.315,47.805],[16.308,47.803],[16.308,47.793],[16.316,47.785],[16.347,47.804],[16.352,47.819],[16.377,47.827],[16.388,47.843],[16.348,47.867],[16.389,47.882],[16.4,47.876],[16.415,47.889],[16.41,47.892],[16.42,47.895],[16.424,47.912],[16.419,47.913],[16.437,47.928],[16.489,47.943],[16.514,47.943],[16.574,47.886],[16.581,47.888],[16.632,47.93],[16.634,47.946],[16.652,47.949],[16.659,47.961],[16.7,47.967],[16.701,48.01],[16.754,48.012],[16.803,48.029],[16.837,48.032],[16.831,48.038],[16.847,48.054],[16.873,48.072],[16.894,48.074],[16.919,48.066],[16.92,48.051],[16.972,48.039],[16.97,48.027],[16.982,48.025],[17.016,48.075],[16.972,48.095],[16.976,48.106],[16.995,48.109],[17.005,48.099],[17.02,48.106],[17.029,48.1],[17.002,48.093],[17.036,48.084],[17.042,48.102],[17.064,48.11],[17.068,48.124],[17.057,48.142],[17.051,48.14],[17.056,48.131],[17.029,48.129],[17.018,48.133],[17.017,48.147],[17.008,48.152],[16.962,48.169],[16.975,48.172],[16.975,48.185],[16.946,48.236],[16.958,48.264],[16.949,48.275],[16.923,48.272],[16.897,48.294],[16.901,48.3],[16.889,48.307],[16.906,48.311],[16.9,48.314],[16.908,48.323],[16.869,48.34],[16.872,48.349],[16.847,48.349],[16.834,48.379],[16.856,48.384],[16.85,48.388],[16.856,48.398],[16.847,48.402],[16.853,48.402],[16.85,48.413],[16.862,48.421],[16.847,48.43],[16.85,48.449],[16.864,48.454],[16.859,48.458],[16.88,48.477],[16.889,48.476],[16.896,48.486],[16.89,48.492],[16.918,48.497],[16.907,48.515],[16.929,48.513],[16.945,48.522],[16.936,48.527],[16.95,48.536],[16.943,48.539],[16.949,48.543],[16.941,48.552],[16.945,48.56],[16.933,48.559],[16.942,48.571],[16.933,48.58],[16.945,48.588],[16.932,48.602],[16.942,48.605],[16.943,48.618],[16.953,48.619],[16.948,48.62],[16.953,48.628],[16.964,48.626],[16.958,48.639],[16.972,48.646],[16.969,48.673],[16.974,48.671],[16.981,48.689],[16.998,48.69],[16.993,48.698],[17.003,48.698],[16.995,48.704],[17.005,48.715],[16.998,48.723],[17.017,48.73],[17.046,48.768],[17.092,48.789],[17.114,48.838],[17.148,48.838],[17.151,48.848],[17.168,48.86],[17.177,48.857],[17.178,48.867],[17.195,48.875],[17.222,48.874],[17.277,48.861],[17.302,48.845],[17.322,48.845],[17.33,48.833],[17.364,48.814],[17.395,48.814],[17.45,48.846],[17.477,48.842],[17.526,48.812],[17.592,48.827],[17.601,48.84],[17.618,48.842],[17.634,48.855],[17.706,48.862],[17.781,48.915],[17.781,48.925],[17.884,48.927],[17.922,49.018],[17.991,49.028],[18.024,49.021],[18.069,49.037],[18.092,49.058],[18.116,49.093],[18.111,49.114],[18.119,49.124],[18.107,49.134],[18.133,49.16],[18.132,49.19],[18.153,49.216],[18.149,49.249],[18.185,49.27],[18.184,49.285],[18.297,49.304],[18.374,49.329],[18.416,49.368],[18.408,49.399],[18.45,49.394],[18.475,49.408],[18.49,49.432],[18.548,49.469],[18.534,49.486],[18.543,49.497],[18.572,49.508],[18.595,49.51],[18.603,49.497],[18.616,49.495],[18.676,49.508],[18.755,49.488],[18.808,49.515],[18.946,49.517],[18.952,49.543],[18.975,49.549],[18.987,49.573],[18.984,49.587],[19.005,49.6],[19.017,49.622],[19.001,49.656],[18.962,49.665],[18.954,49.679],[18.994,49.712],[18.99,49.739],[19.027,49.759],[19.068,49.762],[19.084,49.772],[19.048,49.807],[19.052,49.829],[19.031,49.89],[19.032,49.92],[19.015,49.943],[19.036,49.954],[19.075,49.952],[19.124,49.963],[19.124,49.971],[19.111,49.972],[19.123,49.985],[19.113,50.003],[19.14,50.024],[19.137,50.036],[19.141,50.032],[19.154,50.042],[19.15,50.05],[19.193,50.064],[19.216,50.059],[19.229,50.067],[19.211,50.077],[19.194,50.074],[19.18,50.095],[19.162,50.098],[19.173,50.111],[19.166,50.12],[19.151,50.121],[19.155,50.147],[19.144,50.159],[19.18,50.159],[19.19,50.169],[19.24,50.16],[19.234,50.175],[19.203,50.191],[19.138,50.188],[19.192,50.196],[19.187,50.206],[19.164,50.215],[19.138,50.258],[19.098,50.282],[19.074,50.281],[19.068,50.298],[19.046,50.301],[19.061,50.344],[19.056,50.349],[19.036,50.349],[19.009,50.365],[18.962,50.375],[18.959,50.383],[18.98,50.39],[18.968,50.411],[19.002,50.482],[19.044,50.489],[19.096,50.513],[19.085,50.552],[19.108,50.577],[19.073,50.616],[19.108,50.621],[19.099,50.644],[19.121,50.662],[19.121,50.672],[19,50.676],[18.987,50.688],[18.943,50.702],[18.938,50.717],[18.871,50.761],[18.766,50.774],[18.679,50.818],[18.629,50.831],[18.615,50.844],[18.616,50.854],[18.654,50.921],[18.65,50.93],[18.63,50.931],[18.613,50.955],[18.626,50.971],[18.577,50.99],[18.543,50.989],[18.506,51.01],[18.462,51.007],[18.429,51.024],[18.435,51.035],[18.43,51.044],[18.447,51.059],[18.43,51.072],[18.431,51.089],[18.407,51.102],[18.412,51.115],[18.4,51.126],[18.367,51.139],[18.305,51.136],[18.259,51.158],[18.187,51.157],[18.156,51.174],[18.124,51.169],[18.106,51.154],[18.086,51.156],[18.05,51.135],[18.003,51.122],[18.003,51.13],[17.953,51.155],[17.944,51.149],[17.918,51.183],[17.895,51.186],[17.894,51.209],[17.917,51.219],[17.93,51.251],[17.964,51.272],[17.954,51.298],[17.867,51.313],[17.868,51.336],[17.877,51.343],[17.868,51.358],[17.772,51.369],[17.775,51.375],[17.755,51.391],[17.75,51.428],[17.766,51.445],[17.801,51.455],[17.809,51.467],[17.755,51.492],[17.711,51.5],[17.639,51.491],[17.577,51.508],[17.561,51.518],[17.579,51.537],[17.572,51.567],[17.555,51.579],[17.556,51.584],[17.523,51.59],[17.521,51.606],[17.471,51.626],[17.324,51.648],[17.24,51.642],[17.215,51.63],[17.208,51.608],[17.216,51.599],[17.214,51.577],[17.204,51.567],[17.188,51.577],[17.125,51.565],[17.108,51.576],[17.065,51.566],[17.07,51.555],[17.054,51.545],[17.046,51.556],[17.007,51.549],[16.928,51.552],[16.887,51.581],[16.828,51.572],[16.784,51.626],[16.78,51.635],[16.787,51.643],[16.767,51.658],[16.763,51.685],[16.681,51.701],[16.701,51.72],[16.723,51.725],[16.732,51.755],[16.71,51.76],[16.606,51.745],[16.581,51.752],[16.575,51.77],[16.545,51.78],[16.411,51.784],[16.402,51.79],[16.39,51.78],[16.409,51.776],[16.379,51.762],[16.362,51.736],[16.369,51.729],[16.35,51.711],[16.293,51.695],[16.252,51.705],[16.226,51.7],[16.215,51.714],[16.204,51.715],[16.219,51.752],[16.173,51.764],[16.14,51.76],[16.156,51.798],[16.164,51.799],[16.164,51.829],[16.199,51.858],[16.202,51.87],[16.191,51.891],[16.101,51.894],[16.08,51.913],[16.005,51.939],[15.971,51.926],[15.945,51.936],[15.996,51.947],[16.011,51.965],[16.006,51.993],[15.988,52.004],[15.958,52.003],[15.941,52.019],[15.916,52.02],[15.907,52.041],[15.886,52.045],[15.886,52.055],[15.843,52.037],[15.801,52.041],[15.81,52.065],[15.791,52.074],[15.788,52.09],[15.741,52.099],[15.739,52.112],[15.756,52.115],[15.766,52.127],[15.756,52.147],[15.725,52.172],[15.717,52.202],[15.733,52.21],[15.71,52.228],[15.76,52.235],[15.728,52.254],[15.732,52.264],[15.711,52.29],[15.652,52.31],[15.639,52.323],[15.626,52.321],[15.623,52.343],[15.566,52.345],[15.544,52.336],[15.529,52.341],[15.525,52.356],[15.496,52.365],[15.455,52.36],[15.455,52.368],[15.436,52.376],[15.456,52.39],[15.416,52.41],[15.415,52.438],[15.395,52.455],[15.378,52.456],[15.348,52.442],[15.325,52.455],[15.317,52.43],[15.292,52.418],[15.274,52.412],[15.231,52.416],[15.248,52.429],[15.224,52.439],[15.227,52.449],[15.281,52.455],[15.299,52.462],[15.304,52.473],[15.266,52.485],[15.266,52.492],[15.291,52.497],[15.275,52.508],[15.276,52.53],[15.357,52.536],[15.348,52.604],[15.372,52.643],[15.398,52.658],[15.414,52.656],[15.418,52.646],[15.431,52.649],[15.439,52.636],[15.462,52.636],[15.507,52.652],[15.501,52.666],[15.514,52.696],[15.568,52.697],[15.604,52.714],[15.634,52.701],[15.739,52.713],[15.78,52.7],[15.795,52.709],[15.902,52.714],[15.945,52.729],[15.947,52.755],[15.925,52.784],[15.939,52.786],[15.934,52.8],[15.957,52.81],[15.952,52.833],[15.975,52.846],[15.966,52.854],[15.99,52.866],[15.969,52.898],[15.981,52.912],[15.973,52.93],[15.981,52.934],[15.961,52.956],[15.961,52.971],[15.946,52.972],[15.956,52.976],[15.95,52.999],[15.957,53.032],[15.952,53.034],[15.974,53.051],[15.972,53.057],[15.988,53.055],[15.985,53.064],[15.997,53.083],[15.981,53.097],[15.982,53.115],[16,53.135],[16.032,53.151],[16.03,53.164],[16.016,53.178],[16.048,53.189],[16.062,53.204],[16.061,53.245],[16.118,53.263],[16.142,53.286],[16.07,53.291],[16.064,53.295],[16.069,53.311],[16.046,53.311],[16.052,53.318],[16.023,53.312],[15.999,53.316],[15.97,53.299],[15.969,53.315],[15.917,53.327],[15.915,53.36],[15.956,53.365],[16.022,53.403],[16.043,53.392],[16.051,53.364],[16.08,53.376],[16.151,53.376],[16.217,53.396],[16.319,53.407],[16.366,53.426],[16.317,53.478],[16.281,53.479],[16.278,53.492],[16.253,53.504],[16.254,53.515],[16.233,53.532],[16.198,53.519],[16.183,53.524],[16.167,53.519],[16.132,53.525],[16.133,53.532],[16.101,53.542],[16.121,53.552],[16.06,53.542],[16.073,53.554],[16.07,53.565],[16.057,53.566],[16.053,53.577],[16.075,53.576],[16.075,53.588],[16.082,53.59],[16.072,53.602],[16.1,53.608],[16.105,53.628],[16.064,53.646],[16.059,53.658],[16.027,53.662],[16.032,53.677],[16.059,53.684],[16.084,53.703],[16.107,53.704],[16.115,53.709],[16.113,53.723],[16.148,53.733],[16.146,53.743],[16.167,53.745],[16.166,53.755],[16.178,53.764],[16.245,53.751],[16.267,53.726],[16.248,53.707],[16.248,53.681],[16.283,53.653],[16.352,53.636],[16.395,53.604],[16.459,53.536],[16.469,53.533],[16.505,53.545],[16.594,53.517],[16.652,53.483],[16.652,53.454],[16.674,53.455],[16.725,53.437],[16.701,53.418],[16.731,53.4],[16.748,53.397],[16.762,53.41],[16.765,53.432],[16.776,53.445],[16.803,53.443],[16.807,53.454],[16.802,53.456],[16.818,53.467],[16.852,53.462],[16.863,53.443],[16.889,53.445],[16.908,53.454],[16.905,53.463],[16.921,53.475],[16.916,53.479],[16.94,53.489],[16.939,53.505],[16.949,53.516],[16.953,53.541],[16.94,53.583],[16.898,53.62],[16.876,53.715],[16.858,53.747],[16.789,53.81],[16.791,53.849],[16.8,53.843],[16.824,53.868],[16.818,53.893],[16.798,53.891],[16.8,53.885],[16.773,53.868],[16.747,53.879],[16.728,53.911],[16.761,53.906],[16.778,53.927],[16.867,53.948],[16.935,53.914],[16.982,53.905],[16.991,53.926],[17.02,53.94],[17.006,53.953],[17.015,53.969],[17.107,53.978],[17.098,53.989],[17.121,54.011],[17.154,54.003],[17.195,54.012],[17.199,54.003],[17.213,54.026],[17.212,54.042],[17.27,54.045],[17.255,54.054],[17.259,54.068],[17.248,54.073],[17.312,54.133],[17.277,54.146],[17.282,54.24],[17.336,54.237],[17.422,54.269],[17.471,54.258],[17.542,54.257],[17.564,54.283],[17.613,54.297],[17.616,54.331],[17.628,54.326],[17.662,54.333],[17.688,54.319],[17.741,54.321],[17.755,54.339],[17.738,54.352],[17.709,54.353],[17.717,54.368],[17.717,54.404],[17.727,54.406],[17.726,54.415],[17.692,54.432],[17.68,54.424],[17.627,54.42],[17.6,54.442],[17.606,54.456],[17.598,54.463],[17.683,54.488],[17.67,54.507],[17.587,54.542],[17.547,54.549],[17.569,54.57],[17.581,54.606],[17.607,54.615],[17.618,54.635],[17.578,54.653],[17.509,54.662],[17.44,54.693],[17.416,54.712],[17.538,54.754],[17.48,54.811],[17.36,54.805],[17.234,54.785],[17.012,54.721],[16.926,54.67],[16.857,54.645],[16.738,54.626],[16.625,54.62],[16.476,54.589],[16.366,54.53],[16.331,54.49],[16.301,54.475],[16.206,54.393],[16.125,54.346],[16.058,54.321],[15.811,54.293],[15.682,54.259],[15.522,54.239],[15.469,54.22],[15.353,54.213],[15.241,54.197],[14.859,54.104],[14.679,54.071],[14.634,54.053],[14.466,54.013],[14.381,53.973],[14.345,53.967],[14.261,53.98],[14.061,54.1],[13.971,54.121],[13.927,54.152],[13.911,54.168],[13.986,54.201],[14.008,54.218],[14.016,54.238],[14.009,54.266],[13.982,54.292],[13.943,54.305],[13.845,54.295],[13.864,54.335],[13.851,54.365],[13.796,54.395],[13.761,54.429],[13.682,54.46],[13.74,54.483],[13.768,54.51],[13.774,54.546],[13.757,54.591],[13.721,54.616],[13.657,54.635],[13.505,54.633],[13.526,54.669],[13.518,54.701],[13.487,54.726],[13.435,54.737],[13.247,54.722],[13.194,54.703],[13.14,54.661],[13.06,54.645],[13.01,54.61],[13.006,54.565],[12.974,54.511],[12.867,54.496],[12.668,54.497],[12.63,54.503],[12.6,54.529],[12.56,54.542],[12.524,54.543],[12.468,54.531],[12.418,54.499],[12.378,54.435],[12.324,54.401],[12.274,54.336],[12.15,54.289],[12.078,54.239],[11.982,54.231],[11.838,54.198],[11.724,54.207],[11.645,54.198],[11.556,54.152],[11.497,54.138],[11.451,54.104],[11.43,54.079],[11.307,54.031],[11.187,54.069],[11.07,54.066],[10.923,54.029],[10.905,54.038],[10.943,54.049],[11.029,54.107],[11.112,54.138],[11.172,54.173],[11.185,54.199],[11.184,54.24],[11.18,54.291],[11.166,54.325],[11.209,54.354],[11.229,54.358],[11.299,54.347],[11.35,54.354],[11.387,54.374],[11.405,54.398],[11.396,54.441],[11.313,54.534],[11.27,54.556],[11.115,54.588],[11.051,54.591],[10.997,54.572],[10.93,54.515],[10.912,54.473],[10.916,54.432],[10.818,54.403],[10.747,54.363],[10.676,54.402],[10.507,54.443],[10.424,54.474],[10.358,54.489],[10.267,54.491],[10.2,54.389],[10.167,54.364],[10.098,54.372],[10.082,54.381],[10.058,54.359],[10.027,54.36],[9.985,54.345],[9.94,54.341],[9.874,54.359],[9.869,54.371],[9.853,54.376],[9.823,54.372],[9.833,54.359],[9.827,54.345],[9.799,54.35],[9.793,54.361],[9.748,54.342],[9.74,54.341],[9.742,54.351],[9.676,54.353],[9.67,54.347],[9.69,54.327],[9.682,54.324],[9.595,54.344],[9.57,54.334],[9.547,54.31],[9.545,54.283],[9.572,54.256],[9.573,54.244],[9.587,54.239],[9.558,54.221],[9.541,54.224],[9.504,54.203],[9.485,54.206],[9.468,54.197],[9.441,54.198],[9.43,54.207],[9.442,54.222],[9.433,54.237],[9.443,54.238],[9.443,54.246],[9.422,54.264],[9.409,54.261],[9.394,54.289],[9.365,54.293],[9.363,54.281],[9.328,54.283],[9.307,54.272],[9.285,54.278],[9.284,54.29],[9.259,54.308],[9.271,54.308],[9.278,54.324],[9.263,54.33],[9.263,54.343],[9.22,54.346],[9.228,54.34],[9.224,54.322],[9.215,54.326],[9.194,54.316],[9.197,54.329],[9.176,54.335],[9.163,54.329],[9.172,54.319],[9.16,54.318],[9.147,54.32],[9.143,54.329],[9.151,54.334],[9.131,54.351],[9.092,54.37],[9.075,54.363],[9.007,54.378],[8.982,54.361],[8.993,54.332],[8.872,54.264],[8.794,54.269],[8.734,54.25],[8.525,54.221],[8.524,54.188],[8.535,54.169],[8.523,54.153],[8.521,54.125],[8.506,54.097],[8.517,54.012],[8.363,54.029],[8.299,54.013],[8.263,53.978],[8.261,53.943],[8.281,53.913],[8.253,53.902],[8.225,53.878],[8.218,53.858],[8.226,53.83],[8.083,53.815],[8.024,53.831],[7.866,53.846],[7.811,53.836],[7.683,53.835],[7.618,53.815],[7.494,53.81],[7.412,53.789],[7.327,53.78],[7.181,53.776],[7.124,53.765],[7.066,53.742],[6.814,53.716],[6.75,53.688],[6.73,53.67],[6.62,53.655],[6.567,53.627],[6.554,53.608],[6.551,53.583],[6.613,53.548],[6.614,53.539],[6.657,53.528],[6.699,53.494],[6.854,53.457],[6.892,53.439],[6.883,53.419],[6.897,53.365],[6.924,53.34],[7.048,53.307],[7.192,53.315],[7.219,53.205],[7.208,53.191],[7.228,53.18],[7.205,53.178],[7.18,53.133],[7.203,53.113],[7.201,53.071],[7.217,53.007],[7.182,52.943],[7.087,52.85],[7.093,52.838],[7.072,52.81],[7.055,52.644],[7.042,52.633],[6.975,52.646],[6.919,52.64],[6.896,52.651],[6.817,52.648],[6.792,52.654],[6.742,52.645],[6.71,52.628],[6.725,52.619],[6.719,52.589],[6.767,52.564],[6.728,52.563],[6.711,52.549],[6.685,52.553],[6.705,52.521],[6.698,52.486],[6.753,52.464],[6.854,52.46],[6.853,52.45],[6.942,52.435],[6.962,52.444],[6.981,52.467],[6.992,52.467],[7.009,52.433],[7.036,52.403],[7.057,52.399],[7.072,52.374],[7.071,52.351],[7.026,52.283],[7.042,52.256],[7.066,52.241],[7.039,52.228],[6.987,52.226],[6.951,52.181],[6.908,52.176],[6.883,52.158],[6.873,52.133],[6.855,52.12],[6.763,52.119],[6.755,52.095],[6.746,52.094],[6.747,52.082],[6.696,52.07],[6.688,52.04],[6.753,52.028],[6.827,51.994],[6.832,51.974],[6.828,51.964],[6.799,51.959],[6.794,51.935],[6.77,51.916],[6.722,51.896],[6.696,51.915],[6.675,51.916],[6.542,51.884],[6.471,51.854],[6.452,51.864],[6.434,51.86],[6.394,51.873],[6.387,51.865],[6.408,51.854],[6.402,51.845],[6.407,51.828],[6.363,51.835],[6.358,51.847],[6.335,51.851],[6.265,51.833],[6.193,51.861],[6.209,51.866],[6.191,51.891],[6.163,51.908],[6.164,51.914],[6.127,51.916],[6.097,51.931],[6.094,51.969],[6.072,51.968],[6.066,51.982],[6.041,51.982],[6.034,51.971],[6.009,51.979],[5.986,51.97],[5.991,51.949],[5.974,51.939],[5.966,51.938],[5.962,51.96],[5.948,51.966],[5.906,51.962],[5.906,51.946],[5.924,51.943],[5.91,51.935],[5.925,51.921],[5.93,51.903],[5.962,51.925],[5.975,51.914],[6.015,51.917],[6.077,51.907],[6.135,51.886],[6.142,51.873],[6.139,51.863],[6.128,51.859],[6.092,51.882],[6.042,51.874],[6.048,51.87],[6.036,51.849],[6.006,51.834],[6.024,51.857],[5.98,51.886],[5.979,51.857],[5.985,51.852],[5.976,51.836],[5.938,51.831],[5.943,51.824],[5.924,51.819],[5.978,51.798],[5.973,51.79],[5.99,51.782],[5.982,51.774],[5.991,51.77],[5.935,51.741],[5.894,51.778],[5.869,51.776],[5.865,51.758],[5.88,51.749],[5.886,51.728],[5.934,51.716],[5.895,51.688],[5.895,51.681],[5.908,51.677],[5.919,51.659],[5.979,51.665],[5.97,51.649],[6.021,51.621],[6.044,51.561],[6.033,51.557],[6.003,51.57],[5.906,51.552],[5.89,51.561],[5.839,51.566],[5.872,51.449],[5.931,51.385],[5.874,51.353],[5.672,51.315],[5.626,51.274],[5.619,51.23],[5.594,51.224],[5.56,51.222],[5.556,51.267],[5.516,51.295],[5.487,51.3],[5.414,51.263],[5.347,51.276],[5.338,51.264],[5.238,51.261],[5.226,51.268],[5.242,51.305],[5.2,51.323],[5.163,51.31],[5.134,51.315],[5.132,51.347],[5.071,51.393],[5.105,51.431],[5.079,51.471],[5.046,51.471],[5.04,51.485],[5.026,51.483],[5.01,51.47],[5.011,51.455],[5.002,51.443],[4.921,51.394],[4.91,51.407],[4.885,51.417],[4.866,51.41],[4.773,51.414],[4.769,51.427],[4.778,51.432],[4.84,51.42],[4.83,51.422],[4.823,51.449],[4.84,51.456],[4.84,51.479],[4.821,51.484],[4.813,51.495],[4.775,51.505],[4.751,51.498],[4.696,51.455],[4.669,51.445],[4.669,51.43],[4.66,51.425],[4.576,51.433],[4.535,51.423],[4.53,51.447],[4.546,51.47],[4.536,51.482],[4.478,51.478],[4.38,51.448],[4.396,51.443],[4.395,51.427],[4.384,51.421],[4.432,51.375],[4.425,51.371],[4.43,51.367],[4.379,51.355],[4.341,51.358],[4.332,51.378],[4.221,51.374],[4.224,51.362],[4.242,51.354],[4.165,51.292],[4.062,51.245],[4.01,51.244],[3.959,51.216],[3.939,51.213],[3.929,51.22],[3.92,51.217],[3.919,51.208],[3.886,51.201],[3.878,51.208],[3.891,51.215],[3.886,51.222],[3.86,51.211],[3.794,51.214],[3.789,51.232],[3.794,51.253],[3.778,51.262],[3.694,51.276],[3.59,51.306],[3.581,51.298],[3.584,51.289],[3.562,51.296],[3.539,51.284],[3.518,51.288],[3.528,51.246],[3.43,51.245],[3.424,51.255],[3.375,51.278],[3.381,51.285],[3.367,51.299],[3.377,51.302],[3.358,51.315],[3.385,51.334],[3.384,51.341],[3.366,51.369],[3.321,51.418],[3.312,51.419],[3.039,51.356],[2.897,51.286],[2.745,51.225],[2.503,51.142]],[[4.235,50.187],[4.254,50.201],[4.271,50.203],[4.264,50.216],[4.293,50.25],[4.345,50.228],[4.359,50.237],[4.396,50.225],[4.389,50.208],[4.398,50.194],[4.395,50.183],[4.359,50.167],[4.343,50.176],[4.286,50.161],[4.237,50.18],[4.235,50.187]],[[4.431,50.15],[4.453,50.205],[4.497,50.168],[4.495,50.159],[4.456,50.128],[4.436,50.129],[4.447,50.135],[4.431,50.15]],[[4.455,50.108],[4.472,50.13],[4.485,50.134],[4.505,50.112],[4.525,50.116],[4.541,50.092],[4.525,50.071],[4.487,50.071],[4.492,50.084],[4.479,50.101],[4.455,50.108]],[[4.507,50.222],[4.543,50.228],[4.54,50.221],[4.554,50.208],[4.567,50.212],[4.576,50.198],[4.555,50.178],[4.541,50.187],[4.539,50.2],[4.52,50.201],[4.522,50.216],[4.507,50.222]],[[4.63,50.153],[4.657,50.161],[4.691,50.146],[4.71,50.145],[4.689,50.122],[4.667,50.121],[4.63,50.153]],[[4.636,50.102],[4.65,50.108],[4.677,50.116],[4.681,50.109],[4.66,50.096],[4.641,50.096],[4.636,50.102]],[[4.742,50.178],[4.757,50.201],[4.775,50.198],[4.787,50.21],[4.782,50.212],[4.792,50.21],[4.802,50.204],[4.798,50.2],[4.819,50.199],[4.822,50.181],[4.861,50.177],[4.857,50.169],[4.88,50.147],[4.897,50.138],[4.868,50.121],[4.873,50.091],[4.854,50.101],[4.84,50.095],[4.845,50.086],[4.838,50.068],[4.823,50.067],[4.822,50.096],[4.742,50.178]],[[4.896,49.986],[4.911,50.002],[4.908,50.013],[4.917,50.032],[4.938,50.018],[4.972,50.029],[4.991,50.016],[4.985,50.012],[4.997,49.998],[4.974,49.982],[4.976,49.971],[4.956,49.963],[4.915,49.972],[4.896,49.986]],[[5.048,50.016],[5.084,50.016],[5.092,50.001],[5.085,49.979],[5.053,49.983],[5.062,49.994],[5.052,49.999],[5.048,50.016]],[[5.56,50.973],[5.605,50.994],[5.599,51.005],[5.616,51.009],[5.623,50.999],[5.645,50.996],[5.681,51.003],[5.722,50.996],[5.733,50.973],[5.722,50.96],[5.736,50.955],[5.696,50.941],[5.675,50.942],[5.638,50.943],[5.605,50.934],[5.56,50.973]],[[5.682,50.758],[5.7,50.778],[5.703,50.796],[5.717,50.8],[5.736,50.792],[5.791,50.81],[5.8,50.824],[5.78,50.841],[5.856,50.822],[5.892,50.825],[5.916,50.804],[5.883,50.784],[5.836,50.781],[5.82,50.803],[5.799,50.803],[5.743,50.766],[5.744,50.748],[5.763,50.729],[5.752,50.715],[5.754,50.721],[5.743,50.721],[5.74,50.709],[5.775,50.682],[5.767,50.67],[5.738,50.694],[5.728,50.69],[5.742,50.67],[5.722,50.663],[5.706,50.668],[5.712,50.686],[5.703,50.692],[5.703,50.702],[5.72,50.722],[5.711,50.725],[5.709,50.738],[5.73,50.754],[5.724,50.764],[5.698,50.754],[5.682,50.758]],[[5.685,50.876],[5.698,50.909],[5.727,50.908],[5.725,50.922],[5.746,50.944],[5.772,50.928],[5.795,50.965],[5.828,50.949],[5.822,50.936],[5.835,50.924],[5.823,50.917],[5.823,50.908],[5.853,50.91],[5.85,50.905],[5.862,50.898],[5.89,50.89],[5.96,50.912],[5.936,50.932],[5.965,50.93],[5.98,50.92],[6.023,50.926],[6.044,50.906],[6.031,50.875],[6.004,50.862],[6.018,50.847],[5.954,50.845],[5.962,50.827],[5.976,50.817],[5.871,50.869],[5.838,50.869],[5.822,50.853],[5.804,50.851],[5.806,50.845],[5.694,50.846],[5.701,50.847],[5.685,50.876]],[[5.695,50.572],[5.72,50.588],[5.697,50.6],[5.701,50.606],[5.765,50.602],[5.773,50.593],[5.768,50.576],[5.753,50.572],[5.745,50.581],[5.734,50.576],[5.736,50.57],[5.735,50.565],[5.695,50.572]],[[5.701,49.54],[5.734,49.546],[5.748,49.54],[5.758,49.543],[5.76,49.558],[5.776,49.563],[5.814,49.548],[5.817,49.536],[5.811,49.529],[5.82,49.512],[5.815,49.501],[5.762,49.485],[5.712,49.493],[5.706,49.499],[5.71,49.51],[5.701,49.54]],[[5.707,49.421],[5.739,49.438],[5.77,49.434],[5.799,49.448],[5.818,49.443],[5.838,49.45],[5.855,49.44],[5.833,49.412],[5.802,49.398],[5.732,49.398],[5.707,49.421]],[[5.795,51.09],[5.809,51.097],[5.824,51.092],[5.834,51.103],[5.813,51.108],[5.81,51.118],[5.844,51.133],[5.858,51.151],[5.878,51.15],[5.884,51.156],[5.877,51.155],[5.923,51.172],[5.917,51.174],[5.922,51.179],[5.959,51.162],[5.972,51.165],[5.988,51.178],[6.001,51.149],[6.068,51.143],[6.155,51.166],[6.177,51.157],[6.082,51.128],[5.992,51.081],[5.958,51.036],[5.938,51.036],[5.913,51.067],[5.854,51.087],[5.819,51.059],[5.803,51.064],[5.806,51.078],[5.795,51.09]],[[5.834,51.031],[5.845,51.053],[5.866,51.052],[5.877,51.032],[5.852,51.024],[5.834,51.031]],[[5.869,49.375],[5.897,49.383],[5.919,49.373],[5.889,49.344],[5.89,49.354],[5.869,49.375]],[[5.92,50.769],[5.923,50.776],[5.942,50.771],[5.946,50.796],[5.978,50.804],[5.975,50.798],[6.028,50.774],[6.019,50.764],[6.021,50.754],[5.939,50.758],[5.92,50.769]],[[6.006,51.258],[6.048,51.287],[6.087,51.298],[6.126,51.328],[6.159,51.315],[6.154,51.307],[6.1,51.258],[6.093,51.263],[6.065,51.246],[6.044,51.26],[6.02,51.251],[6.006,51.258]],[[6.107,51.403],[6.116,51.413],[6.179,51.396],[6.227,51.4],[6.215,51.388],[6.226,51.36],[6.19,51.339],[6.194,51.335],[6.179,51.334],[6.18,51.342],[6.111,51.364],[6.122,51.385],[6.107,51.403]],[[6.136,49.569],[6.136,49.576],[6.154,49.581],[6.173,49.573],[6.152,49.572],[6.136,49.569]],[[6.375,49.541],[6.394,49.54],[6.395,49.524],[6.386,49.524],[6.375,49.541]],[[6.421,49.197],[6.429,49.203],[6.457,49.2],[6.453,49.189],[6.423,49.184],[6.421,49.197]],[[6.477,49.2],[6.48,49.215],[6.51,49.222],[6.508,49.238],[6.52,49.243],[6.564,49.225],[6.521,49.201],[6.477,49.2]],[[6.61,48.994],[6.613,49.003],[6.636,49.012],[6.651,49.003],[6.638,48.994],[6.61,48.994]],[[6.64,49.014],[6.647,49.03],[6.665,49.041],[6.656,49.055],[6.747,49.023],[6.769,49.044],[6.803,49.03],[6.808,49.013],[6.833,49.015],[6.834,48.998],[6.826,48.986],[6.802,48.993],[6.8,49.006],[6.764,49.01],[6.755,48.995],[6.798,48.977],[6.793,48.97],[6.78,48.975],[6.767,48.969],[6.777,48.963],[6.781,48.941],[6.746,48.955],[6.721,48.946],[6.726,48.929],[6.735,48.927],[6.709,48.921],[6.707,48.946],[6.68,48.954],[6.68,48.99],[6.64,49.014]],[[6.675,49.062],[6.684,49.07],[6.684,49.081],[6.711,49.06],[6.728,49.08],[6.776,49.072],[6.763,49.058],[6.705,49.05],[6.675,49.062]],[[6.705,49.327],[6.731,49.343],[6.763,49.344],[6.798,49.335],[6.794,49.304],[6.747,49.29],[6.739,49.296],[6.718,49.292],[6.705,49.327]],[[6.712,48.853],[6.714,48.871],[6.741,48.885],[6.735,48.906],[6.748,48.915],[6.748,48.924],[6.766,48.923],[6.762,48.913],[6.772,48.909],[6.769,48.888],[6.78,48.864],[6.77,48.853],[6.712,48.853]],[[6.81,49.06],[6.813,49.067],[6.836,49.076],[6.844,49.063],[6.818,49.057],[6.81,49.06]],[[6.835,48.926],[6.852,48.942],[6.896,48.945],[6.937,48.928],[6.931,48.913],[6.897,48.916],[6.867,48.908],[6.855,48.919],[6.838,48.916],[6.835,48.926]],[[6.9,48.988],[6.943,49.002],[6.98,48.998],[6.986,48.994],[6.982,48.984],[7.001,48.976],[6.988,48.953],[6.979,48.95],[6.918,48.961],[6.904,48.967],[6.91,48.974],[6.9,48.988]],[[7.946,49.154],[7.946,49.162],[7.957,49.166],[7.952,49.179],[7.959,49.186],[7.969,49.187],[7.981,49.174],[7.982,49.181],[8.036,49.178],[8.016,49.168],[8.015,49.16],[7.981,49.156],[7.984,49.146],[7.961,49.142],[7.954,49.155],[7.946,49.154]],[[8.007,49.197],[8.086,49.208],[8.101,49.214],[8.105,49.231],[8.143,49.232],[8.154,49.225],[8.159,49.215],[8.151,49.21],[8.161,49.203],[8.16,49.186],[8.119,49.179],[8.093,49.188],[8.1,49.19],[8.072,49.185],[8.007,49.197]]],[[[4.779,49.788],[4.783,49.773],[4.801,49.768],[4.827,49.759],[4.834,49.749],[4.853,49.753],[4.835,49.77],[4.844,49.772],[4.844,49.781],[4.821,49.802],[4.824,49.808],[4.813,49.824],[4.832,49.838],[4.831,49.849],[4.809,49.848],[4.803,49.83],[4.779,49.816],[4.791,49.803],[4.787,49.79],[4.779,49.788]]],[[[4.851,49.796],[4.871,49.789],[4.866,49.795],[4.878,49.795],[4.873,49.804],[4.891,49.814],[4.885,49.835],[4.869,49.834],[4.873,49.816],[4.851,49.796]]],[[[5.4,49.226],[5.416,49.216],[5.486,49.223],[5.516,49.235],[5.497,49.243],[5.475,49.235],[5.406,49.238],[5.4,49.226]]],[[[5.422,48.689],[5.445,48.676],[5.486,48.68],[5.495,48.674],[5.483,48.653],[5.502,48.645],[5.52,48.625],[5.537,48.626],[5.583,48.687],[5.628,48.693],[5.668,48.711],[5.674,48.721],[5.725,48.733],[5.754,48.727],[5.785,48.734],[5.782,48.74],[5.792,48.748],[5.806,48.748],[5.803,48.757],[5.83,48.765],[5.847,48.757],[5.85,48.776],[5.82,48.774],[5.828,48.787],[5.817,48.797],[5.819,48.807],[5.83,48.813],[5.834,48.801],[5.85,48.811],[5.886,48.788],[5.887,48.781],[5.865,48.775],[5.88,48.752],[5.911,48.758],[5.904,48.768],[5.913,48.77],[5.951,48.753],[5.98,48.781],[5.998,48.771],[6.017,48.774],[6.016,48.779],[6.037,48.767],[6.068,48.776],[6.093,48.762],[6.102,48.764],[6.08,48.744],[6.099,48.732],[6.071,48.72],[6.062,48.73],[6.054,48.728],[6.052,48.741],[6.039,48.751],[6.05,48.757],[6.037,48.758],[5.988,48.744],[5.926,48.688],[5.932,48.663],[5.954,48.664],[5.961,48.65],[5.996,48.653],[6.016,48.663],[6.041,48.65],[6.048,48.629],[6.027,48.622],[6.05,48.608],[6.068,48.609],[6.086,48.592],[6.094,48.567],[6.109,48.55],[6.085,48.545],[6.052,48.57],[6.029,48.566],[6.041,48.582],[6.059,48.59],[6.055,48.599],[6.024,48.61],[5.999,48.615],[5.975,48.606],[5.962,48.612],[5.938,48.601],[5.9,48.608],[5.863,48.583],[5.85,48.555],[5.879,48.555],[5.87,48.515],[5.906,48.511],[5.896,48.466],[5.909,48.459],[5.857,48.423],[5.843,48.428],[5.819,48.418],[5.803,48.427],[5.828,48.447],[5.817,48.456],[5.831,48.473],[5.828,48.481],[5.81,48.484],[5.804,48.495],[5.762,48.501],[5.736,48.47],[5.705,48.458],[5.704,48.448],[5.686,48.44],[5.632,48.444],[5.625,48.426],[5.642,48.407],[5.669,48.396],[5.694,48.401],[5.699,48.392],[5.672,48.375],[5.681,48.353],[5.673,48.332],[5.694,48.329],[5.685,48.29],[5.647,48.256],[5.648,48.234],[5.664,48.224],[5.676,48.228],[5.678,48.241],[5.705,48.235],[5.717,48.202],[5.756,48.183],[5.773,48.197],[5.768,48.21],[5.742,48.216],[5.746,48.229],[5.724,48.258],[5.741,48.265],[5.801,48.255],[5.82,48.265],[5.843,48.262],[5.833,48.252],[5.842,48.241],[5.896,48.238],[5.906,48.222],[5.901,48.208],[5.909,48.201],[5.927,48.209],[5.956,48.189],[5.981,48.19],[5.992,48.203],[6.018,48.206],[6.02,48.229],[6.037,48.235],[6.059,48.205],[6.056,48.175],[6.074,48.165],[6.061,48.135],[6.034,48.116],[6.015,48.146],[5.992,48.146],[5.979,48.16],[5.955,48.15],[5.948,48.134],[5.932,48.131],[5.922,48.12],[5.934,48.094],[5.974,48.096],[5.98,48.071],[5.939,48.073],[5.94,48.057],[5.93,48.053],[5.944,48.023],[5.924,48.017],[5.948,48.008],[5.942,47.942],[6.003,47.931],[6.039,47.95],[6.003,47.965],[6.037,47.974],[6.028,47.982],[6.034,47.992],[6.098,48.008],[6.154,48.058],[6.185,48.078],[6.196,48.077],[6.269,48.051],[6.271,48.038],[6.244,48.01],[6.224,48.007],[6.216,48.013],[6.164,48.003],[6.16,47.986],[6.17,47.976],[6.157,47.97],[6.167,47.961],[6.145,47.952],[6.164,47.925],[6.218,47.927],[6.299,47.958],[6.327,47.951],[6.381,47.965],[6.427,47.947],[6.46,47.918],[6.459,47.906],[6.475,47.887],[6.556,47.911],[6.56,47.917],[6.546,47.922],[6.55,47.93],[6.597,47.944],[6.625,47.938],[6.655,47.899],[6.701,47.885],[6.745,47.861],[6.767,47.859],[6.79,47.834],[6.823,47.814],[6.839,47.824],[6.896,47.833],[6.919,47.849],[6.897,47.889],[6.926,47.907],[6.926,47.917],[6.914,47.918],[6.923,47.927],[6.923,47.953],[6.942,47.979],[6.944,47.999],[6.961,48],[7,48.021],[7.031,48.072],[7.051,48.084],[7.082,48.12],[7.084,48.127],[7.059,48.141],[7.119,48.213],[7.134,48.248],[7.159,48.256],[7.163,48.24],[7.177,48.241],[7.219,48.259],[7.23,48.227],[7.284,48.245],[7.403,48.215],[7.431,48.211],[7.435,48.218],[7.354,48.249],[7.33,48.246],[7.31,48.254],[7.334,48.273],[7.295,48.269],[7.291,48.272],[7.3,48.285],[7.278,48.303],[7.198,48.31],[7.192,48.325],[7.178,48.325],[7.184,48.339],[7.169,48.342],[7.152,48.333],[7.119,48.333],[7.109,48.344],[7.077,48.352],[7.101,48.374],[7.141,48.375],[7.139,48.383],[7.156,48.404],[7.184,48.42],[7.182,48.435],[7.218,48.473],[7.212,48.48],[7.167,48.486],[7.161,48.492],[7.175,48.506],[7.167,48.526],[7.116,48.537],[7.088,48.531],[7.069,48.538],[7.059,48.529],[7.024,48.524],[6.968,48.544],[6.941,48.537],[6.919,48.555],[6.879,48.56],[6.868,48.543],[6.858,48.544],[6.867,48.579],[6.911,48.585],[6.902,48.602],[6.923,48.604],[6.934,48.594],[6.96,48.602],[6.961,48.608],[6.94,48.615],[6.945,48.619],[6.93,48.635],[6.906,48.62],[6.904,48.634],[6.883,48.642],[6.885,48.667],[6.848,48.649],[6.819,48.66],[6.811,48.648],[6.783,48.642],[6.774,48.647],[6.779,48.653],[6.765,48.652],[6.757,48.67],[6.726,48.664],[6.722,48.67],[6.705,48.642],[6.687,48.642],[6.672,48.654],[6.668,48.667],[6.649,48.677],[6.625,48.714],[6.546,48.709],[6.537,48.729],[6.538,48.752],[6.515,48.754],[6.5,48.736],[6.446,48.729],[6.434,48.748],[6.444,48.752],[6.44,48.756],[6.425,48.756],[6.409,48.78],[6.395,48.775],[6.376,48.783],[6.385,48.797],[6.378,48.82],[6.405,48.822],[6.417,48.832],[6.384,48.852],[6.33,48.825],[6.305,48.827],[6.304,48.835],[6.328,48.839],[6.326,48.851],[6.371,48.859],[6.345,48.885],[6.328,48.883],[6.325,48.904],[6.31,48.913],[6.325,48.928],[6.322,48.945],[6.288,48.927],[6.259,48.933],[6.225,48.911],[6.186,48.911],[6.159,48.894],[6.153,48.884],[6.16,48.882],[6.155,48.86],[6.165,48.852],[6.155,48.845],[6.173,48.835],[6.17,48.821],[6.148,48.822],[6.146,48.829],[6.127,48.834],[6.133,48.858],[6.117,48.859],[6.109,48.835],[6.08,48.829],[6.085,48.818],[6.098,48.822],[6.121,48.815],[6.106,48.802],[6.027,48.811],[6.029,48.848],[6.082,48.875],[6.065,48.874],[6.062,48.884],[6.085,48.892],[6.122,48.881],[6.144,48.889],[6.125,48.905],[6.166,48.913],[6.161,48.929],[6.132,48.935],[6.124,48.95],[6.121,48.944],[6.081,48.945],[6.081,48.963],[6.065,48.981],[6.064,48.999],[6.087,49.027],[6.088,49.04],[6.074,49.057],[6.053,49.033],[6.055,49.022],[6.067,49.019],[6.067,49.007],[6.048,49.007],[6.046,49.014],[6.019,49.025],[6.015,49.038],[5.988,49.036],[5.981,49.028],[5.987,48.995],[5.974,48.989],[5.956,48.992],[5.947,48.977],[5.93,48.975],[5.911,48.991],[5.919,48.997],[5.88,49.009],[5.855,49],[5.819,48.999],[5.828,49.006],[5.819,49.008],[5.829,49.031],[5.873,49.047],[5.909,49.03],[5.958,49.048],[5.937,49.072],[5.903,49.076],[5.889,49.088],[5.766,49.045],[5.746,49.06],[5.742,49.073],[5.705,49.069],[5.67,49.057],[5.652,49.041],[5.608,49.036],[5.604,49.027],[5.587,49.026],[5.571,49.037],[5.531,49.038],[5.512,49.028],[5.438,49.031],[5.423,49.021],[5.431,49.007],[5.491,48.971],[5.504,48.92],[5.526,48.908],[5.541,48.882],[5.525,48.871],[5.498,48.871],[5.499,48.855],[5.548,48.857],[5.579,48.874],[5.612,48.859],[5.612,48.851],[5.593,48.843],[5.564,48.841],[5.534,48.817],[5.542,48.798],[5.518,48.779],[5.485,48.778],[5.451,48.743],[5.468,48.724],[5.5,48.729],[5.507,48.712],[5.491,48.7],[5.461,48.702],[5.422,48.689]],[[5.801,48.986],[5.818,48.998],[5.832,48.989],[5.818,48.98],[5.801,48.986]],[[5.85,48.412],[5.88,48.417],[5.905,48.432],[5.902,48.446],[5.919,48.451],[5.96,48.447],[5.97,48.422],[6.003,48.413],[6.006,48.403],[5.996,48.394],[6.006,48.384],[5.963,48.38],[5.966,48.364],[5.959,48.359],[5.921,48.363],[5.887,48.388],[5.886,48.397],[5.861,48.398],[5.85,48.412]],[[6.182,48.834],[6.229,48.847],[6.251,48.859],[6.253,48.869],[6.266,48.853],[6.248,48.844],[6.26,48.84],[6.269,48.821],[6.231,48.816],[6.234,48.828],[6.201,48.81],[6.186,48.814],[6.19,48.825],[6.182,48.834]],[[6.288,48.713],[6.305,48.722],[6.301,48.732],[6.313,48.736],[6.333,48.728],[6.337,48.715],[6.35,48.713],[6.371,48.726],[6.365,48.737],[6.388,48.743],[6.4,48.734],[6.409,48.722],[6.405,48.71],[6.37,48.693],[6.358,48.697],[6.353,48.692],[6.363,48.686],[6.345,48.673],[6.324,48.674],[6.309,48.686],[6.342,48.694],[6.322,48.706],[6.3,48.702],[6.288,48.713]],[[6.314,48.785],[6.339,48.811],[6.358,48.811],[6.347,48.807],[6.356,48.792],[6.32,48.777],[6.314,48.785]],[[6.497,48.692],[6.507,48.699],[6.541,48.702],[6.557,48.693],[6.51,48.671],[6.514,48.682],[6.497,48.692]],[[6.54,48.503],[6.551,48.505],[6.541,48.511],[6.57,48.511],[6.585,48.519],[6.569,48.519],[6.561,48.536],[6.609,48.556],[6.618,48.571],[6.67,48.548],[6.681,48.557],[6.725,48.565],[6.778,48.565],[6.773,48.548],[6.805,48.541],[6.816,48.527],[6.805,48.514],[6.81,48.497],[6.921,48.439],[6.918,48.435],[6.879,48.417],[6.864,48.436],[6.831,48.419],[6.806,48.372],[6.787,48.376],[6.771,48.366],[6.781,48.358],[6.777,48.332],[6.79,48.323],[6.77,48.297],[6.783,48.285],[6.77,48.279],[6.726,48.27],[6.693,48.283],[6.658,48.338],[6.624,48.317],[6.588,48.331],[6.612,48.351],[6.589,48.413],[6.602,48.421],[6.589,48.434],[6.599,48.444],[6.598,48.466],[6.555,48.462],[6.557,48.477],[6.541,48.487],[6.54,48.503]],[[6.656,48.597],[6.668,48.606],[6.698,48.622],[6.728,48.614],[6.733,48.6],[6.71,48.589],[6.684,48.599],[6.675,48.591],[6.676,48.574],[6.658,48.574],[6.656,48.597]],[[6.855,48.523],[6.872,48.532],[6.942,48.533],[6.943,48.526],[6.959,48.52],[6.98,48.524],[7.019,48.509],[7.065,48.524],[7.084,48.508],[7.078,48.508],[6.967,48.472],[6.928,48.515],[6.91,48.52],[6.888,48.508],[6.867,48.511],[6.855,48.523]]],[[[5.436,49.078],[5.444,49.056],[5.464,49.055],[5.495,49.082],[5.519,49.092],[5.523,49.108],[5.503,49.114],[5.501,49.126],[5.554,49.14],[5.545,49.167],[5.562,49.179],[5.556,49.188],[5.464,49.162],[5.453,49.147],[5.473,49.126],[5.469,49.111],[5.45,49.104],[5.436,49.078]]],[[[5.622,45.612],[5.733,45.473],[5.74,45.439],[5.793,45.438],[5.816,45.422],[5.897,45.4],[5.905,45.432],[5.92,45.444],[5.924,45.464],[5.915,45.477],[5.968,45.492],[6.009,45.473],[6.011,45.45],[6.049,45.438],[6.094,45.445],[6.096,45.432],[6.122,45.439],[6.176,45.395],[6.201,45.361],[6.185,45.318],[6.157,45.31],[6.131,45.286],[6.134,45.23],[6.163,45.191],[6.147,45.158],[6.157,45.15],[6.189,45.167],[6.221,45.143],[6.25,45.149],[6.267,45.139],[6.259,45.128],[6.296,45.108],[6.336,45.121],[6.363,45.103],[6.375,45.084],[6.365,45.07],[6.396,45.061],[6.436,45.063],[6.452,45.052],[6.487,45.056],[6.479,45.095],[6.511,45.109],[6.532,45.098],[6.562,45.105],[6.579,45.122],[6.617,45.121],[6.63,45.109],[6.671,45.124],[6.684,45.14],[6.709,45.145],[6.743,45.138],[6.771,45.159],[6.847,45.136],[6.85,45.127],[6.895,45.138],[6.885,45.156],[6.893,45.167],[6.936,45.171],[6.916,45.188],[6.913,45.201],[6.858,45.216],[6.874,45.226],[6.888,45.256],[6.913,45.264],[6.977,45.265],[7.005,45.237],[7.047,45.228],[7.071,45.21],[7.109,45.245],[7.124,45.244],[7.135,45.254],[7.134,45.284],[7.111,45.325],[7.135,45.331],[7.137,45.349],[7.16,45.36],[7.16,45.374],[7.178,45.389],[7.185,45.407],[7.114,45.433],[7.099,45.469],[7.047,45.474],[7.048,45.484],[7.058,45.488],[7.053,45.496],[7.001,45.504],[7.004,45.519],[6.991,45.535],[6.996,45.567],[6.979,45.587],[6.987,45.626],[7.002,45.639],[6.97,45.654],[6.933,45.646],[6.918,45.651],[6.916,45.661],[6.858,45.681],[6.808,45.727],[6.817,45.74],[6.808,45.745],[6.801,45.781],[6.813,45.796],[6.807,45.814],[6.82,45.837],[6.845,45.841],[6.87,45.826],[6.878,45.849],[6.914,45.841],[6.942,45.848],[6.952,45.86],[6.991,45.869],[7.02,45.915],[7.044,45.923],[7.035,45.956],[7.009,45.969],[7.024,45.98],[6.986,46.007],[6.934,46.058],[6.938,46.063],[6.923,46.065],[6.91,46.05],[6.891,46.043],[6.872,46.049],[6.891,46.076],[6.882,46.095],[6.897,46.123],[6.801,46.134],[6.792,46.159],[6.806,46.179],[6.803,46.204],[6.853,46.255],[6.863,46.284],[6.839,46.295],[6.77,46.352],[6.776,46.364],[6.806,46.378],[6.804,46.397],[6.818,46.427],[6.614,46.456],[6.547,46.457],[6.483,46.449],[6.398,46.408],[6.302,46.394],[6.269,46.375],[6.219,46.329],[6.22,46.312],[6.182,46.263],[6.174,46.243],[6.218,46.225],[6.222,46.216],[6.214,46.209],[6.201,46.208],[6.172,46.182],[6.166,46.188],[6.155,46.178],[6.154,46.186],[6.111,46.203],[6.088,46.194],[6.089,46.211],[6.065,46.193],[6.034,46.2],[6.028,46.194],[6.057,46.18],[6.039,46.164],[5.986,46.151],[5.973,46.132],[5.928,46.129],[5.894,46.119],[5.886,46.108],[5.891,46.088],[5.885,46.085],[5.858,46.086],[5.831,46.107],[5.82,46.103],[5.825,46.095],[5.812,46.079],[5.806,46.015],[5.809,45.989],[5.834,45.973],[5.826,45.938],[5.83,45.908],[5.8,45.832],[5.786,45.82],[5.786,45.799],[5.736,45.793],[5.708,45.757],[5.7,45.702],[5.709,45.689],[5.684,45.663],[5.688,45.643],[5.656,45.639],[5.633,45.612],[5.622,45.612]],[[6.246,46.256],[6.25,46.262],[6.266,46.249],[6.295,46.265],[6.298,46.255],[6.306,46.256],[6.31,46.244],[6.291,46.224],[6.247,46.227],[6.254,46.248],[6.246,46.256]]],[[[5.745,48.66],[5.76,48.632],[5.759,48.62],[5.846,48.646],[5.811,48.653],[5.817,48.678],[5.808,48.712],[5.786,48.714],[5.755,48.697],[5.745,48.66]]],[[[5.817,48.698],[5.855,48.688],[5.867,48.692],[5.863,48.699],[5.872,48.706],[5.857,48.7],[5.837,48.71],[5.817,48.698]]],[[[5.977,50.904],[5.994,50.901],[5.987,50.897],[6.013,50.885],[6.03,50.895],[6.02,50.906],[5.994,50.906],[5.977,50.904]]],[[[6.132,51.979],[6.155,51.954],[6.203,51.937],[6.204,51.944],[6.236,51.95],[6.241,51.943],[6.259,51.951],[6.214,51.982],[6.132,51.979]]],[[[6.161,47.897],[6.163,47.889],[6.204,47.889],[6.178,47.907],[6.161,47.897]]],[[[6.192,48.992],[6.2,48.971],[6.247,48.982],[6.24,49],[6.261,49.01],[6.215,49.009],[6.223,48.999],[6.192,48.992]]],[[[6.219,49.312],[6.228,49.299],[6.254,49.303],[6.237,49.315],[6.219,49.312]]],[[[6.269,49.469],[6.273,49.461],[6.305,49.467],[6.284,49.477],[6.269,49.469]]],[[[6.303,49.108],[6.306,49.095],[6.334,49.097],[6.34,49.092],[6.333,49.086],[6.344,49.079],[6.374,49.091],[6.389,49.089],[6.382,49.101],[6.388,49.113],[6.366,49.105],[6.353,49.121],[6.342,49.107],[6.323,49.111],[6.324,49.121],[6.303,49.108]]],[[[6.32,49.007],[6.334,48.994],[6.363,48.994],[6.357,49.009],[6.368,49.012],[6.354,49.018],[6.32,49.007]]],[[[6.445,48.982],[6.451,48.973],[6.484,48.965],[6.506,48.984],[6.46,48.99],[6.445,48.982]]],[[[6.589,47.675],[6.61,47.662],[6.626,47.626],[6.655,47.617],[6.669,47.596],[6.654,47.587],[6.664,47.578],[6.654,47.57],[6.669,47.556],[6.654,47.54],[6.686,47.515],[6.676,47.507],[6.678,47.486],[6.669,47.471],[6.693,47.462],[6.714,47.471],[6.728,47.481],[6.774,47.473],[6.779,47.482],[6.799,47.485],[6.838,47.482],[6.843,47.472],[6.884,47.467],[6.912,47.476],[6.908,47.489],[6.915,47.498],[6.931,47.499],[6.937,47.483],[6.953,47.48],[6.954,47.512],[6.912,47.525],[6.918,47.531],[6.91,47.546],[6.891,47.555],[6.835,47.544],[6.802,47.547],[6.787,47.533],[6.755,47.541],[6.732,47.56],[6.748,47.584],[6.721,47.607],[6.686,47.613],[6.68,47.626],[6.692,47.633],[6.686,47.661],[6.664,47.665],[6.628,47.687],[6.589,47.675]]],[[[6.615,47.473],[6.63,47.463],[6.647,47.466],[6.66,47.478],[6.639,47.491],[6.618,47.484],[6.615,47.473]]],[[[6.638,48.499],[6.645,48.492],[6.642,48.484],[6.671,48.488],[6.676,48.478],[6.667,48.471],[6.641,48.472],[6.64,48.452],[6.652,48.428],[6.676,48.427],[6.683,48.416],[6.716,48.422],[6.727,48.415],[6.745,48.422],[6.732,48.444],[6.715,48.442],[6.712,48.451],[6.724,48.471],[6.751,48.466],[6.738,48.485],[6.72,48.492],[6.72,48.5],[6.76,48.519],[6.75,48.524],[6.762,48.527],[6.74,48.538],[6.724,48.561],[6.688,48.552],[6.688,48.543],[6.703,48.544],[6.715,48.535],[6.711,48.525],[6.691,48.523],[6.689,48.514],[6.673,48.518],[6.67,48.53],[6.652,48.538],[6.645,48.525],[6.653,48.516],[6.645,48.512],[6.649,48.502],[6.638,48.499]]],[[[6.787,47.419],[6.793,47.41],[6.812,47.417],[6.833,47.439],[6.83,47.453],[6.794,47.454],[6.787,47.419]]],[[[6.842,47.172],[6.857,47.166],[6.872,47.174],[6.884,47.15],[6.935,47.171],[6.95,47.187],[6.98,47.174],[6.997,47.193],[7.024,47.196],[7.06,47.242],[7.079,47.245],[7.094,47.237],[7.151,47.246],[7.14,47.218],[7.208,47.201],[7.22,47.209],[7.341,47.217],[7.422,47.242],[7.416,47.253],[7.471,47.266],[7.486,47.284],[7.532,47.295],[7.572,47.326],[7.524,47.371],[7.46,47.37],[7.437,47.379],[7.444,47.401],[7.478,47.402],[7.48,47.388],[7.519,47.388],[7.53,47.414],[7.572,47.417],[7.575,47.438],[7.582,47.429],[7.614,47.436],[7.627,47.463],[7.605,47.47],[7.614,47.521],[7.594,47.519],[7.581,47.544],[7.556,47.544],[7.565,47.557],[7.555,47.564],[7.5,47.54],[7.501,47.529],[7.53,47.53],[7.523,47.519],[7.536,47.514],[7.53,47.462],[7.456,47.449],[7.443,47.461],[7.422,47.451],[7.421,47.446],[7.438,47.446],[7.456,47.428],[7.449,47.415],[7.376,47.414],[7.376,47.433],[7.333,47.441],[7.282,47.435],[7.249,47.421],[7.231,47.439],[7.2,47.435],[7.17,47.443],[7.187,47.483],[7.203,47.491],[7.162,47.49],[7.13,47.503],[7.075,47.488],[7.037,47.498],[7.011,47.484],[7.003,47.453],[6.94,47.433],[6.938,47.406],[6.913,47.405],[6.91,47.385],[6.884,47.373],[6.883,47.352],[6.996,47.364],[7.014,47.372],[7.046,47.363],[7.062,47.344],[7.046,47.326],[6.967,47.325],[6.971,47.318],[7.015,47.317],[7.01,47.297],[7.003,47.289],[6.956,47.292],[6.928,47.281],[6.924,47.275],[6.935,47.27],[6.93,47.258],[6.955,47.243],[6.88,47.2],[6.874,47.185],[6.842,47.172]]],[[[6.999,48.688],[7.053,48.639],[7.07,48.639],[7.063,48.655],[7.078,48.661],[7.103,48.66],[7.125,48.645],[7.136,48.649],[7.132,48.663],[7.144,48.663],[7.138,48.678],[7.185,48.686],[7.219,48.703],[7.224,48.713],[7.21,48.724],[7.187,48.723],[7.174,48.732],[7.122,48.721],[7.153,48.703],[7.152,48.696],[7.133,48.69],[7.082,48.697],[7.073,48.71],[7.081,48.715],[7.042,48.706],[7.076,48.683],[7.061,48.67],[7.016,48.696],[6.999,48.688]]],[[[7.17,48.018],[7.178,48.012],[7.215,48.024],[7.214,48.034],[7.234,48.027],[7.233,48.033],[7.208,48.045],[7.17,48.018]]],[[[7.334,48.325],[7.358,48.307],[7.374,48.322],[7.356,48.334],[7.334,48.325]]],[[[8.661,47.692],[8.669,47.685],[8.689,47.695],[8.718,47.694],[8.703,47.715],[8.666,47.713],[8.675,47.701],[8.661,47.692]]],[[[9.747,44.257],[9.764,44.229],[9.754,44.22],[9.763,44.206],[9.802,44.206],[9.807,44.219],[9.821,44.225],[9.801,44.238],[9.779,44.241],[9.773,44.25],[9.807,44.282],[9.785,44.296],[9.747,44.257]]],[[[9.81,44.284],[9.852,44.269],[9.863,44.276],[9.855,44.268],[9.862,44.251],[9.858,44.232],[9.873,44.226],[9.857,44.194],[9.865,44.181],[9.88,44.201],[9.909,44.21],[9.915,44.199],[9.951,44.19],[9.979,44.16],[9.975,44.138],[9.994,44.11],[9.983,44.1],[9.993,44.093],[10.017,44.118],[10.043,44.115],[10.078,44.129],[10.095,44.125],[10.082,44.137],[10.076,44.162],[10.098,44.153],[10.113,44.165],[10.115,44.184],[10.127,44.195],[10.112,44.201],[10.084,44.19],[10.08,44.167],[10.065,44.17],[10.05,44.157],[10.047,44.169],[10.034,44.173],[10.032,44.205],[10.038,44.218],[10.061,44.225],[10.057,44.254],[10.085,44.257],[10.087,44.269],[10.1,44.272],[10.086,44.271],[10.076,44.297],[10.122,44.34],[10.08,44.357],[10.063,44.324],[10.052,44.319],[10.054,44.299],[9.971,44.241],[9.995,44.235],[9.992,44.225],[9.963,44.22],[9.954,44.23],[9.918,44.215],[9.913,44.233],[9.92,44.238],[9.934,44.242],[9.954,44.233],[9.946,44.26],[9.921,44.273],[9.923,44.281],[9.951,44.279],[9.953,44.258],[9.98,44.271],[9.976,44.289],[9.984,44.305],[9.977,44.312],[9.991,44.317],[9.968,44.348],[9.95,44.34],[9.946,44.315],[9.939,44.313],[9.942,44.302],[9.904,44.287],[9.881,44.294],[9.871,44.284],[9.869,44.294],[9.926,44.322],[9.907,44.338],[9.875,44.338],[9.829,44.321],[9.814,44.305],[9.81,44.284]]],[[[9.981,44.358],[9.986,44.342],[10.032,44.321],[10.056,44.351],[10.073,44.36],[10.017,44.387],[9.99,44.373],[9.981,44.358]]],[[[10.195,46.77],[10.217,46.754],[10.21,46.719],[10.223,46.708],[10.217,46.695],[10.264,46.685],[10.277,46.691],[10.255,46.709],[10.267,46.732],[10.277,46.736],[10.282,46.767],[10.293,46.769],[10.296,46.789],[10.195,46.77]]],[[[10.45,45.384],[10.464,45.371],[10.471,45.333],[10.504,45.305],[10.539,45.312],[10.58,45.364],[10.58,45.381],[10.559,45.39],[10.548,45.386],[10.512,45.412],[10.454,45.416],[10.467,45.406],[10.45,45.384]]],[[[12.937,45.975],[12.957,45.963],[12.981,45.966],[12.998,45.984],[12.956,45.971],[12.937,45.975]]],[[[12.947,45.909],[12.958,45.894],[12.969,45.894],[12.965,45.888],[12.975,45.889],[12.974,45.9],[12.958,45.912],[12.947,45.909]]],[[[13.024,45.793],[13.041,45.744],[13.058,45.731],[13.048,45.719],[13.052,45.713],[13.083,45.715],[13.089,45.722],[13.075,45.751],[13.081,45.758],[13.059,45.758],[13.077,45.771],[13.086,45.794],[13.07,45.801],[13.024,45.793]]],[[[13.024,45.84],[13.038,45.833],[13.048,45.846],[13.036,45.856],[13.024,45.84]]],[[[13.035,45.827],[13.054,45.83],[13.064,45.822],[13.062,45.813],[13.073,45.818],[13.083,45.81],[13.086,45.826],[13.064,45.831],[13.082,45.848],[13.071,45.858],[13.051,45.844],[13.056,45.837],[13.035,45.827]]],[[[13.038,45.89],[13.055,45.877],[13.079,45.872],[13.085,45.904],[13.075,45.91],[13.071,45.899],[13.039,45.899],[13.038,45.89]]],[[[13.059,45.907],[13.083,45.946],[13.074,45.946],[13.059,45.907]]],[[[13.132,45.794],[13.133,45.772],[13.182,45.765],[13.181,45.771],[13.192,45.774],[13.2,45.766],[13.219,45.773],[13.224,45.757],[13.245,45.753],[13.245,45.793],[13.256,45.805],[13.242,45.83],[13.291,45.808],[13.288,45.833],[13.273,45.853],[13.274,45.888],[13.294,45.89],[13.288,45.909],[13.258,45.904],[13.238,45.919],[13.23,45.915],[13.222,45.897],[13.204,45.886],[13.201,45.873],[13.213,45.869],[13.195,45.857],[13.195,45.841],[13.18,45.843],[13.175,45.831],[13.16,45.826],[13.161,45.804],[13.132,45.794]]],[[[13.472,46.02],[13.498,46.034],[13.479,46.036],[13.472,46.02]]],[[[15.355,45.486],[15.36,45.477],[15.386,45.487],[15.355,45.486]]]]}}],"metadata":{"source":"OpenHistoricalMap","sourceUrl":"https://www.openhistoricalmap.org/","license":"CC0-1.0","year":1715,"relationId":2815489,"startDate":"1713-04-02","endDate":"1742-07-28","partCount":71,"missingWays":[],"unclosedRings":0,"droppedInnerRings":0,"borderPrecision":"史料に基づく復元（概略。測量された境界ではない）"}}