{"type":"FeatureCollection","features":[{"type":"Feature","properties":{"NAME":"Holy Roman Empire","SUBJECTO":"Holy Roman Empire","PARTOF":"Holy Roman Empire","ADMIN_LEVEL":2,"OHM_RELATION_ID":2892299,"START_DATE":"1167","END_DATE":"1201","EXTENT_ONLY":true},"geometry":{"type":"MultiPolygon","coordinates":[[[[7.956,54.134],[7.992,54.156],[8.006,54.182],[8.001,54.209],[7.971,54.232],[7.931,54.241],[7.842,54.24],[7.8,54.224],[7.781,54.203],[7.787,54.169],[7.841,54.127],[7.896,54.118],[7.956,54.134]]],[[[8.531,54.221],[8.525,54.221],[8.523,54.193],[8.535,54.169],[8.523,54.153],[8.521,54.125],[8.506,54.097],[8.517,54.012],[8.363,54.029],[8.299,54.013],[8.263,53.978],[8.261,53.943],[8.281,53.913],[8.253,53.902],[8.225,53.878],[8.218,53.858],[8.226,53.83],[8.083,53.815],[8.024,53.831],[7.866,53.846],[7.811,53.836],[7.683,53.835],[7.618,53.815],[7.494,53.81],[7.412,53.789],[7.327,53.78],[7.181,53.776],[7.124,53.765],[7.066,53.742],[6.814,53.716],[6.75,53.688],[6.73,53.67],[6.605,53.65],[6.567,53.627],[6.547,53.601],[6.475,53.607],[6.422,53.593],[6.382,53.567],[6.15,53.554],[6.076,53.531],[5.984,53.519],[5.89,53.524],[5.751,53.517],[5.643,53.525],[5.561,53.494],[5.462,53.496],[5.189,53.454],[5.092,53.416],[5.07,53.4],[5.044,53.362],[4.941,53.332],[4.784,53.255],[4.768,53.237],[4.759,53.207],[4.686,53.14],[4.647,53.089],[4.625,53.026],[4.636,52.977],[4.626,52.954],[4.623,52.9],[4.552,52.747],[4.537,52.618],[4.502,52.514],[4.421,52.355],[4.345,52.261],[4.256,52.178],[4.123,52.092],[4.033,52.017],[4.015,51.994],[4.008,51.964],[3.971,51.935],[3.945,51.898],[3.823,51.863],[3.779,51.831],[3.769,51.798],[3.666,51.778],[3.612,51.746],[3.597,51.727],[3.591,51.702],[3.597,51.676],[3.616,51.648],[3.549,51.647],[3.504,51.634],[3.379,51.581],[3.343,51.543],[3.34,51.522],[3.351,51.502],[3.43,51.447],[3.67,51.417],[3.838,51.361],[3.924,51.379],[3.962,51.422],[4.024,51.42],[4.107,51.379],[4.209,51.389],[4.224,51.362],[4.268,51.336],[4.278,51.304],[4.319,51.285],[4.303,51.258],[4.399,51.236],[4.386,51.211],[4.355,51.193],[4.35,51.172],[4.322,51.131],[4.257,51.114],[4.216,51.12],[4.182,51.1],[4.177,51.086],[4.197,51.057],[4.193,51.035],[4.173,51.031],[4.14,51.058],[4.11,51.034],[4.067,51.049],[4.009,51.006],[3.92,51.017],[3.816,50.991],[3.769,51.049],[3.738,51.047],[3.722,51],[3.687,50.958],[3.65,50.955],[3.659,50.92],[3.688,50.908],[3.678,50.89],[3.631,50.881],[3.624,50.854],[3.576,50.822],[3.555,50.819],[3.433,50.75],[3.37,50.725],[3.345,50.696],[3.355,50.671],[3.346,50.657],[3.354,50.641],[3.393,50.625],[3.423,50.655],[3.478,50.617],[3.43,50.589],[3.442,50.583],[3.445,50.565],[3.434,50.556],[3.475,50.558],[3.473,50.497],[3.59,50.438],[3.521,50.372],[3.497,50.329],[3.47,50.314],[3.404,50.323],[3.341,50.302],[3.335,50.28],[3.309,50.266],[3.309,50.236],[3.227,50.196],[3.131,50.181],[3.091,50.121],[3.103,50.082],[3.136,50.058],[3.261,50.052],[3.362,50.028],[3.468,50.051],[3.531,50.039],[3.656,50.047],[3.798,50],[4.139,49.972],[4.234,49.986],[4.278,49.949],[4.34,49.963],[4.434,49.94],[4.47,49.914],[4.517,49.903],[4.653,49.941],[4.665,49.978],[4.702,49.985],[4.745,50.018],[4.782,50.01],[4.85,50.039],[4.874,50.015],[4.822,49.981],[4.83,49.91],[4.797,49.866],[4.8,49.808],[4.849,49.775],[4.883,49.708],[4.925,49.673],[4.94,49.63],[4.959,49.605],[4.986,49.6],[5.032,49.657],[5.104,49.671],[5.155,49.612],[5.173,49.573],[5.146,49.521],[5.129,49.463],[5.167,49.442],[5.21,49.435],[5.214,49.409],[5.113,49.385],[5.118,49.343],[5.229,49.338],[5.232,49.309],[5.207,49.288],[5.085,49.275],[5.021,49.293],[4.889,49.288],[4.836,49.266],[4.867,49.245],[4.837,49.214],[4.847,49.196],[4.944,49.186],[5.004,49.114],[5.064,49.073],[5.143,49.064],[5.141,49.017],[5.109,48.953],[5.049,48.941],[4.945,48.941],[4.966,48.8],[5.032,48.758],[5.033,48.573],[5.089,48.619],[5.131,48.619],[5.166,48.601],[5.227,48.6],[5.231,48.561],[5.258,48.561],[5.282,48.591],[5.345,48.594],[5.38,48.62],[5.438,48.685],[5.463,48.693],[5.486,48.686],[5.491,48.664],[5.405,48.6],[5.378,48.532],[5.424,48.5],[5.43,48.442],[5.499,48.44],[5.501,48.493],[5.532,48.506],[5.551,48.497],[5.582,48.517],[5.554,48.538],[5.593,48.563],[5.599,48.587],[5.546,48.583],[5.558,48.614],[5.579,48.638],[5.688,48.65],[5.702,48.671],[5.73,48.681],[5.73,48.703],[5.78,48.695],[5.778,48.601],[5.731,48.59],[5.732,48.574],[5.775,48.571],[5.786,48.56],[5.778,48.543],[5.729,48.538],[5.742,48.52],[5.624,48.51],[5.617,48.495],[5.655,48.48],[5.695,48.477],[5.686,48.447],[5.693,48.437],[5.689,48.414],[5.701,48.36],[5.663,48.339],[5.602,48.394],[5.553,48.398],[5.488,48.373],[5.491,48.332],[5.464,48.209],[5.466,48.166],[5.492,48.119],[5.534,48.109],[5.642,48.102],[5.694,48.069],[5.722,48.023],[5.719,47.973],[5.661,47.916],[5.661,47.898],[5.723,47.908],[5.745,47.903],[5.747,47.893],[5.677,47.842],[5.665,47.733],[5.612,47.692],[5.538,47.679],[5.422,47.676],[5.386,47.655],[5.374,47.614],[5.391,47.603],[5.409,47.602],[5.454,47.631],[5.479,47.614],[5.477,47.569],[5.455,47.538],[5.391,47.511],[5.392,47.478],[5.5,47.404],[5.49,47.369],[5.497,47.337],[5.487,47.326],[5.48,47.332],[5.473,47.325],[5.498,47.311],[5.505,47.29],[5.482,47.244],[5.481,47.223],[5.449,47.201],[5.467,47.168],[5.438,47.154],[5.441,47.146],[5.422,47.136],[5.381,47.079],[5.359,47.08],[5.32,47.061],[5.298,47.039],[5.301,47.006],[5.288,47.004],[5.258,46.978],[5.27,46.959],[5.264,46.93],[5.312,46.929],[5.315,46.91],[5.352,46.889],[5.403,46.892],[5.378,46.927],[5.358,46.926],[5.356,46.934],[5.378,46.956],[5.363,46.981],[5.394,46.995],[5.443,46.996],[5.455,46.984],[5.434,46.975],[5.428,46.95],[5.433,46.944],[5.459,46.947],[5.468,46.93],[5.49,46.924],[5.478,46.917],[5.457,46.93],[5.441,46.914],[5.45,46.904],[5.444,46.898],[5.42,46.899],[5.41,46.885],[5.416,46.862],[5.445,46.846],[5.451,46.838],[5.447,46.831],[5.417,46.821],[5.34,46.826],[5.327,46.813],[5.344,46.807],[5.348,46.791],[5.367,46.788],[5.376,46.778],[5.382,46.764],[5.375,46.748],[5.393,46.724],[5.394,46.706],[5.421,46.656],[5.416,46.65],[5.434,46.642],[5.431,46.622],[5.409,46.614],[5.406,46.579],[5.363,46.579],[5.368,46.57],[5.359,46.563],[5.368,46.552],[5.361,46.53],[5.423,46.501],[5.4,46.467],[5.379,46.475],[5.35,46.457],[5.328,46.461],[5.315,46.453],[5.264,46.449],[5.223,46.465],[5.2,46.5],[5.111,46.497],[4.937,46.509],[4.918,46.489],[4.901,46.426],[4.878,46.399],[4.879,46.364],[4.853,46.318],[4.822,46.292],[4.816,46.25],[4.778,46.178],[4.802,46.154],[4.752,46.096],[4.765,46.065],[4.742,46.046],[4.759,46.004],[4.739,45.982],[4.748,45.965],[4.743,45.95],[4.665,45.971],[4.532,45.968],[4.469,45.979],[4.41,45.92],[4.396,45.875],[4.425,45.831],[4.422,45.727],[4.439,45.699],[4.474,45.675],[4.494,45.64],[4.551,45.646],[4.565,45.609],[4.501,45.547],[4.45,45.483],[4.459,45.46],[4.537,45.456],[4.569,45.442],[4.621,45.456],[4.666,45.428],[4.74,45.417],[4.761,45.393],[4.757,45.367],[4.693,45.348],[4.65,45.286],[4.605,45.26],[4.489,45.231],[4.471,45.209],[4.463,45.159],[4.404,45.094],[4.353,45.01],[4.307,44.971],[4.237,44.933],[4.154,44.918],[4.068,44.915],[4.036,44.944],[3.928,44.91],[3.865,44.857],[3.795,44.775],[3.807,44.762],[3.829,44.775],[3.846,44.77],[3.831,44.755],[3.832,44.742],[3.864,44.736],[3.871,44.698],[3.893,44.65],[3.894,44.615],[3.912,44.608],[3.904,44.589],[3.998,44.459],[4.192,44.402],[4.374,44.409],[4.537,44.315],[4.586,44.315],[4.626,44.271],[4.649,44.3],[4.667,44.297],[4.678,44.277],[4.666,44.265],[4.676,44.255],[4.675,44.242],[4.705,44.228],[4.721,44.203],[4.714,44.197],[4.734,44.159],[4.732,44.14],[4.716,44.121],[4.719,44.111],[4.734,44.098],[4.762,44.098],[4.761,44.087],[4.781,44.062],[4.794,44.069],[4.804,44.046],[4.841,44.032],[4.871,43.976],[4.848,43.955],[4.751,43.935],[4.743,43.918],[4.701,43.894],[4.691,43.878],[4.648,43.847],[4.642,43.78],[4.616,43.747],[4.613,43.716],[4.552,43.688],[4.506,43.686],[4.476,43.646],[4.436,43.631],[4.431,43.615],[4.469,43.614],[4.475,43.608],[4.452,43.577],[4.419,43.563],[4.41,43.537],[4.332,43.523],[4.255,43.495],[4.255,43.481],[4.23,43.461],[4.227,43.424],[4.394,43.409],[4.514,43.415],[4.503,43.402],[4.499,43.377],[4.524,43.345],[4.582,43.321],[4.651,43.308],[4.76,43.311],[4.817,43.292],[4.849,43.291],[4.894,43.302],[4.955,43.352],[4.983,43.314],[5.037,43.287],[5.241,43.291],[5.233,43.258],[5.252,43.234],[5.278,43.224],[5.283,43.192],[5.32,43.172],[5.343,43.145],[5.371,43.136],[5.415,43.136],[5.449,43.163],[5.471,43.165],[5.518,43.16],[5.546,43.139],[5.589,43.123],[5.616,43.119],[5.648,43.125],[5.665,43.111],[5.723,43.093],[5.726,43.066],[5.741,43.042],[5.822,43.011],[5.874,43.011],[5.905,43.028],[5.961,43.029],[5.991,43.046],[6.04,43.04],[6.044,43.019],[6.066,42.996],[6.106,42.989],[6.124,42.971],[6.189,42.944],[6.224,42.945],[6.284,42.969],[6.306,42.998],[6.344,42.964],[6.406,42.956],[6.502,42.985],[6.553,43.022],[6.564,43.044],[6.554,43.072],[6.53,43.088],[6.494,43.091],[6.423,43.075],[6.422,43.102],[6.508,43.113],[6.574,43.138],[6.606,43.122],[6.645,43.125],[6.684,43.14],[6.729,43.182],[6.734,43.205],[6.724,43.222],[6.741,43.239],[6.75,43.273],[6.724,43.308],[6.762,43.327],[6.778,43.369],[6.885,43.38],[6.956,43.42],[7.001,43.478],[7.056,43.466],[7.105,43.487],[7.12,43.503],[7.178,43.519],[7.192,43.533],[7.198,43.555],[7.181,43.606],[7.243,43.616],[7.277,43.647],[7.316,43.637],[7.357,43.641],[7.387,43.659],[7.402,43.679],[7.454,43.696],[7.473,43.712],[7.516,43.717],[7.54,43.743],[7.591,43.751],[7.691,43.74],[7.722,43.757],[7.753,43.758],[7.79,43.776],[7.842,43.778],[7.886,43.797],[7.968,43.811],[8.103,43.86],[8.129,43.886],[8.216,43.931],[8.227,43.953],[8.216,43.981],[8.267,44.02],[8.279,44.039],[8.282,44.079],[8.323,44.12],[8.435,44.149],[8.465,44.17],[8.477,44.188],[8.476,44.208],[8.502,44.239],[8.514,44.271],[8.551,44.298],[8.669,44.351],[8.704,44.359],[8.734,44.379],[8.801,44.38],[9.094,44.331],[9.093,44.314],[9.114,44.291],[9.205,44.262],[9.253,44.27],[9.27,44.29],[9.331,44.266],[9.344,44.243],[9.37,44.223],[9.463,44.196],[9.517,44.171],[9.597,44.108],[9.631,44.096],[9.657,44.1],[9.709,44.06],[9.785,44.028],[9.825,43.998],[9.861,43.997],[9.878,44.003],[9.898,44.024],[9.908,44.023],[9.943,44.002],[10.001,44.002],[10.046,43.989],[10.106,43.948],[10.181,43.87],[10.21,43.796],[10.226,43.701],[10.216,43.678],[10.232,43.638],[10.243,43.577],[10.238,43.553],[10.252,43.515],[10.267,43.499],[10.283,43.456],[10.337,43.422],[10.363,43.377],[10.389,43.359],[10.411,43.307],[10.457,43.269],[10.473,43.234],[10.486,43.161],[10.481,43.068],[10.473,43.039],[10.437,43.008],[10.43,42.991],[10.435,42.945],[10.451,42.912],[10.496,42.888],[10.529,42.881],[10.574,42.889],[10.599,42.913],[10.62,42.915],[10.678,42.908],[10.723,42.89],[10.716,42.869],[10.719,42.846],[10.687,42.826],[10.679,42.809],[10.686,42.781],[10.754,42.743],[10.874,42.722],[10.924,42.703],[10.94,42.688],[10.973,42.633],[11.03,42.607],[11.094,42.526],[11.136,42.513],[11.136,42.482],[11.082,42.483],[11.039,42.446],[11.036,42.395],[11.061,42.365],[11.094,42.352],[11.117,42.332],[11.15,42.322],[11.21,42.328],[11.261,42.371],[11.356,42.36],[11.495,42.319],[11.594,42.268],[11.652,42.212],[11.696,42.124],[11.797,42.002],[11.833,41.99],[11.905,41.996],[11.95,41.964],[11.991,41.952],[12.012,41.929],[12.099,41.891],[12.155,41.814],[12.18,41.72],[12.32,41.665],[12.395,41.616],[12.496,41.525],[12.569,41.433],[12.599,41.409],[12.625,41.405],[12.674,41.413],[12.732,41.379],[12.755,41.372],[12.838,41.374],[12.899,41.343],[12.952,41.294],[12.979,41.25],[12.984,41.228],[13.017,41.193],[13.054,41.183],[13.099,41.185],[13.126,41.194],[13.18,41.234],[13.225,41.245],[13.261,41.243],[13.294,41.296],[13.31,41.306],[13.304,41.329],[13.265,41.357],[13.278,41.398],[13.381,41.404],[13.423,41.376],[13.486,41.391],[13.479,41.44],[13.449,41.463],[13.477,41.489],[13.581,41.491],[13.523,41.564],[13.551,41.634],[13.545,41.672],[13.528,41.707],[13.522,41.738],[13.497,41.767],[13.549,41.792],[13.597,41.799],[13.645,41.788],[13.682,41.805],[13.736,41.858],[13.773,41.865],[13.818,41.863],[13.854,41.851],[13.887,41.821],[13.887,41.732],[13.923,41.736],[13.959,41.729],[14.005,41.712],[14.051,41.671],[14.119,41.672],[14.189,41.754],[14.238,41.781],[14.308,41.806],[14.545,41.836],[14.592,41.82],[14.605,41.84],[14.604,41.864],[14.641,41.899],[14.686,41.9],[14.76,41.883],[14.824,41.885],[14.815,41.92],[14.766,41.967],[14.773,41.997],[14.86,42.077],[14.776,42.116],[14.77,42.176],[14.755,42.2],[14.728,42.216],[14.647,42.234],[14.555,42.276],[14.539,42.301],[14.477,42.343],[14.472,42.368],[14.46,42.38],[14.332,42.448],[14.264,42.5],[14.226,42.52],[14.122,42.62],[14.051,42.715],[13.995,42.815],[13.974,42.896],[13.924,42.998],[13.896,43.107],[13.868,43.158],[13.865,43.178],[13.782,43.327],[13.76,43.35],[13.714,43.451],[13.678,43.508],[13.68,43.552],[13.672,43.569],[13.616,43.6],[13.569,43.647],[13.541,43.66],[13.499,43.67],[13.457,43.651],[13.319,43.71],[13.168,43.803],[13.061,43.88],[13.022,43.894],[12.941,43.954],[12.81,44.003],[12.741,44.008],[12.722,44.017],[12.606,44.11],[12.559,44.128],[12.432,44.242],[12.408,44.283],[12.367,44.415],[12.341,44.47],[12.333,44.515],[12.335,44.604],[12.293,44.699],[12.304,44.76],[12.393,44.746],[12.446,44.77],[12.4,44.792],[12.297,44.954],[12.262,44.962],[12.236,45.009],[12.167,45.026],[12.145,45.017],[12.15,45.101],[12.159,45.125],[12.153,45.237],[12.173,45.317],[12.168,45.457],[12.266,45.556],[12.355,45.585],[12.439,45.589],[12.767,45.649],[12.781,45.631],[12.826,45.624],[12.892,45.559],[12.968,45.585],[13.122,45.603],[13.146,45.62],[13.154,45.64],[13.207,45.675],[13.28,45.672],[13.369,45.64],[13.44,45.64],[13.545,45.686],[13.581,45.693],[13.602,45.711],[13.608,45.729],[13.649,45.703],[13.671,45.679],[13.702,45.665],[13.691,45.637],[13.655,45.606],[13.651,45.582],[13.539,45.564],[13.513,45.542],[13.48,45.537],[13.44,45.502],[13.437,45.483],[13.459,45.455],[13.465,45.405],[13.479,45.388],[13.487,45.361],[13.488,45.318],[13.524,45.278],[13.52,45.263],[13.532,45.235],[13.527,45.195],[13.532,45.167],[13.544,45.126],[13.573,45.082],[13.567,45.038],[13.59,45.015],[13.633,45.009],[13.666,44.99],[13.69,44.966],[13.678,44.945],[13.672,44.91],[13.681,44.89],[13.708,44.865],[13.748,44.85],[13.802,44.797],[13.852,44.77],[13.861,44.749],[13.874,44.739],[13.925,44.729],[13.969,44.735],[14,44.761],[14.042,44.778],[14.056,44.799],[14.042,44.835],[14.053,44.87],[14.09,44.909],[14.119,44.924],[14.17,44.923],[14.217,44.963],[14.224,44.995],[14.214,45.054],[14.238,45.078],[14.247,45.127],[14.278,45.187],[14.302,45.209],[14.329,45.284],[14.346,45.307],[14.328,45.351],[14.352,45.356],[14.414,45.509],[14.468,45.533],[14.496,45.608],[14.521,45.647],[14.656,45.605],[14.661,45.56],[14.702,45.553],[14.763,45.511],[14.749,45.453],[14.798,45.451],[14.868,45.485],[14.915,45.525],[14.941,45.532],[15.011,45.488],[15.104,45.482],[15.171,45.417],[15.269,45.468],[15.343,45.463],[15.388,45.498],[15.296,45.535],[15.282,45.612],[15.309,45.625],[15.397,45.632],[15.406,45.663],[15.393,45.703],[15.297,45.708],[15.289,45.751],[15.315,45.765],[15.383,45.762],[15.454,45.828],[15.557,45.852],[15.62,45.846],[15.729,45.915],[15.799,45.975],[15.828,46.067],[15.822,46.243],[15.907,46.323],[16.022,46.416],[16.019,46.563],[16.047,46.644],[15.959,46.783],[15.927,46.87],[15.934,46.971],[15.982,47.096],[15.959,47.213],[15.974,47.328],[16.041,47.393],[16.068,47.44],[16.084,47.517],[16.142,47.548],[16.232,47.559],[16.348,47.669],[16.304,47.739],[16.295,47.809],[16.507,47.884],[16.578,47.889],[16.701,48.011],[16.799,48.008],[16.888,48.075],[16.952,48.047],[17.027,48.103],[17.012,48.15],[16.976,48.172],[16.911,48.313],[16.844,48.359],[16.857,48.468],[16.941,48.539],[16.947,48.618],[16.981,48.683],[17.043,48.762],[17.087,48.782],[17.118,48.829],[17.206,48.876],[17.381,48.81],[17.464,48.84],[17.501,48.81],[17.711,48.861],[17.792,48.928],[17.886,48.93],[17.931,49.023],[18.081,49.042],[18.134,49.236],[18.188,49.287],[18.381,49.326],[18.413,49.371],[18.406,49.398],[18.439,49.395],[18.546,49.469],[18.462,49.455],[18.366,49.566],[18.36,49.666],[18.318,49.689],[18.283,49.788],[18.276,49.863],[18.321,49.894],[18.345,49.943],[18.266,49.991],[18.176,49.994],[18.122,50.031],[18.082,50.121],[18.041,50.16],[18,50.245],[17.939,50.264],[17.732,50.173],[17.666,50.183],[17.582,50.209],[17.483,50.194],[17.409,50.239],[17.354,50.253],[17.205,50.221],[17.018,50.247],[17.005,50.254],[17.022,50.283],[16.969,50.315],[16.944,50.315],[16.91,50.39],[16.871,50.409],[16.826,50.396],[16.483,50.679],[16.383,50.638],[16.339,50.665],[16.232,50.671],[16.216,50.635],[16.181,50.629],[16.1,50.663],[16.026,50.598],[15.988,50.613],[16.012,50.632],[15.983,50.696],[15.873,50.671],[15.818,50.754],[15.716,50.737],[15.438,50.813],[15.387,50.775],[15.359,50.855],[15.279,50.896],[15.347,50.921],[15.391,50.975],[15.384,50.989],[15.409,51.009],[15.411,51.024],[15.395,51.024],[15.388,51.031],[15.374,51.02],[15.348,51.018],[15.336,51.019],[15.331,51.033],[15.291,51.035],[15.287,51.028],[15.267,51.025],[15.259,51.032],[15.26,51.043],[15.275,51.05],[15.301,51.089],[15.296,51.127],[15.318,51.16],[15.39,51.192],[15.407,51.25],[15.434,51.296],[15.421,51.31],[15.431,51.335],[15.419,51.361],[15.43,51.373],[15.428,51.385],[15.413,51.393],[15.389,51.463],[15.37,51.48],[15.368,51.491],[15.379,51.517],[15.373,51.531],[15.395,51.551],[15.39,51.571],[15.395,51.575],[15.371,51.58],[15.332,51.609],[15.317,51.607],[15.235,51.807],[15.103,51.958],[15.106,51.985],[15.123,51.994],[15.11,51.998],[15.082,51.984],[15.059,51.991],[15.05,52.002],[15.081,52.045],[15.048,52.065],[15.022,52.069],[14.979,52.051],[14.963,52.055],[14.942,52.046],[14.912,52.046],[14.843,52.077],[14.789,52.071],[14.775,52.081],[14.756,52.07],[14.731,52.091],[14.701,52.098],[14.682,52.114],[14.68,52.145],[14.705,52.169],[14.686,52.192],[14.708,52.211],[14.716,52.234],[14.688,52.257],[14.597,52.273],[14.579,52.287],[14.582,52.249],[14.553,52.24],[14.527,52.236],[14.417,52.252],[14.282,52.296],[14.208,52.305],[14.144,52.347],[13.999,52.367],[13.998,52.373],[13.934,52.393],[13.922,52.39],[13.915,52.4],[13.892,52.39],[13.885,52.401],[13.901,52.428],[13.927,52.442],[13.674,52.459],[13.462,52.443],[13.384,52.361],[13.288,52.337],[13.107,52.356],[13.026,52.333],[12.921,52.251],[12.733,52.229],[12.685,52.272],[12.618,52.272],[12.509,52.25],[12.515,52.219],[12.568,52.203],[12.549,52.169],[12.415,52.162],[12.155,52.085],[11.856,52.025],[11.841,52.008],[11.715,52.043],[11.645,52.123],[11.675,52.156],[11.717,52.263],[11.78,52.332],[11.862,52.351],[11.941,52.396],[12.001,52.446],[11.996,52.49],[11.972,52.535],[12,52.569],[12.029,52.625],[12.053,52.748],[12.014,52.865],[11.922,52.897],[11.88,52.896],[11.868,52.933],[11.841,52.96],[11.654,52.996],[11.6,53.038],[11.511,53.048],[11.448,53.079],[11.34,53.054],[11.243,53.138],[11.211,53.144],[11.184,53.136],[11.176,53.153],[11.149,53.168],[11.131,53.167],[11.092,53.138],[10.997,53.175],[10.893,53.241],[10.806,53.259],[10.729,53.304],[10.743,53.329],[10.73,53.352],[10.7,53.369],[10.595,53.364],[10.622,53.382],[10.649,53.447],[10.691,53.503],[10.687,53.55],[10.61,53.572],[10.569,53.611],[10.546,53.693],[10.552,53.78],[10.471,53.888],[10.489,53.964],[10.474,54.038],[10.37,54.086],[10.376,54.113],[10.327,54.117],[10.316,54.158],[10.403,54.168],[10.397,54.234],[10.316,54.248],[10.261,54.325],[10.217,54.355],[10.173,54.291],[10.138,54.282],[10.088,54.205],[10.032,54.214],[10.057,54.287],[10.035,54.313],[9.963,54.307],[9.921,54.322],[9.923,54.37],[9.792,54.363],[9.711,54.317],[9.651,54.301],[9.597,54.221],[9.547,54.195],[9.441,54.174],[9.444,54.251],[9.376,54.29],[9.288,54.27],[9.257,54.33],[9.135,54.322],[9.092,54.365],[9.006,54.376],[8.897,54.263],[8.794,54.269],[8.734,54.25],[8.531,54.221]],[[5.424,47.09],[5.471,47.092],[5.464,47.08],[5.448,47.074],[5.424,47.09]]],[[[5.472,47.369],[5.444,47.371],[5.429,47.356],[5.441,47.348],[5.472,47.369]]],[[[11.087,42.299],[11.061,42.287],[11.044,42.27],[11.039,42.255],[11.047,42.229],[11.06,42.215],[11.09,42.201],[11.14,42.206],[11.168,42.241],[11.166,42.27],[11.14,42.296],[11.087,42.299]]],[[[10.868,42.427],[10.843,42.416],[10.818,42.383],[10.812,42.36],[10.819,42.337],[10.89,42.284],[10.917,42.277],[10.954,42.286],[10.983,42.322],[10.977,42.37],[10.935,42.415],[10.902,42.427],[10.868,42.427]]],[[[10.285,42.388],[10.264,42.38],[10.243,42.358],[10.235,42.336],[10.246,42.3],[10.265,42.284],[10.306,42.275],[10.342,42.279],[10.365,42.293],[10.383,42.326],[10.376,42.36],[10.329,42.389],[10.285,42.388]]],[[[10.078,42.826],[10.051,42.793],[10.058,42.746],[10.088,42.713],[10.138,42.69],[10.192,42.695],[10.243,42.687],[10.276,42.697],[10.332,42.698],[10.385,42.672],[10.428,42.669],[10.474,42.688],[10.487,42.711],[10.478,42.754],[10.487,42.772],[10.485,42.817],[10.496,42.839],[10.495,42.856],[10.47,42.885],[10.436,42.908],[10.409,42.912],[10.377,42.902],[10.339,42.86],[10.256,42.869],[10.215,42.848],[10.13,42.847],[10.078,42.826]]],[[[9.992,42.581],[10.005,42.554],[10.019,42.543],[10.08,42.529],[10.129,42.54],[10.156,42.572],[10.155,42.592],[10.133,42.637],[10.086,42.658],[10.048,42.651],[10.034,42.64],[10,42.605],[9.992,42.581]]],[[[9.774,43.09],[9.753,43.071],[9.739,43.031],[9.741,43.01],[9.762,42.982],[9.793,42.966],[9.826,42.966],[9.889,43.009],[9.898,43.058],[9.867,43.098],[9.828,43.112],[9.794,43.104],[9.774,43.09]]],[[[9.905,43.478],[9.858,43.466],[9.843,43.45],[9.836,43.417],[9.854,43.394],[9.911,43.383],[9.94,43.394],[9.957,43.412],[9.957,43.451],[9.937,43.468],[9.905,43.478]]]]}}],"metadata":{"source":"OpenHistoricalMap","sourceUrl":"https://www.openhistoricalmap.org/","license":"CC0-1.0","year":1200,"relationId":2892299,"startDate":"1167","endDate":"1201","partCount":10,"missingWays":[],"unclosedRings":0,"droppedInnerRings":0,"sourceRelation":"https://www.openhistoricalmap.org/relation/2892299","inputSha256":"a545defad6fed28a8902850b2bbabb68d4640ddcba20885fc00db47a06a172a2","timestampOsmBase":"2026-09-07T12:20:16Z","endpoint":"https://overpass-api.openhistoricalmap.org/api/interpreter","query":"[out:json][timeout:45];(rel(2805484);rel(2750623);rel(2892299););out geom;","uncertainty":"同年代の表示整合の基準。史料で確定した境界ではない。OHMの推測・年代未確定図版に由来する区間を含む（#513の利用者判断）。","borderPrecision":"史料に基づく復元（概略。測量された境界ではない）"}}