{"type":"FeatureCollection","metadata":{"source":"Natural Earth","sourceCommit":"ca96624a56bd078437bca8184e78163e5039ad19","license":"Public Domain (Natural Earth)","adoptedAttributes":["name","name_ja","featurecla","scalerank","min_label","max_label","wikidataid"],"sourceFeatureCount":306,"targetFeatureCount":16,"sourceUrl":"https://github.com/nvkelso/natural-earth-vector","commit":"ca96624a56bd078437bca8184e78163e5039ad19"},"features":[{"type":"Feature","geometry":{"type":"Point","coordinates":[-18,46]},"properties":{"name":"North Atlantic Ocean","name_ja":"大西洋","featurecla":"ocean","scalerank":0,"min_label":1,"max_label":6.5,"wikidataid":"Q97"}},{"type":"Feature","geometry":{"type":"Point","coordinates":[5,37.5]},"properties":{"name":"Mediterranean Sea","name_ja":"地中海","featurecla":"sea","scalerank":1,"min_label":2,"max_label":7.5,"wikidataid":"Q4918"}},{"type":"Feature","geometry":{"type":"Point","coordinates":[34.5,43.5]},"properties":{"name":"Black Sea","name_ja":"黒海","featurecla":"sea","scalerank":1,"min_label":2,"max_label":7.5,"wikidataid":"Q166"}},{"type":"Feature","geometry":{"type":"Point","coordinates":[3,56.5]},"properties":{"name":"North Sea","name_ja":"北海","featurecla":"sea","scalerank":2,"min_label":4,"max_label":8.5,"wikidataid":"Q1693"}},{"type":"Feature","geometry":{"type":"Point","coordinates":[19,58]},"properties":{"name":"Baltic Sea","name_ja":"バルト海","featurecla":"sea","scalerank":2,"min_label":4,"max_label":8.5,"wikidataid":"Q545"}},{"type":"Feature","geometry":{"type":"Point","coordinates":[15,43]},"properties":{"name":"Adriatic Sea","name_ja":"アドリア海","featurecla":"sea","scalerank":3,"min_label":5,"max_label":9.5,"wikidataid":"Q13924"}},{"type":"Feature","geometry":{"type":"Point","coordinates":[25,38.5]},"properties":{"name":"Aegean Sea","name_ja":"エーゲ海","featurecla":"sea","scalerank":4,"min_label":5.7,"max_label":10,"wikidataid":"Q34575"}},{"type":"Feature","geometry":{"type":"Point","coordinates":[19,38]},"properties":{"name":"Ionian Sea","name_ja":"イオニア海","featurecla":"sea","scalerank":4,"min_label":5.7,"max_label":10,"wikidataid":"Q37495"}},{"type":"Feature","geometry":{"type":"Point","coordinates":[9,43]},"properties":{"name":"Ligurian Sea","name_ja":"リグリア海","featurecla":"sea","scalerank":5,"min_label":6,"max_label":10,"wikidataid":"Q42820"}},{"type":"Feature","geometry":{"type":"Point","coordinates":[28,40.7]},"properties":{"name":"Sea of Marmara","name_ja":"マルマラ海","featurecla":"sea","scalerank":6,"min_label":7,"max_label":10,"wikidataid":"Q35367"}},{"type":"Feature","geometry":{"type":"Point","coordinates":[-5,36]},"properties":{"name":"Strait of Gibraltar","name_ja":"ジブラルタル海峡","featurecla":"channel","scalerank":6,"min_label":7,"max_label":10,"wikidataid":"Q36124"}},{"type":"Feature","geometry":{"type":"Point","coordinates":[-4,53.5]},"properties":{"name":"Irish Sea","name_ja":"アイリッシュ海","featurecla":"sea","scalerank":4,"min_label":5.7,"max_label":10,"wikidataid":"Q2147"}},{"type":"Feature","geometry":{"type":"Point","coordinates":[-2,48.8]},"properties":{"name":"English Channel","name_ja":"イギリス海峡","featurecla":"channel","scalerank":4,"min_label":5.7,"max_label":10,"wikidataid":"Q34640"}},{"type":"Feature","geometry":{"type":"Point","coordinates":[12.5,56.5]},"properties":{"name":"Kattegat","name_ja":"カテガット海峡","featurecla":"channel","scalerank":6,"min_label":7,"max_label":10,"wikidataid":"Q131716"}},{"type":"Feature","geometry":{"type":"Point","coordinates":[-7,45]},"properties":{"name":"Bay of Biscay","name_ja":"ビスケー湾","featurecla":"bay","scalerank":3,"min_label":5,"max_label":9.5,"wikidataid":"Q41573"}},{"type":"Feature","geometry":{"type":"Point","coordinates":[30,46]},"properties":{"name":"Sea of Azov","name_ja":"アゾフ海","featurecla":"sea","scalerank":4,"min_label":5.7,"max_label":10,"wikidataid":"Q35000"}}]}