{"type":"FeatureCollection","features":[{"type":"Feature","properties":{"NAME":"Andorra","ADMIN_LEVEL":2,"OHM_RELATION_ID":2739874,"START_DATE":"1278","END_DATE":null},"geometry":{"type":"MultiPolygon","coordinates":[[[[1.787,42.574],[1.731,42.588],[1.728,42.601],[1.736,42.618],[1.715,42.615],[1.683,42.625],[1.66,42.621],[1.637,42.63],[1.6,42.626],[1.549,42.656],[1.516,42.646],[1.48,42.651],[1.468,42.631],[1.473,42.61],[1.445,42.604],[1.427,42.586],[1.444,42.569],[1.423,42.556],[1.414,42.537],[1.451,42.54],[1.465,42.508],[1.42,42.485],[1.439,42.477],[1.448,42.46],[1.443,42.444],[1.452,42.437],[1.517,42.429],[1.552,42.433],[1.56,42.458],[1.579,42.45],[1.599,42.467],[1.655,42.467],[1.667,42.5],[1.711,42.492],[1.726,42.505],[1.74,42.557],[1.787,42.574]]]]}},{"type":"Feature","properties":{"NAME":"Knights Hospitaller","ADMIN_LEVEL":2,"OHM_RELATION_ID":2861791,"START_DATE":"1310-08-15","END_DATE":"1522"},"geometry":{"type":"MultiPolygon","coordinates":[[[[27.432,37.028],[27.431,37.039],[27.42,37.039],[27.419,37.032],[27.432,37.028]]],[[[29.685,36.087],[29.672,36.11],[29.637,36.136],[29.623,36.133],[29.61,36.156],[29.614,36.174],[29.607,36.176],[29.569,36.174],[29.545,36.16],[29.515,36.184],[29.487,36.186],[29.471,36.183],[29.433,36.156],[29.435,36.14],[29.457,36.116],[29.511,36.109],[29.531,36.088],[29.548,36.082],[29.583,36.081],[29.605,36.069],[29.639,36.064],[29.685,36.087]]],[[[27.631,36.16],[27.634,36.136],[27.671,36.085],[27.706,36.07],[27.698,36.009],[27.665,35.94],[27.697,35.884],[27.705,35.853],[27.733,35.836],[27.76,35.833],[27.824,35.853],[27.903,35.899],[27.936,35.934],[27.982,36.006],[28.023,36.027],[28.07,36.012],[28.102,36.013],[28.135,36.035],[28.153,36.108],[28.139,36.134],[28.183,36.164],[28.196,36.201],[28.226,36.237],[28.232,36.277],[28.26,36.3],[28.267,36.34],[28.295,36.369],[28.3,36.383],[28.29,36.411],[28.288,36.464],[28.247,36.495],[28.209,36.5],[28.182,36.488],[28.164,36.467],[28.096,36.458],[27.891,36.38],[27.84,36.353],[27.811,36.318],[27.779,36.308],[27.724,36.328],[27.697,36.327],[27.612,36.29],[27.505,36.28],[27.472,36.259],[27.464,36.215],[27.471,36.19],[27.493,36.17],[27.523,36.164],[27.55,36.171],[27.576,36.163],[27.635,36.173],[27.631,36.16]]]]}},{"type":"Feature","properties":{"NAME":"Naples","ADMIN_LEVEL":2,"OHM_RELATION_ID":2892793,"START_DATE":"1463","END_DATE":"1501-08-02"},"geometry":{"type":"MultiPolygon","coordinates":[[[[13.522,41.78],[13.504,41.722],[13.526,41.67],[13.554,41.654],[13.562,41.641],[13.542,41.629],[13.539,41.619],[13.553,41.599],[13.543,41.59],[13.52,41.588],[13.507,41.575],[13.539,41.556],[13.54,41.544],[13.53,41.533],[13.544,41.525],[13.544,41.501],[13.526,41.481],[13.494,41.506],[13.477,41.505],[13.441,41.481],[13.445,41.467],[13.428,41.454],[13.438,41.424],[13.424,41.397],[13.387,41.404],[13.366,41.397],[13.324,41.407],[13.259,41.397],[13.262,41.366],[13.274,41.347],[13.29,41.327],[13.306,41.333],[13.314,41.326],[13.281,41.297],[13.262,41.245],[13.298,41.257],[13.34,41.248],[13.476,41.188],[13.566,41.164],[13.621,41.175],[13.642,41.197],[13.644,41.21],[13.706,41.206],[13.786,41.147],[13.844,41.076],[13.875,41.006],[13.966,40.914],[13.986,40.876],[13.995,40.838],[13.989,40.807],[13.961,40.784],[13.877,40.802],[13.828,40.789],[13.811,40.768],[13.802,40.736],[13.798,40.708],[13.809,40.686],[13.84,40.666],[13.885,40.652],[13.972,40.663],[13.997,40.676],[14.015,40.699],[14.056,40.711],[14.079,40.738],[14.118,40.744],[14.135,40.758],[14.202,40.754],[14.256,40.784],[14.285,40.791],[14.36,40.729],[14.406,40.713],[14.357,40.674],[14.326,40.67],[14.296,40.652],[14.27,40.601],[14.188,40.6],[14.155,40.583],[14.144,40.546],[14.149,40.519],[14.188,40.496],[14.275,40.507],[14.306,40.528],[14.356,40.532],[14.459,40.576],[14.485,40.581],[14.528,40.567],[14.579,40.572],[14.64,40.602],[14.673,40.593],[14.716,40.598],[14.746,40.622],[14.766,40.627],[14.848,40.545],[14.944,40.388],[14.898,40.355],[14.885,40.315],[14.893,40.297],[14.854,40.263],[14.857,40.234],[14.875,40.212],[14.906,40.194],[14.964,40.181],[14.992,40.145],[15.019,40.133],[15.071,40.125],[15.106,40.133],[15.141,40.098],[15.178,40.084],[15.225,40.052],[15.215,40.021],[15.226,40.001],[15.248,39.986],[15.295,39.983],[15.338,39.962],[15.41,39.951],[15.446,39.955],[15.487,39.994],[15.522,40.01],[15.539,40.032],[15.584,40.034],[15.676,39.952],[15.691,39.92],[15.732,39.875],[15.716,39.833],[15.737,39.795],[15.765,39.665],[15.786,39.641],[15.833,39.527],[15.892,39.49],[15.949,39.421],[15.986,39.336],[16,39.284],[16.014,39.129],[16.045,39.023],[16.09,38.969],[16.115,38.926],[16.167,38.898],[16.169,38.861],[16.163,38.823],[16.14,38.776],[16.096,38.758],[16.04,38.769],[15.966,38.761],[15.922,38.731],[15.822,38.696],[15.785,38.658],[15.775,38.633],[15.779,38.602],[15.873,38.529],[15.859,38.489],[15.81,38.403],[15.785,38.375],[15.768,38.32],[15.731,38.297],[15.693,38.295],[15.68,38.262],[15.611,38.238],[15.597,38.182],[15.599,38.143],[15.578,38.104],[15.581,38.074],[15.596,38.048],[15.581,38.018],[15.598,37.974],[15.638,37.927],[15.745,37.877],[15.793,37.874],[15.917,37.886],[16.003,37.874],[16.08,37.884],[16.104,37.897],[16.147,37.939],[16.192,38.012],[16.214,38.115],[16.361,38.263],[16.513,38.313],[16.623,38.414],[16.635,38.471],[16.61,38.659],[16.613,38.681],[16.599,38.714],[16.647,38.784],[16.808,38.861],[16.955,38.896],[17.01,38.866],[17.048,38.87],[17.081,38.852],[17.112,38.853],[17.211,38.929],[17.224,38.954],[17.215,38.98],[17.255,39.008],[17.259,39.023],[17.249,39.054],[17.19,39.074],[17.188,39.096],[17.167,39.13],[17.197,39.187],[17.202,39.211],[17.196,39.229],[17.161,39.262],[17.163,39.304],[17.186,39.358],[17.209,39.388],[17.206,39.418],[17.175,39.44],[17.141,39.444],[17.088,39.47],[17.074,39.5],[17.057,39.517],[16.98,39.534],[16.903,39.57],[16.875,39.587],[16.857,39.616],[16.803,39.655],[16.757,39.666],[16.726,39.659],[16.633,39.662],[16.596,39.676],[16.578,39.686],[16.583,39.73],[16.576,39.744],[16.541,39.768],[16.55,39.808],[16.581,39.848],[16.643,39.901],[16.681,39.953],[16.681,39.977],[16.666,39.997],[16.657,40.04],[16.66,40.071],[16.735,40.127],[16.783,40.19],[16.831,40.281],[16.948,40.413],[17.023,40.46],[17.092,40.479],[17.099,40.475],[17.089,40.457],[17.094,40.433],[17.106,40.421],[17.147,40.405],[17.174,40.374],[17.223,40.36],[17.367,40.298],[17.413,40.291],[17.493,40.256],[17.675,40.264],[17.843,40.238],[17.865,40.213],[17.867,40.184],[17.885,40.157],[17.955,40.097],[17.925,40.074],[17.92,40.047],[17.947,40.017],[17.942,39.991],[17.95,39.973],[18.007,39.903],[18.146,39.815],[18.192,39.797],[18.252,39.794],[18.339,39.749],[18.393,39.758],[18.435,39.794],[18.443,39.811],[18.441,39.836],[18.451,39.874],[18.447,39.912],[18.46,39.965],[18.485,39.996],[18.514,40.016],[18.535,40.06],[18.571,40.095],[18.566,40.152],[18.535,40.179],[18.516,40.211],[18.513,40.243],[18.469,40.314],[18.425,40.342],[18.279,40.472],[18.228,40.503],[18.162,40.525],[18.097,40.575],[18.091,40.618],[18.073,40.634],[18.066,40.66],[18.03,40.695],[17.988,40.704],[17.955,40.723],[17.857,40.73],[17.836,40.746],[17.713,40.801],[17.524,40.856],[17.421,40.925],[17.391,40.936],[17.344,40.986],[17.121,41.1],[16.923,41.154],[16.898,41.177],[16.88,41.182],[16.824,41.184],[16.684,41.23],[16.639,41.235],[16.562,41.272],[16.483,41.297],[16.454,41.318],[16.342,41.351],[16.314,41.371],[16.274,41.37],[16.231,41.395],[16.035,41.467],[15.993,41.491],[15.955,41.545],[15.948,41.583],[15.977,41.61],[16.068,41.646],[16.133,41.692],[16.198,41.724],[16.234,41.754],[16.245,41.775],[16.253,41.825],[16.234,41.862],[16.237,41.891],[16.225,41.912],[16.181,41.942],[16.107,41.977],[16.018,41.989],[15.763,41.957],[15.697,41.954],[15.648,41.966],[15.607,41.967],[15.404,41.94],[15.383,41.941],[15.35,41.956],[15.177,41.961],[15.114,41.974],[15.032,42.038],[14.913,42.06],[14.784,42.112],[14.776,42.116],[14.766,42.187],[14.743,42.209],[14.647,42.234],[14.555,42.276],[14.539,42.301],[14.477,42.343],[14.472,42.368],[14.46,42.38],[14.298,42.469],[14.16,42.579],[14.041,42.731],[14.028,42.766],[13.995,42.815],[13.968,42.911],[13.916,42.895],[13.878,42.895],[13.772,42.859],[13.775,42.848],[13.752,42.814],[13.726,42.834],[13.722,42.853],[13.707,42.849],[13.698,42.822],[13.664,42.807],[13.636,42.804],[13.623,42.816],[13.57,42.801],[13.534,42.815],[13.528,42.795],[13.504,42.775],[13.505,42.748],[13.489,42.734],[13.447,42.731],[13.438,42.7],[13.424,42.705],[13.39,42.687],[13.354,42.695],[13.287,42.74],[13.266,42.74],[13.255,42.722],[13.189,42.734],[13.191,42.711],[13.175,42.691],[13.175,42.667],[13.147,42.647],[13.131,42.66],[13.121,42.659],[13.11,42.643],[13.065,42.625],[13.038,42.629],[13.027,42.64],[13.006,42.616],[12.954,42.62],[12.938,42.616],[12.932,42.605],[12.896,42.616],[12.881,42.609],[12.9,42.552],[12.915,42.545],[12.912,42.532],[12.927,42.52],[12.927,42.508],[12.907,42.49],[12.866,42.482],[12.872,42.464],[12.865,42.457],[12.907,42.439],[12.906,42.397],[12.897,42.39],[12.915,42.381],[12.929,42.357],[12.961,42.354],[12.991,42.326],[12.999,42.294],[13.062,42.266],[13.059,42.253],[13.068,42.252],[13.054,42.21],[13.073,42.183],[13.088,42.178],[13.088,42.147],[13.044,42.117],[13.032,42.123],[13.034,42.108],[13.019,42.076],[13.055,42.017],[13.102,42.009],[13.101,42.027],[13.141,42.016],[13.2,41.987],[13.231,41.983],[13.285,41.953],[13.309,41.952],[13.345,41.923],[13.364,41.925],[13.384,41.904],[13.36,41.871],[13.376,41.821],[13.391,41.819],[13.398,41.835],[13.409,41.837],[13.453,41.823],[13.471,41.806],[13.507,41.8],[13.522,41.78]],[[14.848,41.164],[14.854,41.163],[14.843,41.15],[14.855,41.149],[14.87,41.134],[14.866,41.12],[14.834,41.103],[14.831,41.093],[14.811,41.102],[14.799,41.091],[14.774,41.091],[14.76,41.1],[14.714,41.105],[14.711,41.115],[14.726,41.13],[14.709,41.143],[14.717,41.149],[14.713,41.163],[14.721,41.169],[14.724,41.194],[14.738,41.19],[14.75,41.198],[14.742,41.205],[14.749,41.222],[14.791,41.215],[14.796,41.2],[14.816,41.193],[14.816,41.187],[14.832,41.188],[14.848,41.164]],[[13.605,41.469],[13.611,41.481],[13.593,41.491],[13.597,41.505],[13.641,41.495],[13.696,41.47],[13.731,41.446],[13.735,41.426],[13.713,41.409],[13.71,41.418],[13.702,41.412],[13.686,41.429],[13.673,41.42],[13.645,41.425],[13.629,41.415],[13.564,41.401],[13.556,41.413],[13.594,41.44],[13.589,41.459],[13.605,41.469]]]]}},{"type":"Feature","properties":{"NAME":"Principality of Wallachia","ADMIN_LEVEL":4,"OHM_RELATION_ID":2929115,"START_DATE":"1420","END_DATE":"1538"},"geometry":{"type":"Polygon","coordinates":[[[22.422,44.795],[22.429,44.761],[22.464,44.744],[22.472,44.724],[22.468,44.714],[22.602,44.622],[22.702,44.608],[22.757,44.562],[22.763,44.539],[22.695,44.518],[22.635,44.55],[22.588,44.552],[22.563,44.534],[22.557,44.499],[22.539,44.48],[22.474,44.482],[22.457,44.477],[22.456,44.468],[22.499,44.411],[22.509,44.372],[22.529,44.337],[22.558,44.31],[22.612,44.293],[22.661,44.288],[22.681,44.278],[22.683,44.249],[22.672,44.222],[22.688,44.208],[22.758,44.193],[22.789,44.166],[22.864,44.137],[22.924,44.1],[22.993,44.098],[23.03,44.087],[23.043,44.075],[23.042,44.053],[23.006,44.011],[22.944,44.007],[22.88,43.983],[22.836,43.876],[22.869,43.837],[22.9,43.826],[23.065,43.796],[23.138,43.805],[23.268,43.846],[23.414,43.853],[23.495,43.834],[23.554,43.804],[23.607,43.792],[23.702,43.806],[23.778,43.8],[23.818,43.771],[23.852,43.759],[23.979,43.743],[24.058,43.719],[24.087,43.703],[24.175,43.681],[24.294,43.698],[24.35,43.697],[24.501,43.762],[24.611,43.745],[24.724,43.707],[24.778,43.706],[24.846,43.709],[24.827,43.746],[24.858,43.759],[24.907,43.759],[24.918,43.738],[24.966,43.722],[25.008,43.725],[25.021,43.71],[25.09,43.687],[25.112,43.684],[25.18,43.698],[25.243,43.686],[25.343,43.63],[25.394,43.618],[25.492,43.649],[25.561,43.648],[25.667,43.69],[25.73,43.69],[25.78,43.709],[25.809,43.748],[25.839,43.767],[25.864,43.769],[25.865,43.782],[25.888,43.793],[25.954,43.859],[25.925,43.883],[25.933,43.912],[25.964,43.925],[26.03,43.918],[26.073,43.926],[26.107,43.97],[26.144,43.983],[26.197,43.985],[26.336,44.033],[26.601,44.052],[26.702,44.078],[26.763,44.078],[26.917,44.138],[26.992,44.134],[27.066,44.149],[27.23,44.115],[27.315,44.14],[27.36,44.127],[27.394,44.132],[27.452,44.124],[27.525,44.169],[27.596,44.197],[27.637,44.206],[27.723,44.196],[27.776,44.232],[27.848,44.258],[27.914,44.247],[27.935,44.25],[28.009,44.32],[28.028,44.37],[28.076,44.416],[28.11,44.435],[28.088,44.491],[28.053,44.51],[28.036,44.549],[28.014,44.572],[28.014,44.583],[28.035,44.612],[28.018,44.647],[27.973,44.676],[27.942,44.679],[27.89,44.703],[27.871,44.725],[27.882,44.765],[27.92,44.789],[27.944,44.791],[28.007,44.768],[28.035,44.795],[28.042,44.773],[28.031,44.749],[28.07,44.762],[28.086,44.779],[28.084,44.8],[28.096,44.812],[28.093,44.822],[28.117,44.861],[28.122,44.896],[28.138,44.911],[28.156,44.959],[28.137,44.994],[28.132,45.015],[28.15,45.034],[28.125,45.092],[28.131,45.104],[28.174,45.106],[28.172,45.124],[28.197,45.136],[28.153,45.165],[28.095,45.189],[28.112,45.22],[28.127,45.23],[28.12,45.254],[28.043,45.26],[27.995,45.288],[28.026,45.356],[28.026,45.395],[28.002,45.402],[27.972,45.386],[27.974,45.398],[27.892,45.417],[27.88,45.414],[27.882,45.406],[27.861,45.413],[27.85,45.399],[27.838,45.4],[27.839,45.415],[27.829,45.417],[27.815,45.398],[27.772,45.417],[27.736,45.418],[27.746,45.432],[27.741,45.449],[27.714,45.446],[27.715,45.459],[27.697,45.458],[27.698,45.473],[27.662,45.476],[27.663,45.49],[27.654,45.491],[27.657,45.473],[27.651,45.472],[27.649,45.486],[27.645,45.47],[27.63,45.476],[27.631,45.467],[27.62,45.466],[27.625,45.472],[27.617,45.478],[27.612,45.466],[27.578,45.486],[27.579,45.495],[27.572,45.487],[27.561,45.499],[27.544,45.501],[27.552,45.521],[27.529,45.517],[27.541,45.511],[27.537,45.503],[27.515,45.514],[27.483,45.503],[27.488,45.531],[27.47,45.529],[27.468,45.537],[27.483,45.542],[27.467,45.548],[27.481,45.55],[27.472,45.554],[27.483,45.557],[27.465,45.565],[27.447,45.557],[27.419,45.576],[27.433,45.582],[27.425,45.584],[27.43,45.59],[27.451,45.595],[27.42,45.596],[27.424,45.603],[27.416,45.615],[27.423,45.619],[27.379,45.609],[27.374,45.619],[27.331,45.634],[27.314,45.629],[27.29,45.653],[27.263,45.657],[27.26,45.682],[27.247,45.69],[27.16,45.696],[27.12,45.715],[27.124,45.723],[27.091,45.742],[27.028,45.768],[26.981,45.762],[26.961,45.769],[26.935,45.759],[26.91,45.781],[26.87,45.794],[26.855,45.791],[26.855,45.779],[26.836,45.755],[26.807,45.736],[26.816,45.712],[26.787,45.703],[26.766,45.711],[26.734,45.664],[26.631,45.647],[26.594,45.62],[26.579,45.634],[26.552,45.63],[26.541,45.642],[26.53,45.642],[26.486,45.689],[26.489,45.694],[26.466,45.705],[26.458,45.726],[26.437,45.739],[26.444,45.753],[26.438,45.766],[26.418,45.769],[26.422,45.753],[26.407,45.737],[26.427,45.728],[26.424,45.698],[26.471,45.657],[26.378,45.652],[26.349,45.64],[26.348,45.604],[26.336,45.592],[26.281,45.622],[26.25,45.61],[26.24,45.62],[26.219,45.622],[26.186,45.609],[26.172,45.563],[26.155,45.581],[26.143,45.581],[26.096,45.518],[26.066,45.504],[26.065,45.485],[26.041,45.478],[26.014,45.49],[25.995,45.514],[25.938,45.513],[25.924,45.523],[25.89,45.485],[25.896,45.482],[25.889,45.448],[25.867,45.436],[25.868,45.424],[25.823,45.431],[25.826,45.44],[25.812,45.466],[25.786,45.481],[25.766,45.465],[25.726,45.465],[25.7,45.483],[25.699,45.504],[25.675,45.526],[25.644,45.535],[25.648,45.527],[25.638,45.506],[25.625,45.499],[25.596,45.515],[25.536,45.509],[25.526,45.499],[25.511,45.502],[25.515,45.472],[25.411,45.428],[25.405,45.388],[25.368,45.391],[25.322,45.381],[25.309,45.392],[25.31,45.431],[25.288,45.439],[25.273,45.432],[25.274,45.443],[25.257,45.452],[25.238,45.477],[25.242,45.499],[25.237,45.516],[25.214,45.526],[25.192,45.522],[25.106,45.583],[25.078,45.581],[25.034,45.592],[24.998,45.586],[24.959,45.593],[24.938,45.582],[24.917,45.594],[24.838,45.591],[24.83,45.606],[24.794,45.603],[24.771,45.611],[24.74,45.604],[24.696,45.605],[24.673,45.594],[24.626,45.603],[24.598,45.596],[24.571,45.577],[24.556,45.586],[24.522,45.581],[24.511,45.586],[24.481,45.574],[24.446,45.591],[24.433,45.581],[24.385,45.584],[24.287,45.561],[24.257,45.545],[24.23,45.547],[24.203,45.523],[24.171,45.515],[24.085,45.513],[24.023,45.53],[24.001,45.526],[23.98,45.533],[23.986,45.495],[23.981,45.486],[23.939,45.496],[23.932,45.458],[23.879,45.459],[23.862,45.473],[23.824,45.476],[23.743,45.431],[23.702,45.425],[23.693,45.437],[23.691,45.471],[23.708,45.486],[23.709,45.504],[23.688,45.518],[23.662,45.509],[23.649,45.527],[23.641,45.527],[23.625,45.521],[23.631,45.512],[23.615,45.507],[23.591,45.513],[23.575,45.509],[23.596,45.491],[23.598,45.477],[23.594,45.45],[23.575,45.428],[23.594,45.421],[23.591,45.4],[23.602,45.387],[23.586,45.367],[23.589,45.356],[23.494,45.316],[23.46,45.323],[23.431,45.308],[23.401,45.337],[23.357,45.339],[23.336,45.329],[23.331,45.314],[23.312,45.301],[23.291,45.31],[23.249,45.309],[23.231,45.301],[23.176,45.298],[23.144,45.282],[23.097,45.292],[23.087,45.284],[23.001,45.282],[22.973,45.271],[22.909,45.278],[22.875,45.265],[22.84,45.276],[22.834,45.285],[22.778,45.261],[22.772,45.27],[22.73,45.253],[22.701,45.257],[22.673,45.239],[22.603,45.214],[22.56,45.16],[22.577,45.138],[22.65,45.125],[22.656,45.105],[22.593,45.048],[22.569,45.039],[22.531,44.996],[22.502,44.98],[22.509,44.962],[22.485,44.935],[22.494,44.921],[22.482,44.903],[22.486,44.883],[22.422,44.795]]]}},{"type":"Feature","properties":{"NAME":"San Marino","ADMIN_LEVEL":2,"OHM_RELATION_ID":2692735,"START_DATE":"1463-06-27","END_DATE":"1699"},"geometry":{"type":"Polygon","coordinates":[[[12.406,43.95],[12.415,43.929],[12.408,43.921],[12.408,43.919],[12.411,43.902],[12.44,43.906],[12.443,43.906],[12.452,43.896],[12.453,43.895],[12.478,43.897],[12.488,43.898],[12.492,43.913],[12.493,43.917],[12.494,43.92],[12.515,43.94],[12.506,43.958],[12.508,43.965],[12.506,43.971],[12.512,43.98],[12.514,43.987],[12.512,43.989],[12.471,43.974],[12.435,43.957],[12.424,43.956],[12.406,43.95]]]}},{"type":"Feature","properties":{"NAME":"Savoy","ADMIN_LEVEL":3,"OHM_RELATION_ID":2893921,"START_DATE":"1427","END_DATE":"1536"},"geometry":{"type":"MultiPolygon","coordinates":[[[[4.816,46.25],[4.931,46.197],[4.927,46.154],[5.066,46.135],[5.109,46.098],[5.175,46.096],[5.164,46.185],[5.214,46.181],[5.267,46.085],[5.301,46.05],[5.21,45.981],[5.217,45.955],[5.271,45.943],[5.283,45.905],[5.232,45.878],[5.192,45.834],[5.167,45.787],[5.19,45.768],[5.236,45.772],[5.291,45.808],[5.303,45.842],[5.35,45.881],[5.411,45.862],[5.425,45.85],[5.417,45.825],[5.422,45.808],[5.51,45.769],[5.52,45.739],[5.545,45.713],[5.556,45.679],[5.603,45.621],[5.623,45.613],[5.733,45.473],[5.74,45.439],[5.793,45.438],[5.816,45.422],[5.897,45.4],[5.905,45.432],[5.92,45.444],[5.924,45.464],[5.915,45.477],[5.968,45.492],[6.009,45.473],[6.011,45.45],[6.049,45.438],[6.094,45.445],[6.096,45.432],[6.122,45.439],[6.176,45.395],[6.201,45.361],[6.185,45.318],[6.157,45.31],[6.131,45.286],[6.134,45.23],[6.163,45.191],[6.147,45.158],[6.157,45.15],[6.189,45.167],[6.221,45.143],[6.25,45.149],[6.267,45.139],[6.259,45.128],[6.296,45.108],[6.336,45.121],[6.363,45.103],[6.375,45.084],[6.365,45.07],[6.396,45.061],[6.436,45.063],[6.452,45.052],[6.487,45.056],[6.479,45.095],[6.511,45.109],[6.532,45.098],[6.55,45.098],[6.558,45.08],[6.594,45.07],[6.608,45.052],[6.639,45.055],[6.647,45.027],[6.671,45.02],[6.722,45.022],[6.747,45.008],[6.795,45.014],[7.015,44.879],[7.001,44.842],[7.01,44.826],[7.02,44.825],[7.02,44.815],[7.001,44.792],[7.019,44.777],[7.024,44.74],[7.044,44.718],[7.074,44.716],[7.104,44.722],[7.125,44.732],[7.129,44.739],[7.149,44.743],[7.217,44.715],[7.264,44.715],[7.288,44.706],[7.311,44.684],[7.336,44.681],[7.341,44.706],[7.426,44.725],[7.451,44.739],[7.448,44.755],[7.478,44.758],[7.469,44.657],[7.508,44.65],[7.5,44.624],[7.436,44.562],[7.425,44.525],[7.381,44.529],[7.357,44.503],[7.376,44.467],[7.377,44.39],[7.43,44.399],[7.454,44.334],[7.41,44.321],[7.331,44.272],[7.28,44.287],[7.223,44.286],[7.197,44.275],[7.149,44.19],[7.126,44.175],[7.03,44.225],[6.964,44.238],[6.961,44.286],[6.919,44.339],[6.88,44.36],[6.814,44.37],[6.794,44.503],[6.78,44.538],[6.741,44.531],[6.678,44.545],[6.612,44.523],[6.606,44.488],[6.459,44.445],[6.478,44.397],[6.514,44.358],[6.5,44.233],[6.522,44.214],[6.611,44.219],[6.688,44.166],[6.667,44.112],[6.704,44.063],[6.877,44.093],[6.901,44.07],[6.872,44.036],[6.879,43.999],[6.772,43.922],[6.818,43.881],[6.729,43.866],[6.691,43.818],[6.736,43.793],[6.801,43.777],[6.887,43.798],[6.928,43.792],[7.042,43.818],[7.068,43.788],[7.122,43.773],[7.123,43.624],[7.209,43.61],[7.241,43.618],[7.274,43.648],[7.344,43.64],[7.385,43.66],[7.399,43.68],[7.428,43.688],[7.413,43.733],[7.435,43.75],[7.428,43.758],[7.436,43.761],[7.435,43.774],[7.472,43.777],[7.479,43.787],[7.468,43.825],[7.485,43.824],[7.493,43.797],[7.518,43.803],[7.495,43.855],[7.497,43.87],[7.498,43.871],[7.498,43.872],[7.509,43.881],[7.512,43.884],[7.554,43.896],[7.555,43.896],[7.559,43.897],[7.579,43.891],[7.585,43.873],[7.604,43.862],[7.614,43.839],[7.652,43.845],[7.687,43.833],[7.714,43.839],[7.71,43.855],[7.735,43.876],[7.728,43.904],[7.743,43.91],[7.759,43.943],[7.752,43.958],[7.67,43.998],[7.662,44.022],[7.663,44.024],[7.662,44.027],[7.664,44.028],[7.665,44.031],[7.703,44.043],[7.711,44.06],[7.712,44.06],[7.712,44.061],[7.728,44.06],[7.736,44.076],[7.753,44.084],[7.733,44.084],[7.717,44.104],[7.715,44.104],[7.716,44.106],[7.715,44.107],[7.726,44.126],[7.765,44.144],[7.807,44.127],[7.882,44.114],[7.884,44.106],[7.926,44.112],[7.943,44.101],[7.971,44.113],[8.005,44.103],[8.009,44.106],[8.012,44.111],[8.009,44.113],[8.005,44.114],[8.006,44.115],[8.003,44.117],[8.008,44.119],[8.011,44.121],[8.003,44.126],[7.979,44.136],[7.98,44.138],[7.981,44.139],[7.983,44.141],[8.014,44.156],[8.043,44.143],[8.068,44.146],[8.091,44.173],[8.092,44.173],[8.095,44.177],[8.151,44.165],[8.185,44.182],[8.183,44.186],[8.177,44.189],[8.178,44.197],[8.17,44.214],[8.148,44.206],[8.076,44.204],[8.067,44.215],[8.07,44.221],[8.068,44.227],[8.077,44.235],[8.063,44.253],[8.089,44.275],[8.102,44.281],[8.156,44.272],[8.212,44.325],[8.223,44.323],[8.235,44.306],[8.232,44.295],[8.254,44.3],[8.267,44.352],[8.289,44.367],[8.316,44.346],[8.316,44.345],[8.318,44.343],[8.316,44.327],[8.272,44.318],[8.271,44.302],[8.248,44.273],[8.272,44.272],[8.305,44.257],[8.321,44.273],[8.331,44.288],[8.339,44.32],[8.355,44.332],[8.344,44.351],[8.377,44.408],[8.444,44.439],[8.464,44.469],[8.462,44.488],[8.448,44.499],[8.45,44.502],[8.447,44.499],[8.417,44.513],[8.399,44.501],[8.394,44.479],[8.358,44.465],[8.35,44.485],[8.324,44.488],[8.303,44.503],[8.272,44.506],[8.262,44.519],[8.261,44.519],[8.244,44.474],[8.207,44.48],[8.174,44.502],[8.113,44.491],[8.043,44.397],[7.969,44.423],[7.914,44.458],[7.913,44.555],[7.879,44.639],[7.918,44.706],[8.001,44.731],[7.99,44.74],[7.986,44.77],[8.022,44.804],[7.935,44.87],[7.932,44.923],[7.983,45.024],[8.058,45.072],[8.05,45.088],[8.045,45.088],[8.021,45.11],[8.022,45.124],[8.03,45.13],[8.03,45.131],[7.993,45.162],[7.979,45.143],[7.898,45.139],[7.885,45.114],[7.827,45.14],[7.85,45.173],[7.873,45.183],[7.852,45.202],[7.848,45.228],[7.791,45.251],[7.732,45.322],[7.738,45.342],[7.765,45.366],[7.806,45.361],[7.824,45.341],[7.866,45.343],[7.906,45.334],[7.92,45.314],[7.963,45.312],[7.958,45.3],[7.974,45.297],[7.973,45.285],[8.018,45.284],[8.05,45.317],[8.021,45.33],[8.024,45.362],[8.008,45.385],[8.017,45.401],[8.124,45.375],[8.145,45.407],[8.168,45.412],[8.162,45.426],[8.169,45.436],[8.186,45.451],[8.203,45.446],[8.218,45.454],[8.221,45.476],[8.278,45.519],[8.278,45.533],[8.292,45.541],[8.297,45.553],[8.276,45.563],[8.258,45.604],[8.295,45.64],[8.328,45.647],[8.301,45.655],[8.253,45.693],[8.188,45.729],[8.182,45.751],[8.178,45.751],[8.163,45.75],[8.154,45.752],[8.12,45.753],[8.11,45.749],[8.096,45.738],[8.082,45.738],[8.076,45.719],[8.065,45.724],[8.06,45.74],[8.014,45.733],[7.999,45.719],[7.953,45.72],[7.938,45.725],[7.927,45.735],[7.928,45.736],[7.927,45.737],[7.93,45.74],[7.889,45.757],[7.888,45.758],[7.886,45.759],[7.862,45.791],[7.862,45.82],[7.873,45.827],[7.863,45.839],[7.872,45.852],[7.871,45.864],[7.865,45.882],[7.868,45.905],[7.867,45.906],[7.861,45.91],[7.864,45.913],[7.86,45.92],[7.822,45.927],[7.797,45.919],[7.751,45.94],[7.735,45.924],[7.721,45.923],[7.71,45.948],[7.681,45.957],[7.659,45.977],[7.589,45.971],[7.579,45.986],[7.547,45.985],[7.54,45.956],[7.499,45.962],[7.474,45.949],[7.475,45.937],[7.445,45.932],[7.386,45.897],[7.344,45.915],[7.324,45.91],[7.294,45.922],[7.259,45.891],[7.22,45.889],[7.202,45.876],[7.195,45.86],[7.173,45.864],[7.157,45.879],[7.118,45.859],[7.104,45.859],[7.064,45.9],[7.063,45.911],[7.043,45.923],[7.035,45.956],[7.011,45.967],[7.024,45.978],[7.008,45.999],[6.984,46.006],[6.933,46.074],[6.948,46.101],[6.982,46.123],[6.984,46.174],[6.959,46.212],[6.981,46.245],[6.998,46.254],[6.958,46.279],[6.947,46.306],[6.919,46.34],[6.892,46.349],[6.89,46.366],[6.866,46.377],[6.864,46.393],[6.821,46.427],[6.675,46.453],[6.567,46.458],[6.571,46.555],[6.601,46.562],[6.662,46.549],[6.737,46.544],[6.777,46.554],[6.829,46.581],[6.906,46.575],[6.932,46.588],[6.956,46.588],[7.013,46.628],[7.053,46.628],[7.081,46.637],[7.121,46.674],[7.152,46.684],[7.193,46.681],[7.25,46.66],[7.289,46.629],[7.331,46.619],[7.34,46.643],[7.386,46.686],[7.374,46.709],[7.347,46.724],[7.306,46.732],[7.25,46.72],[7.193,46.725],[7.066,46.709],[7.03,46.727],[6.983,46.736],[6.95,46.711],[6.904,46.691],[6.855,46.689],[6.825,46.701],[6.819,46.72],[6.839,46.743],[6.869,46.754],[6.951,46.756],[6.969,46.766],[6.958,46.785],[6.967,46.814],[7.002,46.822],[7.033,46.856],[6.919,46.934],[6.796,46.829],[6.674,46.781],[6.616,46.79],[6.604,46.777],[6.633,46.746],[6.631,46.726],[6.6,46.737],[6.586,46.766],[6.568,46.78],[6.541,46.788],[6.452,46.774],[6.43,46.756],[6.395,46.748],[6.385,46.732],[6.37,46.73],[6.372,46.724],[6.279,46.69],[6.228,46.648],[6.111,46.576],[6.16,46.543],[6.133,46.517],[6.122,46.493],[6.106,46.475],[6.052,46.456],[6.061,46.418],[6.024,46.384],[5.984,46.363],[5.942,46.31],[5.926,46.314],[5.908,46.285],[5.895,46.286],[5.871,46.265],[5.864,46.271],[5.823,46.262],[5.759,46.268],[5.727,46.261],[5.715,46.283],[5.723,46.294],[5.715,46.309],[5.685,46.314],[5.644,46.346],[5.605,46.316],[5.587,46.318],[5.579,46.33],[5.546,46.332],[5.513,46.318],[5.474,46.314],[5.467,46.297],[5.453,46.297],[5.443,46.265],[5.425,46.249],[5.404,46.264],[5.394,46.283],[5.403,46.332],[5.392,46.345],[5.359,46.355],[5.314,46.355],[5.307,46.376],[5.295,46.384],[5.301,46.401],[5.296,46.408],[5.302,46.423],[5.318,46.431],[5.317,46.449],[5.264,46.449],[5.223,46.465],[5.2,46.5],[5.111,46.497],[4.937,46.509],[4.918,46.489],[4.901,46.426],[4.878,46.399],[4.879,46.364],[4.853,46.318],[4.822,46.292],[4.816,46.25]],[[6.111,46.203],[6.118,46.216],[6.112,46.219],[6.128,46.228],[6.167,46.224],[6.174,46.243],[6.218,46.225],[6.222,46.216],[6.201,46.208],[6.172,46.182],[6.166,46.188],[6.155,46.178],[6.154,46.186],[6.115,46.199],[6.111,46.203]],[[6.142,46.272],[6.153,46.276],[6.182,46.263],[6.177,46.25],[6.155,46.254],[6.142,46.272]],[[6.246,46.256],[6.25,46.262],[6.266,46.249],[6.295,46.265],[6.298,46.255],[6.306,46.256],[6.31,46.244],[6.291,46.224],[6.247,46.227],[6.254,46.248],[6.246,46.256]],[[6.584,46.678],[6.592,46.69],[6.627,46.697],[6.631,46.688],[6.684,46.689],[6.704,46.673],[6.733,46.67],[6.75,46.631],[6.687,46.63],[6.671,46.599],[6.658,46.589],[6.598,46.618],[6.584,46.678]]],[[[6.821,46.427],[6.917,46.418],[6.949,46.401],[6.981,46.406],[6.987,46.398],[7.001,46.397],[7.021,46.404],[7.004,46.421],[7.009,46.458],[6.933,46.517],[6.884,46.487],[6.821,46.427]]],[[[8.588,44.526],[8.589,44.527],[8.61,44.546],[8.6,44.553],[8.601,44.546],[8.588,44.526]]],[[[8.599,44.566],[8.6,44.558],[8.62,44.584],[8.621,44.586],[8.617,44.587],[8.607,44.583],[8.599,44.566]]]]}}],"metadata":{"generatedBy":"scripts/build-fief-flat.ts","input":"data/sovereign_fiefs_1492.geojson","year":1492,"cutPolicy":"keep-smaller","containmentCoverageThreshold":0.9,"minOverlapAreaM2":1000,"sliverAreaLimitM2":1000000000,"resolutions":[],"externalInputs":["data/italy_fiefs_flat_1492.geojson","data/hre_fiefs_flat_1492.geojson","data/cliopatria_fiefs_flat_1492.geojson","data/britain_fiefs_flat_1492.geojson","data/borrowed_hre_flat_1492.geojson","data/borrowed_italy_flat_1492.geojson"],"externalRemovals":[{"cutName":"San Marino","externalName":"Lordship of Rimini","overlapKm2":1.78},{"cutName":"Savoy","externalName":"County of Asti","overlapKm2":531.08},{"cutName":"Savoy","externalName":"March of Montferrat","overlapKm2":984.21},{"cutName":"Savoy","externalName":"Marquisate of Saluzzo","overlapKm2":1.07},{"cutName":"Savoy","externalName":"Republic of Genoa","overlapKm2":5.3},{"cutName":"Savoy","externalName":"Duchy of Milan","overlapKm2":888.47}],"source":"OpenHistoricalMap","sourceUrl":"https://www.openhistoricalmap.org/","license":"CC0-1.0","borderPrecision":"史料に基づく復元（概略。測量された境界ではない）"}}