{"type":"FeatureCollection","features":[{"type":"Feature","properties":{"NAME":"Andorra","ADMIN_LEVEL":2,"OHM_RELATION_ID":2739874,"START_DATE":"1278","END_DATE":null},"geometry":{"type":"MultiPolygon","coordinates":[[[[1.787,42.574],[1.731,42.588],[1.728,42.601],[1.736,42.618],[1.715,42.615],[1.683,42.625],[1.66,42.621],[1.637,42.63],[1.6,42.626],[1.549,42.656],[1.516,42.646],[1.48,42.651],[1.468,42.631],[1.473,42.61],[1.445,42.604],[1.427,42.586],[1.444,42.569],[1.423,42.556],[1.414,42.537],[1.451,42.54],[1.465,42.508],[1.42,42.485],[1.439,42.477],[1.448,42.46],[1.443,42.444],[1.452,42.437],[1.517,42.429],[1.552,42.433],[1.56,42.458],[1.579,42.45],[1.599,42.467],[1.655,42.467],[1.667,42.5],[1.711,42.492],[1.726,42.505],[1.74,42.557],[1.787,42.574]]]]}},{"type":"Feature","properties":{"NAME":"Crimean Khanate","ADMIN_LEVEL":4,"OHM_RELATION_ID":2849499,"START_DATE":"1475","END_DATE":"1774-07-21"},"geometry":{"type":"MultiPolygon","coordinates":[[[[35.044,45.77],[35.004,45.83],[34.935,45.968],[34.915,46.05],[34.944,46.031],[34.984,46.025],[35.149,46.066],[35.192,46.084],[35.251,46.127],[35.344,46.254],[35.473,46.382],[35.659,46.462],[35.789,46.557],[35.869,46.583],[35.909,46.606],[35.943,46.615],[36.054,46.621],[36.11,46.612],[36.177,46.619],[36.176,46.609],[36.154,46.589],[36.103,46.576],[36.041,46.537],[36.025,46.511],[36.027,46.483],[36.05,46.459],[36.1,46.445],[36.145,46.449],[36.198,46.462],[36.242,46.491],[36.347,46.595],[36.398,46.659],[36.642,46.734],[36.694,46.733],[36.729,46.72],[36.685,46.683],[36.673,46.633],[36.689,46.607],[36.747,46.587],[36.787,46.592],[36.84,46.623],[36.896,46.676],[36.926,46.746],[36.973,46.792],[37.215,46.881],[37.222,46.848],[37.251,46.828],[37.291,46.822],[37.35,46.839],[37.382,46.858],[37.542,47.014],[37.574,47.037],[37.606,47.034],[37.639,47.042],[37.723,47.032],[37.846,47.045],[37.898,47.057],[37.959,47.039],[38.02,47.041],[38.016,47.022],[38.032,46.995],[38.066,46.98],[38.094,46.978],[38.121,46.983],[38.19,47.019],[38.235,47.058],[38.274,47.077],[38.329,47.089],[38.409,47.089],[38.45,47.097],[38.549,47.07],[38.591,47.07],[38.643,47.098],[38.873,47.132],[38.929,47.157],[38.975,47.162],[39.015,47.186],[39.027,47.217],[39.076,47.223],[39.102,47.239],[39.149,47.238],[39.136,47.208],[39.137,47.183],[39.158,47.153],[39.158,47.131],[39.172,47.104],[39.168,47.083],[39.095,47.09],[39.029,47.073],[38.932,47.013],[38.86,47.011],[38.826,46.993],[38.798,46.954],[38.699,46.924],[38.604,46.921],[38.56,46.909],[38.517,46.929],[38.463,46.925],[38.378,46.881],[38.345,46.823],[38.297,46.812],[38.204,46.756],[38.093,46.735],[38.027,46.696],[37.993,46.686],[37.893,46.682],[37.831,46.694],[37.745,46.728],[37.705,46.723],[37.683,46.711],[37.667,46.685],[37.672,46.66],[37.761,46.5],[37.814,46.421],[37.864,46.368],[37.92,46.333],[37.974,46.316],[38.023,46.319],[38.084,46.345],[38.195,46.271],[38.17,46.218],[38.169,46.181],[38.124,46.14],[38.114,46.11],[38.018,46.101],[37.946,46.083],[37.911,46.064],[37.871,46.026],[37.812,45.854],[37.774,45.796],[37.729,45.783],[37.69,45.751],[37.626,45.742],[37.558,45.696],[37.532,45.633],[37.519,45.463],[37.506,45.438],[37.441,45.402],[37.396,45.403],[37.303,45.386],[37.369,45.226],[37.513,45.16],[37.598,45.145],[37.682,45.165],[37.749,45.156],[37.809,45.127],[37.933,45.134],[38.087,45.157],[38.268,45.163],[39.065,44.951],[39.196,44.951],[39.328,45.004],[39.622,45.194],[39.749,45.221],[39.979,45.3],[40.133,45.341],[40.317,45.344],[40.498,45.379],[40.647,45.439],[40.897,45.445],[41.015,45.41],[41.218,45.483],[41.368,45.617],[41.451,45.645],[41.451,45.735],[41.344,45.913],[41.306,46.007],[41.32,46.066],[41.548,46.111],[41.657,46.167],[41.74,46.231],[41.773,46.309],[41.861,46.406],[41.896,46.481],[41.828,46.546],[41.674,46.617],[41.627,46.668],[41.512,46.759],[41.461,46.901],[41.434,46.929],[41.082,47.052],[41.006,47.093],[40.861,47.139],[40.802,47.121],[40.748,47.115],[40.724,47.139],[40.717,47.172],[40.692,47.198],[40.638,47.2],[40.551,47.19],[40.417,47.234],[40.268,47.249],[40.226,47.23],[40.172,47.261],[40.063,47.245],[39.86,47.252],[39.787,47.216],[39.629,47.195],[39.592,47.215],[39.402,47.591],[39.227,47.71],[39.062,47.784],[38.293,47.843],[37.491,47.776],[36.925,47.688],[36.606,47.58],[36.146,47.583],[35.386,47.447],[35.261,47.479],[35.148,47.463],[34.93,47.454],[34.827,47.482],[34.758,47.54],[34.505,47.567],[34.428,47.527],[34.328,47.513],[34.257,47.489],[34.191,47.45],[34.013,47.397],[33.986,47.407],[33.978,47.402],[33.981,47.345],[33.965,47.302],[33.985,47.248],[33.973,47.219],[33.902,47.161],[33.794,47.135],[33.762,47.095],[33.661,47.034],[33.662,46.977],[33.615,46.953],[33.6,46.936],[33.598,46.916],[33.607,46.885],[33.586,46.844],[33.474,46.82],[33.42,46.83],[33.374,46.797],[33.373,46.782],[33.341,46.758],[33.272,46.752],[33.238,46.766],[33.14,46.784],[33.031,46.74],[32.919,46.732],[32.845,46.692],[32.789,46.674],[32.667,46.656],[32.585,46.596],[32.51,46.593],[32.302,46.495],[31.935,46.599],[31.826,46.581],[31.661,46.596],[31.495,46.592],[31.457,46.576],[31.463,46.559],[31.494,46.526],[31.676,46.406],[31.728,46.346],[31.68,46.286],[31.632,46.281],[31.592,46.304],[31.588,46.367],[31.568,46.395],[31.535,46.405],[31.511,46.403],[31.473,46.38],[31.46,46.328],[31.477,46.284],[31.528,46.238],[31.61,46.201],[31.841,46.159],[32.012,46.139],[32.48,46.038],[32.915,45.974],[33.032,45.971],[33.11,45.985],[33.128,46.01],[33.127,46.022],[33.108,46.043],[33.04,46.065],[32.982,46.072],[33.056,46.076],[33.09,46.096],[33.136,46.087],[33.149,46.048],[33.186,46.03],[33.219,46.032],[33.25,46.049],[33.283,46.039],[33.338,46.039],[33.386,46.003],[33.425,45.993],[33.456,46],[33.489,45.991],[33.527,45.993],[33.546,45.999],[33.566,46.018],[33.578,45.972],[33.565,45.948],[33.58,45.92],[33.563,45.913],[33.514,45.913],[33.476,45.892],[33.394,45.865],[33.322,45.815],[33.238,45.788],[33.228,45.793],[33.226,45.822],[33.206,45.838],[33.178,45.844],[33.145,45.836],[33.118,45.808],[33.104,45.751],[33.049,45.74],[32.922,45.69],[32.799,45.624],[32.77,45.597],[32.528,45.497],[32.437,45.425],[32.427,45.388],[32.442,45.364],[32.444,45.333],[32.474,45.312],[32.65,45.277],[32.683,45.282],[32.771,45.329],[32.888,45.326],[32.933,45.308],[33.028,45.249],[33.114,45.175],[33.161,45.15],[33.195,45.143],[33.24,45.113],[33.301,45.112],[33.336,45.135],[33.403,45.153],[33.472,45.109],[33.518,45.061],[33.548,44.998],[33.545,44.976],[33.559,44.926],[33.554,44.878],[33.51,44.861],[33.482,44.8],[33.492,44.672],[33.464,44.649],[33.348,44.615],[33.328,44.596],[33.327,44.571],[33.356,44.538],[33.421,44.5],[33.456,44.466],[33.551,44.451],[33.586,44.453],[33.591,44.429],[33.61,44.401],[33.676,44.379],[33.717,44.352],[33.777,44.349],[33.856,44.368],[33.974,44.355],[34.153,44.395],[34.175,44.41],[34.207,44.461],[34.266,44.47],[34.302,44.488],[34.322,44.512],[34.349,44.51],[34.385,44.521],[34.455,44.643],[34.495,44.683],[34.632,44.739],[34.741,44.774],[34.804,44.782],[34.917,44.779],[34.962,44.8],[34.997,44.794],[35.008,44.777],[35.031,44.766],[35.068,44.757],[35.103,44.759],[35.169,44.799],[35.2,44.87],[35.275,44.892],[35.302,44.925],[35.32,44.929],[35.379,44.91],[35.419,44.92],[35.443,44.949],[35.434,44.974],[35.465,44.989],[35.478,45.012],[35.475,45.027],[35.45,45.049],[35.52,45.082],[35.593,45.092],[35.693,45.064],[35.741,45.039],[35.759,45.024],[35.761,45.009],[35.787,44.981],[35.829,44.961],[35.917,44.979],[35.97,44.976],[36.011,44.991],[36.042,45.013],[36.23,44.991],[36.285,45.017],[36.381,45.023],[36.426,45.036],[36.48,45.06],[36.504,45.086],[36.5,45.121],[36.477,45.14],[36.458,45.186],[36.459,45.211],[36.488,45.261],[36.524,45.226],[36.548,45.215],[36.594,45.253],[36.594,45.283],[36.603,45.309],[36.663,45.36],[36.68,45.445],[36.649,45.474],[36.61,45.489],[36.551,45.486],[36.488,45.507],[36.428,45.503],[36.365,45.531],[36.27,45.535],[36.206,45.522],[36.132,45.519],[36.064,45.502],[36.009,45.464],[35.996,45.426],[35.976,45.425],[35.946,45.433],[35.938,45.442],[35.946,45.474],[35.927,45.509],[35.892,45.525],[35.856,45.529],[35.767,45.5],[35.744,45.462],[35.687,45.423],[35.67,45.387],[35.575,45.366],[35.521,45.342],[35.387,45.417],[35.34,45.458],[35.241,45.565],[35.134,45.654],[35.044,45.77]]]]}},{"type":"Feature","properties":{"NAME":"Knights Hospitaller","ADMIN_LEVEL":2,"OHM_RELATION_ID":2861788,"START_DATE":"1665","END_DATE":"1798-06-11"},"geometry":{"type":"MultiPolygon","coordinates":[[[[14.461,35.995],[14.426,36.004],[14.34,36.095],[14.265,36.122],[14.224,36.125],[14.168,36.115],[14.151,36.107],[14.133,36.082],[14.139,36.017],[14.2,35.982],[14.264,35.968],[14.28,35.924],[14.276,35.892],[14.289,35.861],[14.334,35.824],[14.395,35.789],[14.505,35.764],[14.552,35.767],[14.593,35.784],[14.625,35.832],[14.624,35.886],[14.532,35.958],[14.461,35.995]]]]}},{"type":"Feature","properties":{"NAME":"Principality of Wallachia","ADMIN_LEVEL":4,"OHM_RELATION_ID":2929116,"START_DATE":"1538","END_DATE":"1829-09-14"},"geometry":{"type":"MultiPolygon","coordinates":[[[[22.422,44.795],[22.429,44.761],[22.464,44.744],[22.472,44.724],[22.468,44.714],[22.602,44.622],[22.702,44.608],[22.757,44.562],[22.763,44.539],[22.695,44.518],[22.635,44.55],[22.588,44.552],[22.563,44.534],[22.557,44.499],[22.539,44.48],[22.474,44.482],[22.457,44.477],[22.456,44.468],[22.499,44.411],[22.509,44.372],[22.529,44.337],[22.558,44.31],[22.612,44.293],[22.661,44.288],[22.681,44.278],[22.683,44.249],[22.672,44.222],[22.688,44.208],[22.758,44.193],[22.789,44.166],[22.864,44.137],[22.924,44.1],[22.993,44.098],[23.03,44.087],[23.043,44.075],[23.042,44.053],[23.006,44.011],[22.944,44.007],[22.88,43.983],[22.836,43.876],[22.869,43.837],[22.9,43.826],[23.065,43.796],[23.138,43.805],[23.268,43.846],[23.414,43.853],[23.495,43.834],[23.554,43.804],[23.607,43.792],[23.702,43.806],[23.778,43.8],[23.818,43.771],[23.852,43.759],[23.979,43.743],[24.058,43.719],[24.087,43.703],[24.175,43.681],[24.294,43.698],[24.35,43.697],[24.501,43.762],[24.611,43.745],[24.724,43.707],[24.778,43.706],[24.846,43.709],[24.827,43.746],[24.858,43.759],[24.907,43.759],[24.918,43.738],[24.966,43.722],[25.008,43.725],[25.021,43.71],[25.09,43.687],[25.112,43.684],[25.18,43.698],[25.243,43.686],[25.343,43.63],[25.394,43.618],[25.492,43.649],[25.561,43.648],[25.667,43.69],[25.73,43.69],[25.78,43.709],[25.809,43.748],[25.839,43.767],[25.864,43.769],[25.865,43.782],[25.888,43.793],[25.954,43.859],[25.925,43.883],[25.933,43.912],[25.964,43.925],[26.03,43.918],[26.073,43.926],[26.107,43.97],[26.144,43.983],[26.197,43.985],[26.336,44.033],[26.601,44.052],[26.702,44.078],[26.763,44.078],[26.917,44.138],[26.992,44.134],[27.066,44.149],[27.23,44.115],[27.315,44.14],[27.36,44.127],[27.394,44.132],[27.452,44.124],[27.525,44.169],[27.596,44.197],[27.637,44.206],[27.723,44.196],[27.776,44.232],[27.848,44.258],[27.914,44.247],[27.935,44.25],[28.009,44.32],[28.028,44.37],[28.076,44.416],[28.11,44.435],[28.088,44.491],[28.053,44.51],[28.036,44.549],[28.014,44.572],[28.014,44.583],[28.035,44.612],[28.018,44.647],[27.973,44.676],[27.942,44.679],[27.89,44.703],[27.871,44.725],[27.882,44.765],[27.874,44.774],[27.82,44.786],[27.828,44.829],[27.854,44.867],[27.873,44.877],[27.893,44.926],[27.74,44.943],[27.763,44.989],[27.412,45.075],[27.466,45.203],[27.636,45.286],[27.757,45.359],[27.631,45.431],[26.66,45.497],[26.416,45.497],[26.24,45.366],[26.134,45.567],[26.117,45.546],[26.096,45.518],[26.094,45.517],[26.093,45.516],[26.066,45.504],[26.065,45.485],[26.047,45.478],[26.044,45.479],[26.041,45.478],[26.014,45.49],[25.995,45.514],[25.969,45.508],[25.949,45.513],[25.938,45.513],[25.931,45.518],[25.922,45.521],[25.89,45.485],[25.896,45.482],[25.895,45.479],[25.897,45.477],[25.889,45.448],[25.867,45.436],[25.868,45.424],[25.86,45.422],[25.823,45.431],[25.826,45.44],[25.81,45.467],[25.802,45.472],[25.783,45.479],[25.766,45.465],[25.726,45.465],[25.7,45.483],[25.699,45.504],[25.675,45.526],[25.644,45.535],[25.648,45.527],[25.638,45.506],[25.625,45.499],[25.596,45.515],[25.536,45.509],[25.526,45.499],[25.511,45.502],[25.515,45.472],[25.512,45.471],[25.512,45.47],[25.411,45.428],[25.405,45.388],[25.368,45.391],[25.322,45.381],[25.311,45.387],[25.31,45.391],[25.309,45.392],[25.309,45.399],[25.308,45.407],[25.31,45.413],[25.31,45.431],[25.308,45.432],[25.29,45.438],[25.283,45.437],[25.273,45.432],[25.273,45.434],[25.272,45.434],[25.272,45.444],[25.257,45.452],[25.238,45.477],[25.239,45.482],[25.234,45.517],[25.212,45.526],[25.192,45.522],[25.19,45.523],[25.189,45.523],[25.105,45.583],[25.086,45.582],[25.082,45.581],[25.078,45.581],[25.053,45.587],[25.032,45.592],[24.998,45.586],[24.991,45.587],[24.988,45.587],[24.958,45.593],[24.955,45.591],[24.945,45.58],[24.939,45.583],[24.938,45.582],[24.917,45.594],[24.84,45.591],[24.838,45.591],[24.83,45.605],[24.829,45.606],[24.794,45.603],[24.771,45.611],[24.77,45.611],[24.74,45.604],[24.696,45.605],[24.673,45.594],[24.626,45.603],[24.598,45.596],[24.571,45.577],[24.556,45.586],[24.522,45.581],[24.511,45.586],[24.481,45.574],[24.446,45.591],[24.433,45.581],[24.385,45.584],[24.287,45.561],[24.257,45.545],[24.255,45.545],[24.253,45.544],[24.234,45.547],[24.232,45.547],[24.206,45.524],[24.203,45.523],[24.167,45.514],[24.087,45.513],[24.083,45.513],[24.011,45.528],[24.001,45.526],[23.986,45.531],[23.986,45.491],[23.983,45.49],[23.981,45.486],[23.976,45.487],[23.939,45.494],[23.937,45.484],[23.938,45.478],[23.934,45.467],[23.932,45.458],[23.914,45.458],[23.879,45.459],[23.872,45.465],[23.856,45.473],[23.847,45.474],[23.822,45.475],[23.749,45.435],[23.742,45.43],[23.702,45.425],[23.693,45.437],[23.691,45.471],[23.706,45.484],[23.708,45.49],[23.709,45.503],[23.705,45.507],[23.688,45.518],[23.681,45.515],[23.666,45.509],[23.665,45.51],[23.662,45.509],[23.658,45.515],[23.641,45.527],[23.626,45.519],[23.631,45.512],[23.615,45.507],[23.578,45.51],[23.576,45.509],[23.596,45.492],[23.598,45.479],[23.598,45.477],[23.597,45.471],[23.595,45.452],[23.594,45.451],[23.594,45.45],[23.575,45.428],[23.594,45.421],[23.591,45.4],[23.602,45.387],[23.586,45.367],[23.589,45.356],[23.494,45.316],[23.493,45.316],[23.49,45.315],[23.457,45.322],[23.431,45.308],[23.43,45.309],[23.427,45.308],[23.413,45.326],[23.404,45.334],[23.356,45.339],[23.349,45.335],[23.333,45.321],[23.331,45.314],[23.312,45.301],[23.289,45.31],[23.27,45.31],[23.251,45.309],[23.248,45.308],[23.231,45.301],[23.191,45.299],[23.174,45.296],[23.144,45.282],[23.097,45.292],[23.087,45.284],[23.001,45.282],[22.973,45.271],[22.913,45.278],[22.875,45.265],[22.845,45.273],[22.843,45.275],[22.84,45.276],[22.834,45.285],[22.777,45.26],[22.776,45.265],[22.772,45.27],[22.739,45.257],[22.734,45.254],[22.733,45.254],[22.73,45.253],[22.704,45.257],[22.697,45.254],[22.673,45.239],[22.603,45.214],[22.56,45.16],[22.577,45.138],[22.65,45.125],[22.656,45.105],[22.593,45.048],[22.569,45.039],[22.531,44.996],[22.502,44.98],[22.509,44.962],[22.485,44.935],[22.494,44.921],[22.482,44.903],[22.486,44.883],[22.422,44.795]]],[[[26.418,45.769],[26.422,45.753],[26.421,45.751],[26.44,45.759],[26.44,45.761],[26.438,45.766],[26.418,45.769]]]]}},{"type":"Feature","properties":{"NAME":"Republic of Ragusa","ADMIN_LEVEL":2,"OHM_RELATION_ID":2830352,"START_DATE":"1699-01-25","END_DATE":"1808-01-30"},"geometry":{"type":"MultiPolygon","coordinates":[[[[18.302,42.475],[18.359,42.445],[18.396,42.411],[18.437,42.402],[18.491,42.363],[18.516,42.355],[18.546,42.357],[18.551,42.388],[18.538,42.409],[18.474,42.464],[18.436,42.483],[18.446,42.507],[18.436,42.524],[18.44,42.543],[18.434,42.565],[18.39,42.589],[18.366,42.616],[18.287,42.617],[18.244,42.603],[18.241,42.616],[18.222,42.623],[18.192,42.654],[18.178,42.661],[18.16,42.657],[18.144,42.679],[18.105,42.686],[18.107,42.709],[18.101,42.715],[18.036,42.749],[18.01,42.753],[17.996,42.776],[17.975,42.78],[17.95,42.799],[17.891,42.81],[17.887,42.815],[17.9,42.832],[17.87,42.847],[17.857,42.868],[17.859,42.885],[17.83,42.909],[17.809,42.917],[17.787,42.892],[17.76,42.91],[17.691,42.926],[17.649,42.889],[17.55,42.936],[17.494,42.945],[17.354,43.027],[17.287,43.048],[17.168,43.064],[17.092,43.061],[17.051,43.077],[16.976,43.078],[16.953,43.064],[16.952,43.014],[16.967,43.006],[17.078,42.977],[17.189,42.966],[17.227,42.948],[17.255,42.913],[17.346,42.876],[17.376,42.873],[17.381,42.85],[17.324,42.837],[17.269,42.799],[17.268,42.775],[17.301,42.741],[17.379,42.717],[17.463,42.709],[17.552,42.685],[17.627,42.678],[17.695,42.653],[17.767,42.651],[17.791,42.663],[17.806,42.691],[17.831,42.689],[17.882,42.665],[17.913,42.641],[17.978,42.635],[18.068,42.606],[18.093,42.588],[18.136,42.583],[18.138,42.569],[18.16,42.543],[18.302,42.475]]],[[[16.512,42.813],[16.471,42.802],[16.443,42.772],[16.435,42.745],[16.45,42.722],[16.484,42.71],[16.505,42.711],[16.557,42.726],[16.584,42.747],[16.589,42.762],[16.582,42.785],[16.549,42.807],[16.512,42.813]]],[[[16.935,42.811],[16.775,42.815],[16.739,42.796],[16.708,42.796],[16.668,42.776],[16.655,42.753],[16.657,42.74],[16.671,42.721],[16.697,42.71],[16.758,42.717],[16.831,42.685],[16.893,42.684],[16.937,42.696],[16.969,42.718],[16.992,42.722],[17.027,42.742],[17.043,42.727],[17.074,42.721],[17.165,42.731],[17.195,42.757],[17.185,42.788],[17.158,42.801],[17.046,42.79],[17.037,42.802],[17.039,42.827],[17.007,42.851],[16.96,42.85],[16.938,42.832],[16.935,42.811]]]]}},{"type":"Feature","properties":{"NAME":"San Marino","ADMIN_LEVEL":2,"OHM_RELATION_ID":2853644,"START_DATE":"1700","END_DATE":"1739-10-17"},"geometry":{"type":"MultiPolygon","coordinates":[[[[12.478,43.897],[12.488,43.898],[12.493,43.917],[12.515,43.939],[12.506,43.958],[12.515,43.99],[12.404,43.949],[12.415,43.929],[12.408,43.921],[12.411,43.901],[12.443,43.906],[12.453,43.895],[12.478,43.897]]]]}},{"type":"Feature","properties":{"NAME":"Transylvania","ADMIN_LEVEL":4,"OHM_RELATION_ID":2747433,"START_DATE":"1711-04-29","END_DATE":"1732-12-31"},"geometry":{"type":"Polygon","coordinates":[[[22.375,45.888],[22.411,45.855],[22.437,45.855],[22.46,45.848],[22.46,45.837],[22.475,45.838],[22.478,45.814],[22.47,45.804],[22.479,45.789],[22.499,45.785],[22.534,45.801],[22.551,45.777],[22.505,45.743],[22.471,45.732],[22.466,45.723],[22.469,45.694],[22.427,45.675],[22.427,45.669],[22.457,45.658],[22.453,45.647],[22.495,45.619],[22.506,45.599],[22.544,45.595],[22.546,45.585],[22.532,45.575],[22.535,45.561],[22.521,45.557],[22.502,45.531],[22.517,45.52],[22.531,45.487],[22.561,45.469],[22.588,45.437],[22.618,45.433],[22.638,45.412],[22.668,45.397],[22.668,45.382],[22.657,45.372],[22.684,45.331],[22.696,45.329],[22.697,45.303],[22.677,45.282],[22.689,45.275],[22.682,45.25],[22.706,45.257],[22.734,45.254],[22.764,45.27],[22.774,45.27],[22.777,45.26],[22.834,45.285],[22.845,45.273],[22.875,45.265],[22.918,45.279],[22.973,45.271],[23.001,45.282],[23.085,45.284],[23.095,45.292],[23.144,45.282],[23.174,45.296],[23.251,45.309],[23.289,45.31],[23.312,45.301],[23.353,45.339],[23.406,45.334],[23.427,45.308],[23.455,45.322],[23.49,45.315],[23.588,45.356],[23.586,45.367],[23.602,45.387],[23.591,45.4],[23.594,45.421],[23.573,45.426],[23.595,45.452],[23.598,45.479],[23.596,45.492],[23.575,45.51],[23.615,45.507],[23.631,45.512],[23.626,45.519],[23.641,45.527],[23.666,45.509],[23.691,45.52],[23.712,45.5],[23.705,45.481],[23.691,45.471],[23.693,45.437],[23.702,45.425],[23.742,45.43],[23.815,45.475],[23.855,45.474],[23.883,45.459],[23.93,45.458],[23.938,45.478],[23.935,45.495],[23.976,45.487],[23.986,45.491],[23.986,45.533],[24.083,45.513],[24.167,45.514],[24.206,45.524],[24.232,45.547],[24.253,45.544],[24.288,45.562],[24.385,45.584],[24.433,45.581],[24.446,45.591],[24.481,45.574],[24.511,45.586],[24.522,45.581],[24.556,45.586],[24.571,45.577],[24.598,45.596],[24.626,45.603],[24.673,45.594],[24.696,45.605],[24.773,45.611],[24.792,45.604],[24.813,45.61],[24.832,45.605],[24.84,45.591],[24.917,45.594],[24.945,45.58],[24.957,45.593],[24.988,45.587],[25.031,45.592],[25.082,45.581],[25.104,45.584],[25.189,45.523],[25.211,45.526],[25.234,45.517],[25.24,45.475],[25.272,45.445],[25.272,45.434],[25.292,45.439],[25.314,45.429],[25.308,45.407],[25.311,45.387],[25.322,45.381],[25.368,45.391],[25.405,45.388],[25.411,45.428],[25.512,45.47],[25.511,45.502],[25.526,45.499],[25.536,45.509],[25.596,45.515],[25.625,45.499],[25.638,45.506],[25.648,45.527],[25.644,45.535],[25.675,45.526],[25.699,45.504],[25.7,45.483],[25.726,45.465],[25.766,45.465],[25.783,45.479],[25.809,45.469],[25.826,45.44],[25.823,45.431],[25.86,45.422],[25.868,45.424],[25.867,45.436],[25.889,45.448],[25.897,45.477],[25.89,45.485],[25.92,45.521],[25.969,45.508],[25.995,45.514],[26.014,45.49],[26.047,45.478],[26.065,45.485],[26.066,45.504],[26.093,45.516],[26.134,45.567],[26.102,45.628],[26.421,45.751],[26.422,45.753],[26.418,45.769],[26.425,45.768],[26.424,45.778],[26.443,45.793],[26.444,45.804],[26.442,45.811],[26.423,45.82],[26.422,45.829],[26.381,45.838],[26.443,45.887],[26.456,45.934],[26.457,45.935],[26.46,45.968],[26.457,45.986],[26.462,45.99],[26.477,46.14],[26.448,46.151],[26.435,46.168],[26.398,46.15],[26.407,46.156],[26.404,46.168],[26.418,46.189],[26.392,46.202],[26.341,46.201],[26.324,46.238],[26.259,46.25],[26.254,46.274],[26.274,46.287],[26.272,46.297],[26.275,46.301],[25.942,46.546],[25.967,46.809],[25.727,46.874],[25.68,47.087],[25.66,47.092],[25.638,47.115],[25.601,47.132],[25.6,47.115],[25.588,47.108],[25.559,47.111],[25.532,47.131],[25.508,47.131],[25.474,47.154],[25.451,47.154],[25.441,47.16],[25.336,47.171],[25.298,47.16],[25.256,47.179],[25.017,47.203],[25.034,47.401],[24.881,47.532],[24.887,47.6],[24.859,47.592],[24.822,47.594],[24.808,47.566],[24.789,47.577],[24.76,47.569],[24.723,47.575],[24.694,47.559],[24.655,47.555],[24.653,47.569],[24.625,47.576],[24.56,47.564],[24.557,47.573],[24.387,47.604],[24.355,47.573],[24.326,47.567],[24.302,47.576],[24.302,47.558],[24.279,47.545],[24.277,47.527],[24.267,47.517],[24.215,47.55],[24.178,47.561],[24.176,47.58],[24.154,47.614],[24.095,47.615],[24.101,47.634],[24.068,47.639],[24.055,47.654],[24.032,47.658],[24.026,47.673],[23.986,47.666],[23.981,47.659],[23.908,47.659],[23.898,47.652],[23.91,47.622],[23.872,47.582],[23.857,47.577],[23.84,47.55],[23.813,47.549],[23.797,47.532],[23.808,47.502],[23.782,47.491],[23.765,47.469],[23.743,47.468],[23.734,47.445],[23.715,47.44],[23.712,47.428],[23.727,47.422],[23.744,47.427],[23.73,47.416],[23.736,47.386],[23.683,47.393],[23.666,47.383],[23.667,47.365],[23.676,47.358],[23.709,47.352],[23.699,47.347],[23.709,47.333],[23.65,47.346],[23.574,47.345],[23.532,47.359],[23.493,47.348],[23.475,47.33],[23.458,47.332],[23.442,47.317],[23.431,47.324],[23.42,47.321],[23.413,47.297],[23.373,47.294],[23.354,47.276],[23.342,47.282],[23.332,47.27],[23.334,47.256],[23.321,47.244],[23.305,47.246],[23.292,47.237],[23.264,47.244],[23.265,47.206],[23.207,47.152],[23.167,47.165],[23.109,47.166],[23.106,47.156],[23.067,47.125],[23.038,47.118],[22.987,47.081],[23,47.064],[22.997,47.055],[22.952,47.052],[22.95,47.025],[22.938,47.011],[22.917,47.006],[22.919,46.982],[22.894,46.975],[22.858,46.984],[22.795,46.977],[22.782,46.952],[22.789,46.929],[22.776,46.909],[22.778,46.898],[22.754,46.876],[22.727,46.816],[22.704,46.806],[22.634,46.798],[22.654,46.792],[22.649,46.782],[22.672,46.768],[22.712,46.764],[22.709,46.738],[22.74,46.716],[22.788,46.717],[22.811,46.705],[22.774,46.678],[22.773,46.651],[22.793,46.64],[22.788,46.629],[22.814,46.638],[22.802,46.62],[22.818,46.57],[22.812,46.569],[22.813,46.556],[22.73,46.546],[22.691,46.519],[22.676,46.523],[22.674,46.49],[22.678,46.469],[22.691,46.455],[22.687,46.442],[22.72,46.431],[22.675,46.409],[22.681,46.386],[22.698,46.379],[22.7,46.365],[22.779,46.349],[22.812,46.326],[22.89,46.344],[22.932,46.335],[22.944,46.299],[22.957,46.297],[22.967,46.283],[22.947,46.266],[22.982,46.22],[23.001,46.212],[23.07,46.207],[23.069,46.2],[23.095,46.182],[23.091,46.166],[23.105,46.154],[23.099,46.139],[23.082,46.15],[23.037,46.13],[22.999,46.131],[23.005,46.082],[22.994,46.071],[22.978,46.07],[22.98,46.033],[22.989,46.019],[22.948,46.004],[22.898,46.02],[22.884,46.016],[22.874,46.001],[22.852,46],[22.836,46.031],[22.843,46.044],[22.835,46.051],[22.847,46.067],[22.842,46.08],[22.829,46.079],[22.821,46.058],[22.795,46.043],[22.741,46.049],[22.727,46.058],[22.714,46.084],[22.714,46.099],[22.663,46.118],[22.62,46.118],[22.624,46.11],[22.615,46.101],[22.582,46.088],[22.558,46.103],[22.493,46.094],[22.468,46.101],[22.464,46.143],[22.433,46.106],[22.412,46.109],[22.409,46.088],[22.431,46.079],[22.436,46.05],[22.429,46.038],[22.44,46.026],[22.433,45.996],[22.421,45.981],[22.428,45.96],[22.418,45.944],[22.426,45.933],[22.406,45.904],[22.375,45.888]]]}}],"metadata":{"generatedBy":"scripts/build-fief-flat.ts","input":"data/sovereign_fiefs_1715.geojson","year":1715,"cutPolicy":"keep-smaller","containmentCoverageThreshold":0.9,"minOverlapAreaM2":1000,"sliverAreaLimitM2":1000000000,"resolutions":[{"kind":"sliver","cutName":"Principality of Wallachia","keptName":"Transylvania","overlapKm2":16.38,"coverageOfSmaller":0.0003}],"externalInputs":["data/hre_fiefs_flat_1715.geojson","data/cliopatria_fiefs_flat_1715.geojson","data/borrowed_hre_flat_1715.geojson"],"externalRemovals":[{"cutName":"Principality of Wallachia","externalName":"Principality of Moldavia","overlapKm2":2528.79},{"cutName":"Transylvania","externalName":"Principality of Moldavia","overlapKm2":1512.88}],"source":"OpenHistoricalMap","sourceUrl":"https://www.openhistoricalmap.org/","license":"CC0-1.0","borderPrecision":"史料に基づく復元（概略。測量された境界ではない）"}}