{"type":"FeatureCollection","features":[{"type":"Feature","properties":{"NAME":"Andorra","ADMIN_LEVEL":2,"OHM_RELATION_ID":2739874,"START_DATE":"1278","END_DATE":null},"geometry":{"type":"MultiPolygon","coordinates":[[[[1.787,42.574],[1.731,42.588],[1.728,42.601],[1.736,42.618],[1.715,42.615],[1.683,42.625],[1.66,42.621],[1.637,42.63],[1.6,42.626],[1.549,42.656],[1.516,42.646],[1.48,42.651],[1.468,42.631],[1.473,42.61],[1.445,42.604],[1.427,42.586],[1.444,42.569],[1.423,42.556],[1.414,42.537],[1.451,42.54],[1.465,42.508],[1.42,42.485],[1.439,42.477],[1.448,42.46],[1.443,42.444],[1.452,42.437],[1.517,42.429],[1.552,42.433],[1.56,42.458],[1.579,42.45],[1.599,42.467],[1.655,42.467],[1.667,42.5],[1.711,42.492],[1.726,42.505],[1.74,42.557],[1.787,42.574]]]]}},{"type":"Feature","properties":{"NAME":"Grand Duchy of Finland","ADMIN_LEVEL":3,"OHM_RELATION_ID":2696816,"START_DATE":"1809","END_DATE":"1917-12-06"},"geometry":{"type":"MultiPolygon","coordinates":[[[[29.988,60.105],[29.98,60.121],[30.011,60.152],[30.005,60.159],[29.922,60.186],[29.912,60.197],[29.866,60.196],[29.852,60.211],[29.86,60.232],[29.849,60.247],[29.862,60.256],[29.933,60.242],[29.948,60.255],[29.947,60.265],[30,60.271],[29.996,60.275],[30.03,60.285],[30.056,60.283],[30.038,60.3],[30.041,60.317],[30.003,60.34],[29.997,60.351],[30.005,60.357],[30.048,60.347],[30.063,60.353],[30.057,60.355],[30.107,60.396],[30.097,60.401],[30.102,60.414],[30.085,60.438],[30.085,60.446],[30.092,60.447],[30.044,60.478],[30.057,60.495],[30.117,60.491],[30.19,60.458],[30.214,60.458],[30.245,60.477],[30.281,60.469],[30.304,60.452],[30.331,60.453],[30.36,60.442],[30.44,60.445],[30.45,60.424],[30.482,60.432],[30.493,60.449],[30.522,60.467],[30.523,60.451],[30.545,60.444],[30.618,60.479],[30.678,60.486],[30.703,60.518],[32.592,61.189],[32.651,61.401],[32.665,62.196],[32.682,62.274],[32.578,62.339],[32.371,62.45],[32.297,62.555],[32.305,62.606],[32.102,62.826],[31.896,62.881],[31.587,62.909],[31.502,62.996],[31.449,63.006],[31.463,63.024],[31.425,63.043],[31.39,63.048],[31.364,63.071],[31.272,63.108],[31.255,63.142],[31.255,63.179],[31.24,63.191],[31.24,63.219],[31.165,63.244],[31.138,63.265],[31.1,63.272],[31.021,63.303],[30.984,63.306],[30.944,63.337],[30.934,63.355],[30.853,63.368],[30.788,63.405],[30.484,63.467],[30.385,63.546],[30.261,63.583],[30.244,63.607],[30.077,63.694],[30.059,63.711],[29.972,63.757],[30.26,63.822],[30.321,63.91],[30.447,63.983],[30.492,64.017],[30.528,64.049],[30.554,64.102],[30.553,64.132],[30.516,64.155],[30.466,64.204],[30.51,64.222],[30.482,64.262],[30.388,64.269],[30.361,64.281],[30.367,64.3],[30.21,64.35],[30.11,64.365],[30.045,64.402],[30.057,64.434],[30.05,64.442],[30.058,64.451],[30.046,64.472],[30.024,64.483],[30.03,64.501],[30.015,64.504],[29.987,64.534],[29.997,64.577],[29.989,64.588],[30.054,64.615],[30.119,64.626],[30.13,64.635],[30.136,64.649],[30.054,64.713],[30.041,64.741],[30.091,64.765],[30.087,64.774],[30.043,64.793],[29.74,64.79],[29.688,64.819],[29.7,64.837],[29.645,64.866],[29.611,64.927],[29.619,64.96],[29.599,64.995],[29.614,65.013],[29.627,65.061],[29.733,65.091],[29.831,65.092],[29.897,65.105],[29.853,65.127],[29.863,65.131],[29.819,65.144],[29.894,65.193],[29.886,65.206],[29.764,65.229],[29.634,65.232],[29.602,65.26],[29.609,65.276],[29.646,65.289],[29.747,65.347],[29.731,65.374],[29.727,65.4],[29.733,65.473],[29.749,65.483],[29.755,65.497],[29.864,65.56],[29.754,65.609],[29.722,65.637],[30.016,65.696],[30.138,65.669],[30.119,65.752],[30.068,65.895],[30.024,65.967],[29.997,65.979],[29.989,66.02],[29.974,66.041],[29.981,66.044],[29.972,66.046],[29.923,66.127],[29.709,66.268],[29.695,66.271],[29.706,66.273],[29.52,66.496],[29.472,66.544],[29.413,66.582],[29.418,66.59],[29.376,66.604],[29.384,66.606],[29.361,66.623],[29.36,66.638],[29.149,66.78],[29.106,66.79],[29.115,66.805],[29.061,66.853],[29.033,66.926],[29.041,66.962],[29.072,66.994],[29.516,67.281],[29.508,67.285],[29.524,67.31],[29.569,67.311],[29.58,67.315],[29.565,67.319],[29.582,67.329],[29.613,67.327],[29.642,67.336],[29.644,67.34],[29.619,67.344],[29.621,67.349],[29.709,67.389],[29.84,67.479],[29.93,67.523],[30.016,67.671],[29.659,67.803],[29.327,68.075],[28.646,68.196],[28.434,68.54],[28.706,68.732],[28.929,69.052],[28.855,69.077],[28.805,69.111],[28.83,69.172],[28.832,69.224],[29.219,69.398],[29.336,69.478],[29.171,69.639],[29.134,69.695],[28.404,69.818],[28.33,69.849],[28.345,69.881],[28.161,69.921],[27.984,70.014],[27.977,70.054],[27.956,70.092],[27.798,70.077],[27.746,70.064],[27.69,70.077],[27.609,70.074],[27.554,70.059],[27.526,70.023],[27.431,70.02],[27.36,69.992],[27.312,69.99],[27.275,69.977],[27.304,69.961],[27.297,69.954],[27.133,69.933],[27.102,69.918],[27.042,69.911],[26.971,69.938],[26.878,69.933],[26.859,69.942],[26.853,69.96],[26.782,69.958],[26.718,69.945],[26.676,69.965],[26.468,69.94],[26.455,69.919],[26.408,69.902],[26.417,69.891],[26.413,69.88],[26.382,69.853],[26.242,69.816],[26.248,69.797],[26.191,69.776],[26.183,69.77],[26.183,69.76],[26.153,69.757],[26.132,69.737],[26.049,69.72],[26.007,69.723],[25.953,69.697],[25.944,69.685],[25.893,69.666],[25.901,69.658],[25.955,69.647],[25.963,69.633],[25.959,69.622],[25.974,69.608],[25.936,69.572],[25.875,69.554],[25.844,69.552],[25.84,69.543],[25.876,69.526],[25.847,69.493],[25.863,69.478],[25.834,69.467],[25.824,69.448],[25.806,69.434],[25.809,69.426],[25.793,69.421],[25.821,69.416],[25.812,69.407],[25.829,69.407],[25.846,69.395],[25.815,69.377],[25.814,69.359],[25.787,69.356],[25.778,69.344],[25.76,69.341],[25.757,69.326],[25.739,69.314],[25.748,69.302],[25.737,69.299],[25.747,69.288],[25.739,69.275],[25.728,69.271],[25.729,69.262],[25.701,69.25],[25.707,69.242],[25.701,69.231],[25.711,69.227],[25.711,69.213],[25.693,69.199],[25.742,69.145],[25.721,69.112],[25.73,69.101],[25.726,69.092],[25.731,69.083],[25.725,69.081],[25.75,69.06],[25.745,69.04],[25.772,69.026],[25.774,69.013],[25.713,68.981],[25.709,68.962],[25.654,68.908],[25.627,68.893],[25.591,68.884],[25.543,68.886],[25.484,68.905],[25.4,68.891],[25.249,68.844],[25.227,68.824],[25.157,68.8],[25.124,68.753],[25.123,68.723],[25.131,68.716],[25.114,68.704],[25.108,68.681],[25.115,68.639],[25.09,68.634],[25.079,68.623],[25.024,68.624],[25.014,68.615],[24.959,68.617],[24.921,68.606],[24.907,68.582],[24.903,68.555],[24.857,68.562],[24.783,68.636],[24.608,68.682],[24.251,68.727],[24.208,68.745],[24.153,68.754],[24.159,68.79],[24.076,68.78],[23.983,68.827],[23.871,68.837],[23.775,68.819],[23.731,68.751],[23.674,68.706],[23.441,68.692],[23.168,68.629],[23.046,68.689],[22.801,68.688],[22.535,68.745],[22.375,68.717],[22.341,68.827],[22.192,68.919],[22.176,68.956],[21.984,69.073],[21.723,69.214],[21.627,69.277],[21.279,69.312],[21.096,69.261],[21.003,69.222],[20.988,69.192],[21.047,69.14],[21.056,69.122],[21.109,69.104],[21.058,69.036],[20.717,69.12],[20.552,69.06],[20.675,69.018],[20.795,69.011],[20.864,68.986],[20.911,68.981],[20.935,68.967],[20.934,68.949],[20.918,68.933],[20.888,68.927],[20.885,68.907],[20.906,68.895],[21.072,68.869],[21.217,68.817],[21.305,68.756],[21.406,68.749],[21.464,68.687],[21.496,68.675],[21.572,68.667],[21.717,68.619],[21.737,68.588],[21.919,68.568],[22.036,68.507],[22.037,68.493],[22.072,68.477],[22.303,68.476],[22.371,68.468],[22.374,68.456],[22.457,68.452],[22.608,68.425],[22.662,68.427],[22.749,68.385],[22.808,68.395],[22.904,68.337],[23.067,68.29],[23.082,68.265],[23.14,68.234],[23.155,68.217],[23.149,68.194],[23.16,68.179],[23.149,68.139],[23.166,68.122],[23.272,68.145],[23.307,68.146],[23.331,68.128],[23.383,68.051],[23.485,68.016],[23.574,67.973],[23.643,67.963],[23.662,67.95],[23.661,67.933],[23.636,67.913],[23.533,67.893],[23.499,67.882],[23.481,67.865],[23.477,67.841],[23.485,67.737],[23.519,67.653],[23.55,67.611],[23.554,67.587],[23.473,67.555],[23.485,67.543],[23.431,67.486],[23.444,67.461],[23.477,67.444],[23.595,67.454],[23.765,67.42],[23.751,67.346],[23.786,67.338],[23.763,67.306],[23.735,67.29],[23.603,67.26],[23.591,67.225],[23.615,67.214],[23.574,67.173],[23.581,67.153],[23.667,67.098],[23.677,67.058],[23.72,67.017],[23.744,67.001],[23.817,66.975],[23.874,66.925],[23.933,66.889],[24.004,66.805],[23.999,66.796],[23.984,66.793],[23.939,66.791],[23.892,66.751],[23.903,66.686],[23.882,66.632],[23.893,66.596],[23.882,66.564],[23.808,66.539],[23.806,66.528],[23.786,66.518],[23.731,66.503],[23.731,66.487],[23.677,66.474],[23.652,66.459],[23.642,66.436],[23.666,66.406],[23.677,66.364],[23.664,66.326],[23.666,66.305],[23.724,66.207],[23.751,66.192],[23.889,66.161],[23.911,66.149],[23.975,66.073],[24.02,66.049],[24.055,65.985],[24.055,65.948],[24.15,65.864],[24.122,65.858],[24.154,65.818],[24.134,65.797],[24.128,65.778],[24.173,65.725],[24.165,65.695],[24.178,65.661],[24.14,65.543],[24.256,65.545],[24.367,65.566],[24.421,65.589],[24.449,65.57],[24.496,65.556],[24.6,65.551],[24.649,65.54],[24.679,65.517],[24.689,65.483],[24.708,65.465],[24.678,65.447],[24.664,65.43],[24.667,65.361],[24.693,65.329],[24.747,65.299],[24.713,65.268],[24.712,65.224],[24.74,65.194],[24.813,65.172],[24.816,65.164],[24.567,65.14],[24.486,65.111],[24.427,65.078],[24.41,65.061],[24.405,65.042],[24.407,65.022],[24.43,64.984],[24.508,64.929],[24.573,64.908],[24.412,64.85],[24.392,64.827],[24.399,64.793],[24.393,64.782],[24.296,64.766],[24.225,64.735],[24.203,64.706],[24.225,64.659],[24.216,64.645],[24.209,64.601],[24.142,64.58],[24.112,64.56],[24.098,64.54],[24.058,64.515],[23.962,64.487],[23.878,64.436],[23.852,64.406],[23.784,64.381],[23.762,64.351],[23.686,64.302],[23.677,64.302],[23.665,64.333],[23.637,64.354],[23.499,64.394],[23.394,64.395],[23.314,64.367],[23.292,64.337],[23.306,64.305],[23.344,64.282],[23.454,64.249],[23.407,64.216],[23.391,64.189],[23.393,64.163],[23.308,64.146],[23.26,64.121],[23.227,64.063],[23.224,64.036],[23.103,64.037],[23.059,64.026],[23.027,64.008],[22.996,64.004],[22.922,64.022],[22.844,64.02],[22.723,64],[22.623,63.973],[22.494,63.876],[22.457,63.825],[22.397,63.771],[22.389,63.755],[22.392,63.737],[22.424,63.711],[22.322,63.691],[22.268,63.67],[22.198,63.617],[22.184,63.589],[22.108,63.582],[22.046,63.559],[22.023,63.538],[22.02,63.514],[21.935,63.513],[21.855,63.529],[21.708,63.532],[21.637,63.514],[21.578,63.477],[21.518,63.486],[21.463,63.483],[21.41,63.468],[21.378,63.442],[21.365,63.441],[21.292,63.458],[21.247,63.488],[21.19,63.503],[21.057,63.503],[20.976,63.488],[20.94,63.47],[20.915,63.446],[20.907,63.419],[20.91,63.401],[20.889,63.373],[20.883,63.327],[20.895,63.304],[20.932,63.283],[20.948,63.254],[20.986,63.217],[20.908,63.219],[20.843,63.203],[20.783,63.212],[20.729,63.209],[20.616,63.185],[20.573,63.163],[20.559,63.141],[20.561,63.117],[20.592,63.091],[20.607,63.05],[20.649,63.027],[20.617,63.008],[20.604,62.986],[20.614,62.948],[20.628,62.932],[20.684,62.908],[20.754,62.902],[20.816,62.88],[20.882,62.877],[20.956,62.834],[20.954,62.812],[20.967,62.793],[20.94,62.779],[20.918,62.754],[20.913,62.736],[20.925,62.692],[20.905,62.672],[20.897,62.648],[20.918,62.603],[20.906,62.575],[20.919,62.532],[20.94,62.502],[20.968,62.484],[20.978,62.46],[20.961,62.424],[20.968,62.4],[21.022,62.367],[21.05,62.333],[21.053,62.311],[21.067,62.294],[21.112,62.272],[21.153,62.239],[21.153,62.218],[21.169,62.195],[21.148,62.121],[21.153,62.081],[21.117,62.035],[21.113,62.011],[21.143,61.979],[21.151,61.96],[21.142,61.935],[21.146,61.916],[21.179,61.888],[21.169,61.868],[21.173,61.839],[21.212,61.796],[21.264,61.772],[21.269,61.751],[21.227,61.693],[21.197,61.671],[21.189,61.641],[21.247,61.579],[21.301,61.555],[21.298,61.542],[21.23,61.52],[21.204,61.491],[21.208,61.46],[21.192,61.434],[21.192,61.415],[21.212,61.387],[21.246,61.366],[21.244,61.336],[21.255,61.317],[21.221,61.289],[21.214,61.258],[21.193,61.232],[21.201,61.19],[21.174,61.168],[21.146,61.113],[21.103,61.099],[21.075,61.077],[21.067,61.059],[21.069,61.041],[21.022,61.022],[21.002,61.005],[20.994,60.985],[20.947,60.97],[20.919,60.948],[20.91,60.913],[20.876,60.873],[20.867,60.848],[20.879,60.823],[20.934,60.782],[20.891,60.761],[20.872,60.731],[20.812,60.707],[20.74,60.695],[20.692,60.665],[20.597,60.649],[20.549,60.618],[20.512,60.606],[20.481,60.587],[20.398,60.574],[20.347,60.554],[20.316,60.582],[20.274,60.598],[20.17,60.603],[20.095,60.579],[20.071,60.556],[20.064,60.526],[20.049,60.523],[19.96,60.536],[19.823,60.535],[19.754,60.515],[19.681,60.506],[19.632,60.488],[19.543,60.489],[19.475,60.469],[19.412,60.471],[19.351,60.459],[19.304,60.429],[19.281,60.376],[19.251,60.336],[19.174,60.32],[19.132,60.287],[19.129,60.262],[19.15,60.233],[19.148,60.211],[19.169,60.17],[19.17,60.143],[19.185,60.125],[19.229,60.102],[19.29,60.093],[19.387,60.103],[19.431,60.115],[19.538,60.068],[19.592,60.058],[19.725,60.016],[19.799,59.974],[19.831,59.931],[19.862,59.91],[19.754,59.871],[19.731,59.855],[19.718,59.83],[19.721,59.81],[19.736,59.792],[19.791,59.765],[19.867,59.759],[19.988,59.773],[20.063,59.799],[20.09,59.834],[20.21,59.846],[20.234,59.817],[20.271,59.799],[20.37,59.791],[20.414,59.768],[20.462,59.759],[20.641,59.757],[20.688,59.768],[20.722,59.785],[20.809,59.799],[20.838,59.761],[20.954,59.706],[21.031,59.697],[21.094,59.706],[21.187,59.702],[21.244,59.71],[21.297,59.7],[21.359,59.673],[21.371,59.648],[21.401,59.627],[21.444,59.613],[21.495,59.609],[21.578,59.625],[21.611,59.646],[21.624,59.671],[21.651,59.677],[21.755,59.666],[21.825,59.682],[21.952,59.686],[22.011,59.701],[22.168,59.685],[22.217,59.693],[22.257,59.711],[22.338,59.667],[22.422,59.653],[22.558,59.661],[22.6,59.676],[22.628,59.698],[22.707,59.691],[22.85,59.706],[22.913,59.687],[22.976,59.683],[23.036,59.695],[23.08,59.721],[23.192,59.721],[23.243,59.73],[23.302,59.701],[23.39,59.695],[23.501,59.726],[23.556,59.72],[23.628,59.728],[23.702,59.758],[23.734,59.791],[23.79,59.805],[23.853,59.807],[23.916,59.83],[23.966,59.83],[24.022,59.844],[24.109,59.835],[24.178,59.846],[24.204,59.825],[24.244,59.809],[24.332,59.803],[24.39,59.818],[24.427,59.843],[24.568,59.898],[24.709,59.936],[24.742,59.956],[24.754,59.976],[24.866,60.018],[24.913,60.026],[24.985,60.012],[25.049,60.011],[25.103,60.024],[25.166,60.026],[25.279,60.054],[25.344,60.039],[25.458,60.04],[25.515,60.055],[25.549,60.077],[25.648,60.061],[25.7,60.062],[25.747,60.072],[25.785,60.093],[25.899,60.104],[25.962,60.126],[26.052,60.13],[26.107,60.115],[26.166,60.114],[26.223,60.097],[26.287,60.097],[26.344,60.111],[26.377,60.132],[26.391,60.163],[26.38,60.188],[26.438,60.19],[26.488,60.201],[26.564,60.184],[26.628,60.187],[26.673,60.199],[26.714,60.231],[26.756,60.245],[26.832,60.241],[26.894,60.253],[26.894,60.221],[26.915,60.198],[26.964,60.178],[27.027,60.171],[27.155,60.195],[27.315,60.201],[27.502,60.253],[27.528,60.247],[27.506,60.224],[27.501,60.205],[27.509,60.186],[27.526,60.169],[27.587,60.145],[27.678,60.14],[27.769,60.16],[27.811,60.193],[27.815,60.218],[27.793,60.248],[27.755,60.266],[27.706,60.276],[27.746,60.301],[27.76,60.334],[27.823,60.362],[27.859,60.345],[27.907,60.336],[27.971,60.339],[28.04,60.359],[28.09,60.342],[28.153,60.338],[28.233,60.358],[28.256,60.374],[28.27,60.398],[28.293,60.39],[28.285,60.355],[28.311,60.322],[28.432,60.248],[28.571,60.205],[28.634,60.195],[28.721,60.198],[28.797,60.22],[28.849,60.205],[28.887,60.162],[28.932,60.134],[29.097,60.1],[29.467,60.096],[29.601,60.128],[29.662,60.124],[29.835,60.055],[29.976,60.06],[29.994,60.084],[29.988,60.105]]],[[[28.091,60.242],[28.085,60.268],[28.051,60.295],[28.004,60.31],[27.951,60.314],[27.9,60.308],[27.858,60.294],[27.83,60.271],[27.82,60.242],[27.832,60.216],[27.862,60.195],[27.906,60.182],[27.957,60.177],[28.011,60.183],[28.053,60.198],[28.081,60.22],[28.091,60.242]]],[[[27.292,59.787],[27.347,59.818],[27.359,59.837],[27.361,59.856],[27.337,59.891],[27.27,59.924],[27.195,59.934],[27.111,59.921],[27.059,59.892],[27.042,59.847],[26.976,59.879],[27.018,59.913],[27.02,59.946],[27.064,59.952],[27.119,59.971],[27.149,59.993],[27.163,60.018],[27.16,60.045],[27.144,60.07],[27.08,60.136],[27.029,60.162],[26.982,60.171],[26.927,60.17],[26.88,60.16],[26.837,60.138],[26.817,60.121],[26.809,60.095],[26.831,60.032],[26.845,60.015],[26.764,59.992],[26.729,59.955],[26.731,59.929],[26.745,59.911],[26.819,59.871],[26.778,59.846],[26.763,59.813],[26.783,59.774],[26.832,59.749],[26.967,59.732],[27.047,59.752],[27.07,59.768],[27.084,59.793],[27.133,59.774],[27.183,59.767],[27.234,59.77],[27.292,59.787]]],[[[28.229,59.96],[28.347,59.933],[28.424,59.934],[28.469,59.946],[28.515,59.972],[28.531,59.989],[28.535,60.015],[28.513,60.058],[28.484,60.079],[28.424,60.099],[28.356,60.104],[28.241,60.09],[28.202,60.073],[28.179,60.049],[28.144,60.07],[28.043,60.101],[27.982,60.103],[27.921,60.091],[27.844,60.104],[27.79,60.104],[27.743,60.093],[27.701,60.072],[27.676,60.053],[27.663,60.028],[27.663,59.99],[27.68,59.965],[27.73,59.923],[27.795,59.903],[27.89,59.907],[27.964,59.927],[28.01,59.953],[28.115,59.957],[28.18,59.988],[28.229,59.96]]]]}},{"type":"Feature","properties":{"NAME":"Kingdom of Hungary","ADMIN_LEVEL":3,"OHM_RELATION_ID":2829140,"START_DATE":"1779-04-23","END_DATE":"1848-04-10","SUBJECTO":"Austrian Empire"},"geometry":{"type":"Polygon","coordinates":[[[15.986,46.827],[15.998,46.811],[15.987,46.749],[16.002,46.719],[16.025,46.711],[16.042,46.686],[16.034,46.652],[16.105,46.612],[16.104,46.606],[16.152,46.601],[16.266,46.541],[16.238,46.511],[16.241,46.486],[16.259,46.47],[16.273,46.415],[16.308,46.397],[16.302,46.378],[16.363,46.319],[16.383,46.314],[16.405,46.319],[16.415,46.334],[16.424,46.328],[16.435,46.332],[16.454,46.317],[16.466,46.325],[16.511,46.31],[16.535,46.312],[16.566,46.329],[16.61,46.308],[16.639,46.309],[16.649,46.32],[16.66,46.312],[16.665,46.321],[16.692,46.324],[16.716,46.308],[16.718,46.321],[16.732,46.313],[16.743,46.323],[16.738,46.31],[16.761,46.304],[16.765,46.315],[16.772,46.305],[16.805,46.308],[16.814,46.289],[16.835,46.307],[16.841,46.301],[16.831,46.289],[16.842,46.283],[16.865,46.279],[16.88,46.289],[16.892,46.278],[16.87,46.272],[16.871,46.25],[16.888,46.256],[16.898,46.25],[16.89,46.24],[16.875,46.242],[16.878,46.237],[16.926,46.241],[16.938,46.254],[16.955,46.239],[16.973,46.243],[16.973,46.225],[17.006,46.223],[17.051,46.204],[17.066,46.21],[17.068,46.195],[17.082,46.186],[17.122,46.18],[17.126,46.169],[17.159,46.169],[17.159,46.156],[17.181,46.149],[17.185,46.133],[17.175,46.128],[17.182,46.121],[17.177,46.108],[17.209,46.108],[17.213,46.114],[17.218,46.11],[17.212,46.102],[17.224,46.099],[17.217,46.083],[17.2,46.079],[17.239,46.077],[17.239,46.068],[17.252,46.066],[17.23,46.065],[17.238,46.058],[17.27,46.057],[17.257,46.046],[17.26,46.033],[17.293,46.032],[17.294,46.023],[17.272,46.022],[17.258,46.012],[17.279,46.002],[17.301,46.004],[17.307,46],[17.296,45.993],[17.298,45.984],[17.318,45.992],[17.325,45.986],[17.309,45.972],[17.311,45.967],[17.334,45.977],[17.336,45.984],[17.327,45.989],[17.331,45.995],[17.357,45.974],[17.363,45.991],[17.375,45.988],[17.368,45.978],[17.375,45.972],[17.361,45.969],[17.362,45.961],[17.386,45.966],[17.392,45.961],[17.354,45.953],[17.346,45.961],[17.347,45.941],[17.377,45.948],[17.389,45.934],[17.411,45.94],[17.415,45.93],[17.429,45.927],[17.434,45.928],[17.426,45.945],[17.432,45.949],[17.467,45.947],[17.483,45.958],[17.477,45.949],[17.496,45.941],[17.498,45.962],[17.505,45.96],[17.503,45.933],[17.52,45.933],[17.513,45.949],[17.518,45.951],[17.546,45.917],[17.553,45.925],[17.547,45.936],[17.571,45.936],[17.585,45.927],[17.59,45.903],[17.61,45.914],[17.636,45.888],[17.65,45.891],[17.632,45.864],[17.659,45.859],[17.662,45.854],[17.648,45.846],[17.648,45.84],[17.663,45.843],[17.65,45.833],[17.653,45.826],[17.677,45.84],[17.685,45.833],[17.682,45.822],[17.695,45.819],[17.703,45.827],[17.694,45.834],[17.702,45.838],[17.716,45.811],[17.728,45.832],[17.753,45.814],[17.765,45.834],[17.774,45.835],[17.784,45.805],[17.815,45.812],[17.844,45.79],[17.856,45.801],[17.855,45.786],[17.848,45.784],[17.864,45.772],[17.9,45.794],[17.926,45.78],[17.921,45.802],[17.944,45.787],[17.944,45.798],[17.954,45.804],[17.965,45.801],[17.97,45.79],[17.995,45.798],[18.029,45.78],[18.036,45.786],[18.037,45.803],[18.047,45.808],[18.058,45.793],[18.057,45.771],[18.085,45.786],[18.083,45.8],[18.089,45.8],[18.102,45.783],[18.098,45.771],[18.132,45.785],[18.142,45.783],[18.136,45.772],[18.145,45.763],[18.175,45.777],[18.168,45.79],[18.183,45.778],[18.203,45.788],[18.242,45.766],[18.239,45.752],[18.269,45.748],[18.258,45.735],[18.273,45.742],[18.274,45.757],[18.299,45.757],[18.304,45.747],[18.294,45.739],[18.298,45.735],[18.309,45.736],[18.322,45.752],[18.335,45.752],[18.33,45.719],[18.368,45.717],[18.364,45.713],[18.41,45.696],[18.424,45.71],[18.431,45.706],[18.416,45.692],[18.428,45.689],[18.44,45.69],[18.439,45.707],[18.455,45.71],[18.462,45.699],[18.457,45.692],[18.466,45.687],[18.471,45.712],[18.485,45.714],[18.491,45.709],[18.475,45.695],[18.49,45.68],[18.499,45.683],[18.489,45.673],[18.49,45.658],[18.513,45.655],[18.53,45.665],[18.532,45.658],[18.517,45.651],[18.521,45.639],[18.531,45.642],[18.537,45.663],[18.546,45.664],[18.548,45.648],[18.536,45.641],[18.549,45.639],[18.549,45.632],[18.572,45.632],[18.547,45.623],[18.557,45.616],[18.571,45.623],[18.578,45.615],[18.574,45.6],[18.597,45.606],[18.587,45.595],[18.609,45.602],[18.621,45.593],[18.633,45.597],[18.619,45.582],[18.611,45.588],[18.6,45.58],[18.61,45.573],[18.657,45.577],[18.68,45.564],[18.736,45.564],[18.766,45.543],[18.825,45.55],[18.836,45.558],[18.828,45.539],[18.845,45.533],[18.861,45.536],[18.859,45.552],[18.87,45.552],[18.883,45.518],[18.906,45.529],[18.902,45.539],[18.883,45.541],[18.885,45.55],[18.95,45.537],[19.014,45.554],[19.034,45.534],[19.064,45.532],[19.096,45.519],[19.101,45.504],[19.087,45.489],[19.053,45.485],[19.002,45.495],[18.992,45.482],[18.99,45.451],[19.028,45.421],[19.029,45.409],[18.982,45.397],[18.97,45.38],[19.026,45.344],[19.093,45.335],[19.109,45.297],[19.145,45.28],[19.195,45.265],[19.22,45.265],[19.269,45.28],[19.275,45.271],[19.259,45.246],[19.34,45.232],[19.453,45.234],[19.529,45.252],[19.544,45.248],[19.571,45.217],[19.585,45.212],[19.703,45.228],[19.782,45.222],[19.849,45.235],[19.861,45.244],[19.859,45.277],[19.878,45.296],[19.864,45.31],[19.881,45.333],[19.948,45.378],[19.953,45.386],[19.941,45.393],[19.977,45.454],[19.887,45.482],[19.883,45.545],[19.909,45.534],[19.936,45.543],[19.953,45.516],[19.985,45.499],[20.061,45.516],[20.054,45.477],[20.09,45.493],[20.087,45.522],[20.11,45.522],[20.133,45.495],[20.171,45.473],[20.169,45.461],[20.188,45.46],[20.185,45.447],[20.172,45.446],[20.172,45.44],[20.212,45.448],[20.22,45.441],[20.219,45.408],[20.234,45.415],[20.234,45.41],[20.205,45.39],[20.206,45.383],[20.229,45.377],[20.213,45.367],[20.229,45.357],[20.209,45.337],[20.225,45.333],[20.247,45.349],[20.265,45.34],[20.268,45.333],[20.252,45.322],[20.269,45.314],[20.24,45.313],[20.229,45.306],[20.238,45.303],[20.24,45.285],[20.277,45.267],[20.308,45.231],[20.356,45.258],[20.38,45.285],[20.491,45.269],[20.537,45.3],[20.515,45.322],[20.535,45.349],[20.601,45.374],[20.67,45.337],[20.647,45.323],[20.648,45.313],[20.664,45.311],[20.645,45.31],[20.644,45.302],[20.758,45.273],[20.816,45.278],[21.104,45.146],[21.115,45.085],[21.133,45.059],[21.164,45.066],[21.196,45.049],[21.217,45.035],[21.217,45.015],[21.253,44.997],[21.286,45.003],[21.326,44.978],[21.333,44.959],[21.347,44.95],[21.368,44.948],[21.401,44.98],[21.437,44.962],[21.507,44.944],[21.527,44.927],[21.579,44.931],[21.631,44.888],[21.627,44.87],[21.641,44.851],[21.633,44.847],[21.662,44.827],[21.647,44.811],[21.652,44.794],[21.672,44.785],[21.674,44.772],[21.661,44.756],[21.658,44.725],[21.705,44.716],[21.702,44.706],[21.715,44.702],[21.729,44.712],[21.722,44.716],[21.758,44.732],[21.759,44.738],[21.75,44.741],[21.759,44.746],[21.76,44.769],[21.774,44.774],[21.779,44.798],[21.805,44.813],[21.804,44.829],[21.818,44.828],[21.821,44.852],[21.8,44.894],[21.827,44.911],[21.836,44.943],[21.874,44.979],[21.884,44.972],[21.899,44.983],[21.904,45.005],[21.918,45.018],[21.918,45.033],[21.907,45.046],[21.908,45.067],[21.938,45.064],[21.945,45.098],[21.976,45.123],[22.011,45.111],[22.049,45.178],[22.072,45.181],[22.072,45.194],[22.058,45.201],[22.06,45.212],[22.091,45.245],[22.098,45.28],[22.113,45.292],[22.087,45.318],[22.1,45.339],[22.171,45.384],[22.194,45.434],[22.189,45.452],[22.197,45.464],[22.18,45.474],[22.184,45.486],[22.175,45.491],[22.225,45.511],[22.243,45.583],[22.268,45.588],[22.291,45.608],[22.307,45.654],[22.373,45.667],[22.418,45.664],[22.427,45.675],[22.469,45.694],[22.466,45.723],[22.469,45.728],[22.469,45.73],[22.47,45.73],[22.471,45.732],[22.484,45.736],[22.511,45.747],[22.551,45.777],[22.534,45.801],[22.499,45.785],[22.481,45.787],[22.481,45.789],[22.479,45.789],[22.472,45.801],[22.47,45.802],[22.47,45.805],[22.475,45.835],[22.475,45.838],[22.463,45.837],[22.46,45.837],[22.46,45.848],[22.437,45.855],[22.411,45.855],[22.405,45.86],[22.402,45.861],[22.384,45.88],[22.375,45.888],[22.403,45.903],[22.406,45.905],[22.426,45.933],[22.419,45.941],[22.419,45.942],[22.418,45.944],[22.428,45.96],[22.421,45.981],[22.44,46.026],[22.427,46.034],[22.434,46.048],[22.431,46.079],[22.418,46.081],[22.414,46.086],[22.409,46.088],[22.409,46.091],[22.406,46.095],[22.412,46.109],[22.433,46.106],[22.454,46.129],[22.466,46.146],[22.463,46.153],[22.453,46.163],[22.454,46.17],[22.436,46.208],[22.462,46.222],[22.439,46.228],[22.443,46.239],[22.435,46.246],[22.399,46.252],[22.388,46.259],[22.387,46.277],[22.37,46.283],[22.379,46.305],[22.409,46.313],[22.408,46.331],[22.441,46.33],[22.436,46.348],[22.424,46.351],[22.436,46.391],[22.514,46.388],[22.573,46.398],[22.64,46.392],[22.675,46.409],[22.72,46.431],[22.687,46.442],[22.691,46.455],[22.69,46.456],[22.678,46.469],[22.675,46.483],[22.673,46.487],[22.674,46.488],[22.674,46.49],[22.676,46.523],[22.691,46.519],[22.726,46.546],[22.813,46.556],[22.812,46.569],[22.815,46.569],[22.816,46.577],[22.812,46.589],[22.808,46.592],[22.803,46.614],[22.802,46.618],[22.802,46.62],[22.812,46.636],[22.792,46.628],[22.792,46.63],[22.788,46.629],[22.793,46.64],[22.773,46.651],[22.774,46.678],[22.811,46.705],[22.788,46.717],[22.74,46.716],[22.709,46.738],[22.712,46.764],[22.672,46.768],[22.649,46.782],[22.654,46.792],[22.634,46.798],[22.704,46.806],[22.727,46.816],[22.754,46.876],[22.778,46.898],[22.776,46.909],[22.789,46.929],[22.782,46.952],[22.795,46.977],[22.756,47.002],[22.711,47.01],[22.69,47.033],[22.685,47.051],[22.631,47.056],[22.615,47.061],[22.593,47.064],[22.515,47.109],[22.532,47.142],[22.511,47.157],[22.511,47.158],[22.506,47.161],[22.494,47.187],[22.512,47.195],[22.507,47.205],[22.521,47.225],[22.518,47.235],[22.52,47.235],[22.52,47.237],[22.541,47.234],[22.566,47.254],[22.56,47.277],[22.555,47.291],[22.543,47.298],[22.525,47.308],[22.488,47.308],[22.488,47.309],[22.486,47.309],[22.488,47.314],[22.488,47.357],[22.465,47.371],[22.412,47.374],[22.399,47.397],[22.362,47.412],[22.363,47.426],[22.352,47.434],[22.339,47.472],[22.337,47.478],[22.341,47.49],[22.366,47.493],[22.368,47.499],[22.368,47.506],[22.371,47.508],[22.372,47.51],[22.374,47.51],[22.383,47.515],[22.398,47.508],[22.423,47.542],[22.451,47.549],[22.448,47.559],[22.467,47.578],[22.475,47.579],[22.483,47.584],[22.494,47.58],[22.501,47.59],[22.502,47.593],[22.503,47.593],[22.504,47.594],[22.513,47.592],[22.531,47.605],[22.59,47.608],[22.595,47.619],[22.625,47.621],[22.638,47.605],[22.631,47.599],[22.632,47.597],[22.661,47.603],[22.664,47.602],[22.667,47.603],[22.665,47.602],[22.683,47.598],[22.685,47.585],[22.726,47.594],[22.728,47.594],[22.758,47.588],[22.762,47.587],[22.763,47.579],[22.75,47.571],[22.763,47.563],[22.788,47.555],[22.805,47.554],[22.805,47.55],[22.81,47.548],[22.806,47.533],[22.812,47.529],[22.802,47.524],[22.801,47.51],[22.804,47.499],[22.8,47.498],[22.8,47.495],[22.759,47.487],[22.737,47.461],[22.722,47.457],[22.696,47.466],[22.643,47.459],[22.653,47.446],[22.647,47.426],[22.652,47.394],[22.671,47.38],[22.776,47.417],[22.789,47.439],[22.813,47.453],[22.84,47.445],[22.852,47.449],[22.856,47.45],[22.857,47.45],[22.861,47.451],[22.907,47.446],[22.911,47.451],[22.921,47.474],[22.936,47.48],[22.941,47.485],[22.94,47.489],[22.944,47.488],[22.945,47.49],[22.998,47.481],[23.045,47.489],[23.046,47.498],[23.044,47.517],[23.052,47.555],[23.065,47.571],[23.148,47.627],[23.279,47.613],[23.284,47.604],[23.288,47.602],[23.289,47.595],[23.289,47.594],[23.291,47.573],[23.332,47.574],[23.349,47.567],[23.345,47.575],[23.354,47.581],[23.357,47.572],[23.351,47.572],[23.362,47.567],[23.361,47.573],[23.364,47.571],[23.363,47.575],[23.373,47.571],[23.374,47.576],[23.384,47.579],[23.39,47.588],[23.389,47.594],[23.397,47.596],[23.399,47.6],[23.385,47.608],[23.385,47.61],[23.382,47.611],[23.384,47.614],[23.397,47.611],[23.394,47.615],[23.379,47.619],[23.377,47.619],[23.377,47.62],[23.373,47.621],[23.377,47.625],[23.4,47.629],[23.413,47.647],[23.416,47.647],[23.417,47.648],[23.472,47.654],[23.506,47.672],[23.51,47.67],[23.511,47.67],[23.511,47.669],[23.513,47.668],[23.511,47.664],[23.509,47.642],[23.493,47.636],[23.487,47.619],[23.501,47.618],[23.505,47.624],[23.503,47.619],[23.507,47.621],[23.507,47.622],[23.509,47.622],[23.51,47.621],[23.533,47.614],[23.536,47.61],[23.55,47.609],[23.572,47.596],[23.576,47.596],[23.572,47.588],[23.575,47.585],[23.595,47.577],[23.616,47.573],[23.623,47.574],[23.628,47.587],[23.683,47.573],[23.697,47.591],[23.699,47.59],[23.7,47.591],[23.738,47.579],[23.759,47.585],[23.793,47.612],[23.811,47.628],[23.821,47.644],[23.824,47.65],[23.825,47.651],[23.827,47.654],[23.836,47.658],[23.842,47.662],[23.847,47.684],[23.864,47.694],[23.9,47.676],[23.908,47.659],[23.973,47.659],[23.983,47.662],[23.986,47.666],[24.026,47.673],[24.032,47.658],[24.055,47.654],[24.068,47.639],[24.101,47.634],[24.095,47.615],[24.154,47.614],[24.176,47.58],[24.178,47.561],[24.215,47.55],[24.267,47.517],[24.277,47.527],[24.279,47.545],[24.302,47.558],[24.302,47.576],[24.326,47.567],[24.355,47.573],[24.387,47.604],[24.557,47.573],[24.56,47.564],[24.625,47.576],[24.653,47.569],[24.655,47.555],[24.694,47.559],[24.723,47.575],[24.76,47.569],[24.789,47.577],[24.808,47.566],[24.822,47.594],[24.859,47.592],[24.899,47.603],[24.963,47.596],[24.998,47.575],[25.045,47.56],[25.067,47.566],[25.073,47.572],[25.073,47.609],[25.056,47.634],[25.053,47.657],[25.024,47.666],[24.945,47.718],[24.924,47.724],[24.923,47.734],[24.886,47.731],[24.878,47.753],[24.836,47.78],[24.834,47.797],[24.822,47.806],[24.822,47.821],[24.787,47.825],[24.767,47.839],[24.753,47.83],[24.734,47.844],[24.708,47.84],[24.704,47.851],[24.671,47.865],[24.666,47.875],[24.674,47.896],[24.635,47.925],[24.628,47.948],[24.596,47.947],[24.579,47.967],[24.563,47.969],[24.577,48.018],[24.627,48.047],[24.595,48.091],[24.56,48.105],[24.555,48.118],[24.53,48.124],[24.534,48.129],[24.523,48.144],[24.504,48.153],[24.5,48.16],[24.52,48.177],[24.51,48.186],[24.526,48.196],[24.521,48.2],[24.531,48.213],[24.545,48.216],[24.523,48.236],[24.486,48.243],[24.488,48.28],[24.445,48.302],[24.441,48.314],[24.432,48.314],[24.417,48.331],[24.358,48.352],[24.351,48.362],[24.357,48.376],[24.35,48.382],[24.306,48.396],[24.288,48.399],[24.281,48.392],[24.289,48.381],[24.259,48.349],[24.24,48.359],[24.178,48.366],[24.182,48.375],[24.155,48.386],[24.152,48.401],[24.141,48.409],[24.146,48.435],[24.132,48.438],[24.127,48.468],[24.141,48.482],[24.115,48.502],[24.13,48.519],[24.126,48.532],[24.089,48.527],[24.077,48.512],[24.067,48.518],[24.032,48.501],[24.003,48.507],[23.974,48.477],[23.981,48.466],[23.963,48.458],[23.925,48.465],[23.908,48.484],[23.919,48.494],[23.916,48.508],[23.925,48.513],[23.914,48.534],[23.929,48.552],[23.907,48.563],[23.892,48.554],[23.862,48.554],[23.833,48.568],[23.835,48.575],[23.805,48.58],[23.791,48.594],[23.796,48.601],[23.788,48.604],[23.797,48.632],[23.779,48.644],[23.744,48.646],[23.733,48.638],[23.706,48.639],[23.637,48.685],[23.638,48.699],[23.626,48.706],[23.597,48.705],[23.592,48.718],[23.515,48.734],[23.469,48.718],[23.467,48.724],[23.41,48.736],[23.396,48.733],[23.38,48.742],[23.361,48.771],[23.325,48.753],[23.286,48.776],[23.268,48.762],[23.201,48.76],[23.153,48.832],[23.134,48.834],[23.131,48.854],[23.098,48.863],[23.06,48.846],[23.047,48.853],[23.02,48.848],[23,48.83],[22.975,48.845],[22.971,48.874],[22.903,48.902],[22.878,48.933],[22.872,48.946],[22.88,48.961],[22.919,48.971],[22.914,48.989],[22.9,49.002],[22.847,49.003],[22.835,49.024],[22.813,49.025],[22.765,49.054],[22.755,49.043],[22.718,49.053],[22.683,49.039],[22.652,49.051],[22.629,49.077],[22.582,49.097],[22.563,49.088],[22.538,49.094],[22.5,49.086],[22.459,49.103],[22.426,49.099],[22.392,49.118],[22.365,49.146],[22.332,49.145],[22.32,49.136],[22.227,49.153],[22.235,49.174],[22.223,49.184],[22.188,49.174],[22.147,49.191],[22.143,49.2],[22.062,49.212],[22.031,49.225],[22.041,49.254],[22.034,49.261],[22.035,49.277],[21.985,49.309],[21.965,49.346],[21.905,49.352],[21.875,49.374],[21.859,49.369],[21.839,49.392],[21.803,49.382],[21.788,49.367],[21.789,49.357],[21.778,49.356],[21.764,49.382],[21.725,49.4],[21.724,49.411],[21.697,49.418],[21.682,49.411],[21.661,49.416],[21.632,49.446],[21.591,49.434],[21.564,49.441],[21.549,49.433],[21.533,49.436],[21.517,49.418],[21.493,49.429],[21.472,49.414],[21.434,49.412],[21.4,49.434],[21.374,49.433],[21.342,49.451],[21.304,49.449],[21.273,49.46],[21.266,49.447],[21.224,49.426],[21.227,49.417],[21.209,49.404],[21.182,49.402],[21.151,49.428],[21.124,49.436],[21.114,49.425],[21.092,49.429],[21.05,49.42],[21.053,49.407],[21.1,49.379],[21.095,49.367],[21.075,49.359],[21.045,49.365],[20.989,49.328],[20.994,49.313],[20.986,49.307],[20.966,49.309],[20.927,49.296],[20.903,49.316],[20.904,49.323],[20.875,49.32],[20.882,49.333],[20.867,49.346],[20.857,49.348],[20.837,49.334],[20.811,49.348],[20.797,49.344],[20.8,49.357],[20.811,49.355],[20.807,49.361],[20.782,49.362],[20.784,49.375],[20.759,49.373],[20.762,49.383],[20.748,49.39],[20.758,49.4],[20.743,49.404],[20.74,49.416],[20.695,49.42],[20.648,49.401],[20.616,49.418],[20.613,49.403],[20.599,49.388],[20.575,49.376],[20.512,49.393],[20.507,49.402],[20.467,49.416],[20.435,49.418],[20.429,49.411],[20.434,49.397],[20.419,49.405],[20.408,49.393],[20.383,49.39],[20.38,49.406],[20.369,49.408],[20.361,49.395],[20.338,49.401],[20.306,49.434],[20.26,49.439],[20.226,49.461],[20.184,49.45],[20.143,49.462],[20.114,49.458],[20.097,49.427],[20.116,49.414],[20.112,49.388],[20.133,49.338],[20.15,49.323],[20.132,49.298],[20.127,49.274],[20.101,49.249],[20.102,49.225],[20.076,49.209],[20.063,49.185],[20.021,49.202],[20.005,49.22],[19.984,49.23],[19.934,49.235],[19.907,49.231],[19.899,49.212],[19.865,49.196],[19.805,49.205],[19.785,49.199],[19.759,49.214],[19.767,49.233],[19.79,49.254],[19.795,49.269],[19.821,49.276],[19.81,49.295],[19.793,49.302],[19.804,49.325],[19.795,49.345],[19.803,49.368],[19.792,49.382],[19.79,49.407],[19.803,49.478],[19.799,49.486],[19.81,49.503],[19.851,49.523],[19.843,49.541],[19.797,49.559],[19.757,49.556],[19.751,49.571],[19.729,49.576],[19.678,49.575],[19.619,49.624],[19.59,49.623],[19.587,49.613],[19.596,49.602],[19.587,49.59],[19.524,49.572],[19.481,49.587],[19.468,49.613],[19.45,49.613],[19.441,49.598],[19.409,49.591],[19.4,49.574],[19.373,49.568],[19.36,49.536],[19.261,49.531],[19.234,49.511],[19.236,49.496],[19.22,49.471],[19.228,49.464],[19.224,49.454],[19.198,49.448],[19.188,49.436],[19.197,49.414],[19.151,49.404],[19.14,49.41],[19.107,49.404],[19.073,49.418],[19.055,49.415],[19.035,49.396],[18.98,49.395],[18.969,49.41],[18.987,49.429],[18.974,49.452],[18.963,49.454],[18.963,49.486],[18.972,49.5],[18.942,49.519],[18.812,49.516],[18.745,49.489],[18.68,49.507],[18.618,49.495],[18.601,49.498],[18.598,49.509],[18.553,49.503],[18.535,49.49],[18.546,49.466],[18.492,49.435],[18.478,49.412],[18.445,49.393],[18.404,49.396],[18.415,49.37],[18.374,49.329],[18.296,49.304],[18.187,49.287],[18.181,49.268],[18.147,49.248],[18.146,49.233],[18.155,49.23],[18.149,49.205],[18.131,49.188],[18.135,49.164],[18.108,49.136],[18.12,49.121],[18.112,49.115],[18.115,49.089],[18.093,49.058],[18.07,49.037],[18.024,49.021],[17.991,49.028],[17.922,49.018],[17.914,49.011],[17.914,48.996],[17.904,48.984],[17.886,48.929],[17.871,48.923],[17.785,48.925],[17.781,48.915],[17.702,48.86],[17.631,48.854],[17.621,48.843],[17.599,48.839],[17.59,48.826],[17.524,48.812],[17.478,48.841],[17.452,48.846],[17.396,48.813],[17.36,48.814],[17.322,48.844],[17.302,48.845],[17.277,48.861],[17.195,48.875],[17.152,48.849],[17.146,48.837],[17.116,48.841],[17.088,48.787],[17.047,48.769],[17.025,48.738],[16.998,48.723],[17.005,48.699],[16.995,48.699],[16.998,48.69],[16.983,48.69],[16.976,48.682],[16.976,48.672],[16.968,48.668],[16.974,48.648],[16.959,48.64],[16.964,48.631],[16.932,48.602],[16.941,48.593],[16.935,48.59],[16.944,48.589],[16.933,48.565],[16.953,48.545],[16.934,48.529],[16.945,48.522],[16.911,48.514],[16.918,48.497],[16.89,48.492],[16.896,48.486],[16.889,48.476],[16.881,48.478],[16.849,48.447],[16.852,48.433],[16.846,48.432],[16.863,48.42],[16.852,48.417],[16.847,48.402],[16.856,48.398],[16.855,48.386],[16.834,48.382],[16.846,48.349],[16.874,48.349],[16.872,48.338],[16.908,48.326],[16.9,48.317],[16.907,48.314],[16.896,48.311],[16.891,48.3],[16.902,48.301],[16.897,48.295],[16.92,48.274],[16.952,48.274],[16.946,48.236],[16.96,48.222],[16.976,48.182],[16.964,48.17],[17.013,48.149],[17.026,48.129],[17.038,48.136],[17.055,48.132],[17.057,48.142],[17.066,48.119],[17.042,48.102],[17.036,48.084],[17.002,48.093],[17.025,48.098],[17.024,48.103],[17.005,48.099],[16.986,48.112],[16.976,48.106],[16.969,48.096],[17.016,48.075],[16.979,48.023],[16.969,48.028],[16.975,48.035],[16.968,48.041],[16.923,48.051],[16.915,48.057],[16.917,48.068],[16.874,48.072],[16.831,48.042],[16.837,48.033],[16.83,48.029],[16.798,48.028],[16.736,48.01],[16.703,48.012],[16.701,47.988],[16.696,47.988],[16.7,47.967],[16.659,47.961],[16.652,47.949],[16.634,47.946],[16.632,47.93],[16.581,47.888],[16.574,47.886],[16.519,47.944],[16.467,47.94],[16.421,47.913],[16.412,47.881],[16.348,47.868],[16.388,47.843],[16.348,47.816],[16.344,47.801],[16.332,47.801],[16.317,47.785],[16.308,47.791],[16.315,47.805],[16.278,47.81],[16.269,47.795],[16.303,47.781],[16.296,47.77],[16.295,47.724],[16.313,47.689],[16.349,47.68],[16.367,47.648],[16.37,47.623],[16.35,47.617],[16.311,47.546],[16.339,47.523],[16.333,47.505],[16.311,47.489],[16.316,47.485],[16.297,47.479],[16.306,47.474],[16.302,47.467],[16.257,47.451],[16.224,47.427],[16.101,47.413],[16.105,47.397],[16.093,47.39],[16.082,47.398],[16.097,47.407],[16.072,47.404],[16.063,47.385],[16.031,47.379],[16.034,47.372],[16.016,47.368],[16.044,47.34],[16.057,47.315],[16.086,47.245],[16.083,47.225],[16.113,47.161],[16.114,47.143],[16.107,47.119],[16.096,47.112],[16.09,47.075],[16.121,47.044],[16.115,47.03],[16.152,46.993],[16.123,46.99],[16.095,46.954],[16.095,46.935],[16.073,46.936],[16.062,46.913],[16.014,46.885],[16.005,46.845],[15.986,46.827]],[[18.603,45.602],[18.606,45.615],[18.62,45.615],[18.62,45.608],[18.609,45.603],[18.603,45.602]]]}},{"type":"Feature","properties":{"NAME":"Liechtenstein","ADMIN_LEVEL":2,"OHM_RELATION_ID":2746467,"START_DATE":"1806-07-12","END_DATE":"1960-03-17"},"geometry":{"type":"MultiPolygon","coordinates":[[[[9.623,47.108],[9.632,47.125],[9.626,47.146],[9.607,47.148],[9.579,47.171],[9.569,47.17],[9.581,47.207],[9.556,47.223],[9.564,47.246],[9.534,47.268],[9.486,47.184],[9.512,47.132],[9.519,47.097],[9.513,47.085],[9.475,47.067],[9.476,47.052],[9.541,47.064],[9.56,47.049],[9.606,47.061],[9.611,47.083],[9.625,47.09],[9.623,47.108]]]]}},{"type":"Feature","properties":{"NAME":"Monaco","ADMIN_LEVEL":2,"OHM_RELATION_ID":2851283,"START_DATE":"1815-06-09","END_DATE":"1861-02-01"},"geometry":{"type":"MultiPolygon","coordinates":[[[[7.485,43.824],[7.468,43.825],[7.481,43.796],[7.472,43.782],[7.456,43.774],[7.436,43.777],[7.436,43.761],[7.428,43.758],[7.437,43.752],[7.409,43.73],[7.419,43.725],[7.433,43.689],[7.473,43.712],[7.516,43.717],[7.538,43.738],[7.512,43.795],[7.493,43.797],[7.485,43.824]]]]}},{"type":"Feature","properties":{"NAME":"Montenegro","ADMIN_LEVEL":2,"OHM_RELATION_ID":2857706,"START_DATE":"1789","END_DATE":"1852-03-13"},"geometry":{"type":"MultiPolygon","coordinates":[[[[18.52,42.618],[18.553,42.584],[18.597,42.595],[18.604,42.621],[18.642,42.62],[18.679,42.635],[18.706,42.627],[18.722,42.581],[18.746,42.576],[18.75,42.565],[18.74,42.556],[18.78,42.515],[18.778,42.475],[18.79,42.414],[18.784,42.398],[18.772,42.395],[18.779,42.381],[18.834,42.341],[18.902,42.325],[18.929,42.311],[18.942,42.296],[18.937,42.283],[18.955,42.249],[18.988,42.211],[19.006,42.205],[19.012,42.187],[19.053,42.163],[19.08,42.158],[19.113,42.12],[19.172,42.116],[19.121,42.269],[19.159,42.322],[19.157,42.35],[19.169,42.36],[19.197,42.418],[19.184,42.456],[19.147,42.477],[19.196,42.521],[19.265,42.468],[19.306,42.477],[19.402,42.566],[19.553,42.569],[19.715,42.66],[19.836,42.78],[19.817,42.776],[19.646,42.869],[19.615,42.865],[19.576,42.802],[19.549,42.794],[19.512,42.805],[19.51,42.821],[19.482,42.844],[19.411,42.86],[19.345,42.936],[19.255,43.013],[19.15,43.005],[19.023,42.955],[19.009,42.898],[19.038,42.77],[19.015,42.711],[18.729,42.815],[18.567,42.81],[18.52,42.774],[18.52,42.747],[18.569,42.742],[18.57,42.72],[18.548,42.687],[18.549,42.672],[18.574,42.646],[18.537,42.637],[18.52,42.618]]]]}},{"type":"Feature","properties":{"NAME":"Principality of Moldavia","ADMIN_LEVEL":4,"OHM_RELATION_ID":2694163,"START_DATE":"1812-05-28","END_DATE":"1856-03-30"},"geometry":{"type":"MultiPolygon","coordinates":[[[[28.212,45.467],[28.187,45.474],[28.173,45.5],[28.155,45.509],[28.165,45.517],[28.166,45.529],[28.166,45.543],[28.152,45.561],[28.157,45.572],[28.148,45.567],[28.135,45.578],[28.123,45.572],[28.089,45.603],[28.118,45.627],[28.143,45.621],[28.174,45.646],[28.162,45.649],[28.171,45.679],[28.162,45.702],[28.17,45.709],[28.161,45.725],[28.166,45.735],[28.144,45.76],[28.155,45.778],[28.153,45.784],[28.13,45.782],[28.113,45.795],[28.122,45.799],[28.12,45.812],[28.108,45.816],[28.113,45.851],[28.106,45.859],[28.128,45.865],[28.132,45.876],[28.129,45.884],[28.113,45.886],[28.123,45.926],[28.1,45.978],[28.106,45.988],[28.085,46.008],[28.094,46.014],[28.09,46.033],[28.103,46.043],[28.104,46.052],[28.089,46.059],[28.1,46.064],[28.09,46.068],[28.092,46.079],[28.108,46.078],[28.111,46.086],[28.103,46.098],[28.123,46.105],[28.118,46.112],[28.134,46.13],[28.126,46.136],[28.125,46.153],[28.14,46.164],[28.128,46.177],[28.141,46.176],[28.132,46.182],[28.141,46.192],[28.12,46.192],[28.123,46.211],[28.113,46.202],[28.11,46.207],[28.111,46.244],[28.119,46.239],[28.147,46.252],[28.126,46.262],[28.133,46.263],[28.141,46.286],[28.149,46.278],[28.154,46.292],[28.165,46.282],[28.175,46.297],[28.178,46.287],[28.186,46.291],[28.178,46.3],[28.203,46.312],[28.209,46.32],[28.187,46.332],[28.2,46.344],[28.185,46.35],[28.194,46.349],[28.194,46.36],[28.207,46.358],[28.2,46.364],[28.207,46.369],[28.204,46.374],[28.22,46.381],[28.219,46.396],[28.235,46.39],[28.243,46.396],[28.228,46.398],[28.238,46.406],[28.23,46.414],[28.248,46.415],[28.259,46.427],[28.257,46.447],[28.241,46.449],[28.256,46.459],[28.246,46.463],[28.25,46.466],[28.242,46.479],[28.225,46.479],[28.23,46.494],[28.21,46.505],[28.222,46.51],[28.217,46.52],[28.231,46.529],[28.217,46.536],[28.224,46.55],[28.234,46.551],[28.223,46.579],[28.242,46.582],[28.234,46.584],[28.251,46.621],[28.241,46.633],[28.245,46.645],[28.238,46.652],[28.236,46.68],[28.227,46.674],[28.222,46.689],[28.209,46.686],[28.215,46.694],[28.205,46.699],[28.21,46.712],[28.191,46.718],[28.19,46.729],[28.196,46.73],[28.179,46.741],[28.184,46.743],[28.177,46.756],[28.185,46.76],[28.178,46.771],[28.161,46.776],[28.173,46.778],[28.166,46.789],[28.133,46.804],[28.126,46.82],[28.116,46.821],[28.11,46.841],[28.126,46.852],[28.11,46.864],[28.112,46.869],[28.099,46.87],[28.118,46.877],[28.113,46.893],[28.085,46.901],[28.113,46.921],[28.099,46.927],[28.106,46.928],[28.103,46.933],[28.083,46.935],[28.098,46.948],[28.078,46.963],[28.094,46.975],[28.091,46.98],[28.036,47.01],[28.042,47.019],[28.052,47.014],[28.049,47.025],[27.998,47.029],[27.991,47.038],[27.947,47.049],[27.96,47.056],[27.941,47.066],[27.932,47.062],[27.898,47.073],[27.89,47.09],[27.868,47.102],[27.873,47.105],[27.858,47.104],[27.857,47.113],[27.828,47.12],[27.841,47.13],[27.849,47.124],[27.842,47.136],[27.781,47.143],[27.8,47.142],[27.787,47.153],[27.811,47.163],[27.796,47.171],[27.802,47.187],[27.786,47.193],[27.789,47.204],[27.78,47.204],[27.786,47.218],[27.745,47.243],[27.758,47.256],[27.746,47.263],[27.748,47.274],[27.738,47.276],[27.73,47.294],[27.707,47.3],[27.706,47.292],[27.685,47.285],[27.679,47.309],[27.675,47.3],[27.662,47.308],[27.644,47.301],[27.633,47.303],[27.637,47.308],[27.628,47.311],[27.623,47.326],[27.609,47.317],[27.608,47.328],[27.596,47.318],[27.596,47.327],[27.585,47.327],[27.616,47.339],[27.596,47.35],[27.595,47.372],[27.594,47.366],[27.577,47.368],[27.584,47.377],[27.57,47.377],[27.57,47.394],[27.581,47.398],[27.584,47.41],[27.553,47.433],[27.573,47.454],[27.572,47.464],[27.562,47.463],[27.54,47.488],[27.532,47.478],[27.522,47.482],[27.514,47.475],[27.517,47.487],[27.504,47.478],[27.476,47.485],[27.456,47.505],[27.464,47.524],[27.454,47.522],[27.446,47.529],[27.457,47.536],[27.433,47.543],[27.437,47.547],[27.427,47.553],[27.433,47.561],[27.417,47.569],[27.429,47.582],[27.375,47.596],[27.359,47.621],[27.332,47.628],[27.305,47.662],[27.295,47.663],[27.296,47.679],[27.276,47.686],[27.28,47.698],[27.25,47.719],[27.262,47.732],[27.295,47.726],[27.28,47.737],[27.297,47.751],[27.281,47.749],[27.28,47.764],[27.266,47.759],[27.262,47.781],[27.256,47.779],[27.25,47.793],[27.232,47.802],[27.242,47.814],[27.215,47.82],[27.22,47.83],[27.235,47.825],[27.246,47.836],[27.197,47.846],[27.217,47.853],[27.197,47.873],[27.211,47.894],[27.204,47.903],[27.167,47.918],[27.142,47.919],[27.156,47.922],[27.179,47.944],[27.178,47.952],[27.149,47.96],[27.145,47.968],[27.166,47.995],[27.129,47.992],[27.122,47.995],[27.129,48.011],[27.123,48.015],[27.092,48.008],[27.107,48.033],[27.083,48.037],[27.08,48.05],[27.027,48.088],[27.04,48.102],[27.034,48.117],[27.04,48.128],[27.023,48.125],[27.029,48.135],[27.02,48.139],[26.999,48.122],[26.955,48.136],[26.955,48.152],[26.982,48.144],[26.99,48.154],[26.933,48.166],[26.95,48.188],[26.939,48.198],[26.913,48.197],[26.921,48.185],[26.903,48.181],[26.893,48.189],[26.908,48.199],[26.886,48.201],[26.862,48.217],[26.854,48.233],[26.832,48.226],[26.829,48.242],[26.808,48.255],[26.786,48.244],[26.737,48.245],[26.742,48.254],[26.727,48.258],[26.725,48.245],[26.699,48.265],[26.684,48.25],[26.67,48.247],[26.662,48.264],[26.649,48.253],[26.636,48.262],[26.629,48.248],[26.614,48.249],[26.619,48.239],[26.585,48.245],[26.569,48.231],[26.573,48.22],[26.548,48.224],[26.546,48.215],[26.528,48.209],[26.471,48.219],[26.454,48.205],[26.436,48.204],[26.437,48.193],[26.422,48.201],[26.386,48.187],[26.375,48.198],[26.345,48.182],[26.295,48.187],[26.294,48.202],[26.283,48.202],[26.28,48.211],[26.261,48.206],[26.247,48.216],[26.225,48.21],[26.219,48.218],[26.2,48.219],[26.195,48.23],[26.183,48.23],[26.185,48.25],[26.16,48.254],[26.149,48.241],[26.126,48.239],[26.086,48.201],[26.07,48.196],[26.07,48.186],[26.043,48.173],[26.056,48.143],[26.051,48.134],[26.083,48.121],[26.072,48.092],[26.101,48.074],[26.118,48.03],[26.118,48.01],[26.143,47.961],[26.224,47.901],[26.199,47.883],[26.194,47.892],[26.183,47.893],[26.19,47.908],[26.185,47.92],[26.16,47.931],[26.15,47.926],[26.141,47.937],[26.135,47.93],[26.112,47.953],[26.091,47.946],[26.083,47.918],[26.112,47.899],[26.124,47.882],[26.121,47.875],[26.167,47.828],[26.236,47.798],[26.25,47.773],[26.246,47.747],[26.267,47.709],[26.255,47.699],[26.246,47.675],[26.266,47.658],[26.263,47.653],[26.306,47.648],[26.302,47.645],[26.311,47.63],[26.317,47.639],[26.329,47.629],[26.32,47.618],[26.33,47.619],[26.327,47.615],[26.353,47.601],[26.382,47.609],[26.396,47.604],[26.395,47.598],[26.451,47.6],[26.46,47.593],[26.456,47.589],[26.467,47.586],[26.466,47.576],[26.481,47.572],[26.486,47.558],[26.424,47.55],[26.409,47.558],[26.383,47.536],[26.358,47.538],[26.355,47.553],[26.343,47.557],[26.336,47.533],[26.294,47.549],[26.285,47.503],[26.276,47.496],[26.246,47.521],[26.231,47.55],[26.179,47.567],[26.182,47.557],[26.147,47.552],[26.149,47.544],[26.111,47.516],[26.13,47.491],[26.158,47.474],[26.136,47.46],[26.109,47.461],[26.083,47.479],[26.055,47.485],[26.018,47.461],[25.946,47.463],[25.896,47.454],[25.87,47.46],[25.841,47.44],[25.843,47.418],[25.858,47.406],[25.854,47.396],[25.868,47.381],[25.828,47.357],[25.832,47.337],[25.821,47.322],[25.81,47.316],[25.775,47.321],[25.729,47.304],[25.684,47.33],[25.659,47.384],[25.624,47.386],[25.617,47.395],[25.63,47.418],[25.623,47.432],[25.577,47.453],[25.542,47.433],[25.552,47.405],[25.519,47.408],[25.505,47.394],[25.483,47.392],[25.472,47.376],[25.429,47.354],[25.43,47.344],[25.402,47.343],[25.354,47.289],[25.268,47.278],[25.237,47.238],[25.213,47.227],[25.201,47.211],[25.198,47.206],[25.298,47.16],[25.359,47.177],[25.422,47.182],[25.447,47.153],[25.474,47.154],[25.508,47.131],[25.532,47.131],[25.559,47.111],[25.588,47.108],[25.6,47.115],[25.601,47.132],[25.638,47.115],[25.66,47.092],[25.736,47.074],[25.741,47.054],[25.769,47.036],[25.768,47.018],[25.79,46.997],[25.802,46.967],[25.825,46.973],[25.84,46.961],[25.855,46.924],[25.878,46.922],[25.893,46.902],[25.916,46.894],[25.942,46.867],[25.964,46.874],[25.981,46.841],[25.979,46.824],[26.003,46.803],[26.001,46.783],[26.035,46.775],[26.03,46.769],[26.047,46.756],[26.066,46.724],[26.104,46.714],[26.118,46.685],[26.124,46.685],[26.122,46.675],[26.159,46.642],[26.167,46.605],[26.141,46.591],[26.123,46.554],[26.104,46.556],[26.058,46.529],[26.073,46.525],[26.081,46.511],[26.075,46.485],[26.112,46.469],[26.105,46.446],[26.129,46.436],[26.218,46.457],[26.222,46.441],[26.206,46.425],[26.207,46.418],[26.237,46.392],[26.266,46.396],[26.275,46.387],[26.267,46.377],[26.293,46.371],[26.282,46.358],[26.281,46.339],[26.293,46.335],[26.274,46.287],[26.253,46.278],[26.263,46.246],[26.324,46.238],[26.341,46.201],[26.388,46.202],[26.421,46.192],[26.405,46.172],[26.41,46.16],[26.396,46.152],[26.44,46.166],[26.498,46.123],[26.495,46.09],[26.504,46.07],[26.493,46.06],[26.484,46.034],[26.49,46.015],[26.468,46.003],[26.455,45.976],[26.465,45.94],[26.456,45.934],[26.443,45.887],[26.381,45.838],[26.418,45.829],[26.442,45.811],[26.451,45.797],[26.424,45.778],[26.425,45.768],[26.438,45.766],[26.444,45.753],[26.437,45.739],[26.458,45.726],[26.466,45.705],[26.489,45.694],[26.486,45.689],[26.53,45.642],[26.541,45.642],[26.552,45.63],[26.579,45.634],[26.594,45.62],[26.631,45.647],[26.734,45.664],[26.766,45.711],[26.787,45.703],[26.816,45.712],[26.807,45.736],[26.836,45.755],[26.855,45.779],[26.855,45.791],[26.87,45.794],[26.91,45.781],[26.935,45.759],[26.961,45.769],[26.981,45.762],[27.028,45.768],[27.091,45.742],[27.124,45.723],[27.12,45.715],[27.16,45.696],[27.247,45.69],[27.26,45.682],[27.263,45.657],[27.29,45.653],[27.314,45.629],[27.331,45.634],[27.374,45.619],[27.379,45.609],[27.419,45.621],[27.416,45.615],[27.424,45.603],[27.417,45.598],[27.451,45.595],[27.424,45.588],[27.433,45.582],[27.429,45.576],[27.417,45.579],[27.423,45.571],[27.447,45.557],[27.451,45.565],[27.484,45.56],[27.472,45.554],[27.481,45.55],[27.467,45.548],[27.483,45.542],[27.468,45.537],[27.47,45.529],[27.488,45.531],[27.483,45.503],[27.515,45.514],[27.537,45.503],[27.541,45.511],[27.529,45.517],[27.552,45.521],[27.544,45.501],[27.559,45.501],[27.56,45.493],[27.572,45.487],[27.579,45.495],[27.578,45.486],[27.612,45.466],[27.617,45.478],[27.625,45.472],[27.62,45.466],[27.631,45.467],[27.63,45.476],[27.645,45.47],[27.645,45.486],[27.657,45.473],[27.654,45.491],[27.663,45.49],[27.662,45.476],[27.698,45.473],[27.693,45.46],[27.715,45.459],[27.714,45.446],[27.741,45.449],[27.746,45.432],[27.736,45.418],[27.772,45.417],[27.815,45.398],[27.829,45.417],[27.836,45.418],[27.838,45.4],[27.85,45.399],[27.861,45.413],[27.88,45.406],[27.88,45.414],[27.892,45.417],[27.974,45.398],[27.969,45.387],[27.998,45.397],[28.002,45.402],[27.987,45.403],[27.999,45.405],[28.026,45.395],[28.043,45.417],[28.1,45.441],[28.139,45.434],[28.186,45.413],[28.195,45.421],[28.192,45.443],[28.212,45.467]]]]}},{"type":"Feature","properties":{"NAME":"Principality of Wallachia","ADMIN_LEVEL":4,"OHM_RELATION_ID":2929116,"START_DATE":"1538","END_DATE":"1829-09-14"},"geometry":{"type":"Polygon","coordinates":[[[22.422,44.795],[22.429,44.761],[22.464,44.744],[22.472,44.724],[22.468,44.714],[22.602,44.622],[22.702,44.608],[22.757,44.562],[22.763,44.539],[22.695,44.518],[22.635,44.55],[22.588,44.552],[22.563,44.534],[22.557,44.499],[22.539,44.48],[22.474,44.482],[22.457,44.477],[22.456,44.468],[22.499,44.411],[22.509,44.372],[22.529,44.337],[22.558,44.31],[22.612,44.293],[22.661,44.288],[22.681,44.278],[22.683,44.249],[22.672,44.222],[22.688,44.208],[22.758,44.193],[22.789,44.166],[22.864,44.137],[22.924,44.1],[22.993,44.098],[23.03,44.087],[23.043,44.075],[23.042,44.053],[23.006,44.011],[22.944,44.007],[22.88,43.983],[22.836,43.876],[22.869,43.837],[22.9,43.826],[23.065,43.796],[23.138,43.805],[23.268,43.846],[23.414,43.853],[23.495,43.834],[23.554,43.804],[23.607,43.792],[23.702,43.806],[23.778,43.8],[23.818,43.771],[23.852,43.759],[23.979,43.743],[24.058,43.719],[24.087,43.703],[24.175,43.681],[24.294,43.698],[24.35,43.697],[24.501,43.762],[24.611,43.745],[24.724,43.707],[24.778,43.706],[24.846,43.709],[24.827,43.746],[24.858,43.759],[24.907,43.759],[24.918,43.738],[24.966,43.722],[25.008,43.725],[25.021,43.71],[25.09,43.687],[25.112,43.684],[25.18,43.698],[25.243,43.686],[25.343,43.63],[25.394,43.618],[25.492,43.649],[25.561,43.648],[25.667,43.69],[25.73,43.69],[25.78,43.709],[25.809,43.748],[25.839,43.767],[25.864,43.769],[25.865,43.782],[25.888,43.793],[25.954,43.859],[25.925,43.883],[25.933,43.912],[25.964,43.925],[26.03,43.918],[26.073,43.926],[26.107,43.97],[26.144,43.983],[26.197,43.985],[26.336,44.033],[26.601,44.052],[26.702,44.078],[26.763,44.078],[26.917,44.138],[26.992,44.134],[27.066,44.149],[27.23,44.115],[27.315,44.14],[27.36,44.127],[27.394,44.132],[27.452,44.124],[27.525,44.169],[27.596,44.197],[27.637,44.206],[27.723,44.196],[27.776,44.232],[27.848,44.258],[27.914,44.247],[27.935,44.25],[28.009,44.32],[28.028,44.37],[28.076,44.416],[28.11,44.435],[28.088,44.491],[28.053,44.51],[28.036,44.549],[28.014,44.572],[28.014,44.583],[28.035,44.612],[28.018,44.647],[27.973,44.676],[27.942,44.679],[27.89,44.703],[27.871,44.725],[27.882,44.765],[27.874,44.774],[27.82,44.786],[27.828,44.829],[27.854,44.867],[27.873,44.877],[27.893,44.926],[27.74,44.943],[27.763,44.989],[27.412,45.075],[27.466,45.203],[27.636,45.286],[27.764,45.364],[27.787,45.41],[27.785,45.411],[27.736,45.418],[27.746,45.432],[27.741,45.449],[27.714,45.446],[27.715,45.459],[27.697,45.458],[27.697,45.46],[27.693,45.46],[27.698,45.473],[27.662,45.476],[27.663,45.49],[27.654,45.491],[27.657,45.473],[27.651,45.472],[27.65,45.481],[27.648,45.483],[27.645,45.47],[27.63,45.476],[27.631,45.467],[27.62,45.466],[27.625,45.472],[27.617,45.478],[27.612,45.466],[27.598,45.47],[27.594,45.476],[27.578,45.486],[27.579,45.495],[27.572,45.487],[27.56,45.493],[27.559,45.499],[27.544,45.501],[27.552,45.521],[27.529,45.517],[27.541,45.511],[27.537,45.503],[27.515,45.514],[27.483,45.503],[27.488,45.531],[27.47,45.529],[27.468,45.537],[27.483,45.542],[27.467,45.548],[27.481,45.55],[27.472,45.554],[27.48,45.558],[27.472,45.562],[27.461,45.563],[27.447,45.557],[27.423,45.571],[27.42,45.576],[27.419,45.576],[27.417,45.579],[27.423,45.578],[27.433,45.582],[27.425,45.584],[27.427,45.586],[27.424,45.588],[27.43,45.589],[27.43,45.59],[27.451,45.595],[27.42,45.596],[27.421,45.598],[27.417,45.598],[27.424,45.603],[27.416,45.615],[27.417,45.618],[27.379,45.609],[27.374,45.619],[27.331,45.634],[27.314,45.629],[27.29,45.653],[27.263,45.657],[27.26,45.682],[27.247,45.69],[27.16,45.696],[27.12,45.715],[27.124,45.723],[27.091,45.742],[27.028,45.768],[26.981,45.762],[26.961,45.769],[26.935,45.759],[26.91,45.781],[26.87,45.794],[26.855,45.791],[26.855,45.779],[26.836,45.755],[26.807,45.736],[26.816,45.712],[26.787,45.703],[26.766,45.711],[26.734,45.664],[26.631,45.647],[26.594,45.62],[26.579,45.634],[26.552,45.63],[26.541,45.642],[26.53,45.642],[26.486,45.689],[26.489,45.694],[26.466,45.705],[26.458,45.726],[26.437,45.739],[26.444,45.753],[26.438,45.766],[26.418,45.769],[26.422,45.753],[26.407,45.737],[26.427,45.728],[26.424,45.698],[26.471,45.657],[26.378,45.652],[26.349,45.64],[26.354,45.622],[26.348,45.612],[26.348,45.604],[26.336,45.592],[26.281,45.622],[26.25,45.61],[26.24,45.62],[26.219,45.622],[26.186,45.609],[26.184,45.595],[26.182,45.595],[26.179,45.586],[26.18,45.574],[26.173,45.565],[26.172,45.563],[26.171,45.564],[26.171,45.563],[26.168,45.567],[26.155,45.581],[26.145,45.581],[26.117,45.546],[26.096,45.518],[26.094,45.517],[26.093,45.516],[26.066,45.504],[26.065,45.485],[26.047,45.478],[26.044,45.479],[26.041,45.478],[26.014,45.49],[25.995,45.514],[25.969,45.508],[25.949,45.513],[25.938,45.513],[25.931,45.518],[25.922,45.521],[25.89,45.485],[25.896,45.482],[25.895,45.479],[25.897,45.477],[25.889,45.448],[25.867,45.436],[25.868,45.424],[25.86,45.422],[25.823,45.431],[25.826,45.44],[25.81,45.467],[25.802,45.472],[25.783,45.479],[25.766,45.465],[25.726,45.465],[25.7,45.483],[25.699,45.504],[25.675,45.526],[25.644,45.535],[25.648,45.527],[25.638,45.506],[25.625,45.499],[25.596,45.515],[25.536,45.509],[25.526,45.499],[25.511,45.502],[25.515,45.472],[25.512,45.471],[25.512,45.47],[25.411,45.428],[25.405,45.388],[25.368,45.391],[25.322,45.381],[25.311,45.387],[25.31,45.391],[25.309,45.392],[25.309,45.399],[25.308,45.407],[25.31,45.413],[25.31,45.431],[25.308,45.432],[25.29,45.438],[25.283,45.437],[25.273,45.432],[25.273,45.434],[25.272,45.434],[25.272,45.444],[25.257,45.452],[25.238,45.477],[25.239,45.482],[25.234,45.517],[25.212,45.526],[25.192,45.522],[25.19,45.523],[25.189,45.523],[25.105,45.583],[25.086,45.582],[25.082,45.581],[25.081,45.581],[25.078,45.581],[25.053,45.587],[25.032,45.592],[24.998,45.586],[24.991,45.587],[24.988,45.587],[24.958,45.593],[24.955,45.591],[24.945,45.58],[24.939,45.583],[24.938,45.582],[24.917,45.594],[24.84,45.591],[24.838,45.591],[24.83,45.605],[24.829,45.606],[24.794,45.603],[24.771,45.611],[24.77,45.611],[24.74,45.604],[24.696,45.605],[24.673,45.594],[24.626,45.603],[24.598,45.596],[24.571,45.577],[24.556,45.586],[24.522,45.581],[24.511,45.586],[24.481,45.574],[24.446,45.591],[24.433,45.581],[24.385,45.584],[24.287,45.561],[24.257,45.545],[24.255,45.545],[24.253,45.544],[24.234,45.547],[24.232,45.547],[24.206,45.524],[24.203,45.523],[24.171,45.515],[24.167,45.514],[24.087,45.513],[24.085,45.513],[24.083,45.513],[24.011,45.528],[24.001,45.526],[23.986,45.531],[23.986,45.491],[23.983,45.49],[23.981,45.486],[23.976,45.487],[23.939,45.494],[23.937,45.484],[23.938,45.478],[23.934,45.467],[23.932,45.458],[23.93,45.458],[23.914,45.458],[23.879,45.459],[23.872,45.465],[23.856,45.473],[23.847,45.474],[23.822,45.475],[23.749,45.435],[23.742,45.43],[23.702,45.425],[23.693,45.437],[23.691,45.471],[23.706,45.484],[23.708,45.49],[23.709,45.503],[23.705,45.507],[23.688,45.518],[23.681,45.515],[23.666,45.509],[23.665,45.51],[23.662,45.509],[23.658,45.515],[23.641,45.527],[23.626,45.519],[23.631,45.512],[23.615,45.507],[23.578,45.51],[23.576,45.509],[23.596,45.492],[23.598,45.479],[23.598,45.478],[23.598,45.477],[23.597,45.471],[23.595,45.452],[23.594,45.451],[23.594,45.45],[23.575,45.428],[23.594,45.421],[23.591,45.4],[23.602,45.387],[23.586,45.367],[23.589,45.356],[23.494,45.316],[23.493,45.316],[23.49,45.315],[23.457,45.322],[23.431,45.308],[23.43,45.309],[23.427,45.308],[23.413,45.326],[23.404,45.334],[23.356,45.339],[23.349,45.335],[23.333,45.321],[23.331,45.314],[23.312,45.301],[23.289,45.31],[23.27,45.31],[23.251,45.309],[23.248,45.308],[23.231,45.301],[23.191,45.299],[23.174,45.296],[23.144,45.282],[23.097,45.292],[23.087,45.284],[23.001,45.282],[22.973,45.271],[22.913,45.278],[22.875,45.265],[22.845,45.273],[22.843,45.275],[22.84,45.276],[22.834,45.285],[22.777,45.26],[22.776,45.265],[22.772,45.27],[22.739,45.257],[22.734,45.254],[22.733,45.254],[22.73,45.253],[22.704,45.257],[22.697,45.254],[22.673,45.239],[22.603,45.214],[22.56,45.16],[22.577,45.138],[22.65,45.125],[22.656,45.105],[22.593,45.048],[22.569,45.039],[22.531,44.996],[22.502,44.98],[22.509,44.962],[22.485,44.935],[22.494,44.921],[22.482,44.903],[22.486,44.883],[22.422,44.795]]]}},{"type":"Feature","properties":{"NAME":"Transylvania","ADMIN_LEVEL":4,"OHM_RELATION_ID":2878295,"START_DATE":"1765","END_DATE":"1851-05-12"},"geometry":{"type":"Polygon","coordinates":[[[22.339,47.472],[22.352,47.434],[22.363,47.427],[22.362,47.412],[22.399,47.397],[22.412,47.374],[22.465,47.371],[22.489,47.356],[22.492,47.325],[22.486,47.309],[22.525,47.308],[22.555,47.292],[22.568,47.255],[22.541,47.234],[22.52,47.237],[22.521,47.225],[22.507,47.205],[22.512,47.195],[22.494,47.187],[22.511,47.157],[22.532,47.142],[22.515,47.109],[22.592,47.068],[22.631,47.056],[22.685,47.051],[22.69,47.033],[22.711,47.01],[22.756,47.002],[22.795,46.977],[22.782,46.952],[22.789,46.929],[22.776,46.909],[22.778,46.898],[22.754,46.876],[22.727,46.816],[22.704,46.806],[22.634,46.798],[22.654,46.792],[22.649,46.782],[22.672,46.768],[22.712,46.764],[22.709,46.738],[22.74,46.716],[22.788,46.717],[22.811,46.705],[22.774,46.678],[22.773,46.651],[22.793,46.64],[22.788,46.629],[22.814,46.638],[22.802,46.62],[22.808,46.592],[22.817,46.585],[22.813,46.556],[22.73,46.546],[22.691,46.519],[22.676,46.523],[22.674,46.49],[22.678,46.469],[22.691,46.455],[22.687,46.442],[22.72,46.431],[22.675,46.409],[22.634,46.389],[22.573,46.398],[22.514,46.388],[22.436,46.391],[22.424,46.351],[22.436,46.348],[22.441,46.33],[22.408,46.331],[22.409,46.313],[22.379,46.305],[22.37,46.283],[22.387,46.277],[22.388,46.259],[22.399,46.252],[22.435,46.246],[22.443,46.239],[22.439,46.228],[22.462,46.222],[22.436,46.208],[22.455,46.175],[22.453,46.163],[22.469,46.146],[22.433,46.106],[22.412,46.109],[22.409,46.088],[22.431,46.079],[22.436,46.05],[22.429,46.038],[22.44,46.026],[22.433,45.996],[22.421,45.981],[22.428,45.96],[22.418,45.944],[22.426,45.933],[22.406,45.904],[22.375,45.888],[22.411,45.855],[22.437,45.855],[22.46,45.848],[22.46,45.837],[22.475,45.838],[22.478,45.814],[22.47,45.804],[22.479,45.789],[22.499,45.785],[22.534,45.801],[22.551,45.777],[22.505,45.743],[22.471,45.732],[22.466,45.723],[22.469,45.694],[22.427,45.675],[22.427,45.669],[22.457,45.658],[22.453,45.647],[22.495,45.619],[22.506,45.599],[22.544,45.595],[22.546,45.585],[22.532,45.575],[22.535,45.561],[22.521,45.557],[22.502,45.531],[22.517,45.52],[22.531,45.487],[22.561,45.469],[22.588,45.437],[22.618,45.433],[22.638,45.412],[22.668,45.397],[22.668,45.382],[22.657,45.372],[22.684,45.331],[22.696,45.329],[22.697,45.303],[22.677,45.282],[22.689,45.275],[22.682,45.25],[22.706,45.257],[22.734,45.254],[22.764,45.27],[22.774,45.27],[22.777,45.26],[22.834,45.285],[22.845,45.273],[22.875,45.265],[22.918,45.279],[22.973,45.271],[23.001,45.282],[23.085,45.284],[23.095,45.292],[23.144,45.282],[23.174,45.296],[23.251,45.309],[23.289,45.31],[23.312,45.301],[23.353,45.339],[23.406,45.334],[23.427,45.308],[23.455,45.322],[23.49,45.315],[23.588,45.356],[23.586,45.367],[23.602,45.387],[23.591,45.4],[23.594,45.421],[23.573,45.426],[23.595,45.452],[23.598,45.479],[23.596,45.492],[23.575,45.51],[23.615,45.507],[23.631,45.512],[23.626,45.519],[23.641,45.527],[23.666,45.509],[23.691,45.52],[23.712,45.5],[23.705,45.481],[23.691,45.471],[23.693,45.437],[23.702,45.425],[23.742,45.43],[23.815,45.475],[23.855,45.474],[23.883,45.459],[23.93,45.458],[23.938,45.478],[23.935,45.495],[23.976,45.487],[23.986,45.491],[23.986,45.533],[24.083,45.513],[24.167,45.514],[24.206,45.524],[24.232,45.547],[24.253,45.544],[24.288,45.562],[24.385,45.584],[24.433,45.581],[24.446,45.591],[24.481,45.574],[24.511,45.586],[24.522,45.581],[24.556,45.586],[24.571,45.577],[24.598,45.596],[24.626,45.603],[24.673,45.594],[24.696,45.605],[24.773,45.611],[24.792,45.604],[24.813,45.61],[24.832,45.605],[24.84,45.591],[24.917,45.594],[24.945,45.58],[24.957,45.593],[24.988,45.587],[25.031,45.592],[25.082,45.581],[25.104,45.584],[25.189,45.523],[25.211,45.526],[25.234,45.517],[25.24,45.475],[25.272,45.445],[25.272,45.434],[25.292,45.439],[25.314,45.429],[25.308,45.407],[25.311,45.387],[25.322,45.381],[25.368,45.391],[25.405,45.388],[25.411,45.428],[25.512,45.47],[25.511,45.502],[25.526,45.499],[25.536,45.509],[25.596,45.515],[25.625,45.499],[25.638,45.506],[25.648,45.527],[25.644,45.535],[25.675,45.526],[25.699,45.504],[25.7,45.483],[25.726,45.465],[25.766,45.465],[25.783,45.479],[25.809,45.469],[25.826,45.44],[25.823,45.431],[25.86,45.422],[25.868,45.424],[25.867,45.436],[25.889,45.448],[25.897,45.477],[25.89,45.485],[25.92,45.521],[25.969,45.508],[25.995,45.514],[26.014,45.49],[26.047,45.478],[26.065,45.485],[26.066,45.504],[26.093,45.516],[26.148,45.585],[26.155,45.586],[26.171,45.563],[26.18,45.574],[26.178,45.595],[26.184,45.595],[26.186,45.609],[26.213,45.622],[26.238,45.623],[26.25,45.61],[26.281,45.622],[26.336,45.592],[26.354,45.622],[26.349,45.64],[26.378,45.652],[26.471,45.657],[26.424,45.698],[26.427,45.728],[26.407,45.737],[26.422,45.753],[26.418,45.769],[26.425,45.768],[26.424,45.778],[26.447,45.796],[26.442,45.811],[26.423,45.82],[26.422,45.826],[26.418,45.829],[26.381,45.838],[26.443,45.887],[26.456,45.934],[26.465,45.94],[26.455,45.976],[26.458,45.982],[26.457,45.986],[26.462,45.99],[26.468,46.003],[26.49,46.015],[26.484,46.029],[26.485,46.032],[26.484,46.034],[26.493,46.06],[26.494,46.061],[26.496,46.067],[26.504,46.07],[26.495,46.09],[26.498,46.123],[26.472,46.142],[26.448,46.151],[26.437,46.165],[26.414,46.158],[26.398,46.15],[26.406,46.155],[26.396,46.152],[26.407,46.158],[26.404,46.168],[26.406,46.17],[26.405,46.172],[26.415,46.185],[26.418,46.189],[26.398,46.199],[26.388,46.202],[26.341,46.201],[26.324,46.238],[26.263,46.246],[26.262,46.249],[26.259,46.25],[26.254,46.274],[26.253,46.278],[26.274,46.287],[26.272,46.297],[26.29,46.328],[26.292,46.331],[26.281,46.339],[26.282,46.358],[26.292,46.369],[26.289,46.372],[26.271,46.376],[26.27,46.376],[26.267,46.377],[26.27,46.381],[26.27,46.392],[26.266,46.396],[26.237,46.392],[26.207,46.418],[26.206,46.425],[26.222,46.441],[26.219,46.454],[26.199,46.452],[26.167,46.445],[26.154,46.437],[26.132,46.434],[26.107,46.445],[26.105,46.446],[26.112,46.469],[26.075,46.485],[26.081,46.511],[26.073,46.525],[26.058,46.529],[26.093,46.553],[26.099,46.553],[26.104,46.556],[26.123,46.554],[26.141,46.591],[26.164,46.603],[26.164,46.619],[26.162,46.63],[26.151,46.65],[26.128,46.67],[26.125,46.672],[26.125,46.673],[26.122,46.675],[26.122,46.677],[26.119,46.685],[26.118,46.685],[26.104,46.714],[26.067,46.722],[26.03,46.769],[26.035,46.775],[26.001,46.783],[26.003,46.803],[25.979,46.824],[25.981,46.841],[25.964,46.874],[25.942,46.867],[25.916,46.894],[25.893,46.902],[25.878,46.922],[25.855,46.924],[25.839,46.959],[25.825,46.973],[25.81,46.969],[25.806,46.965],[25.804,46.968],[25.802,46.967],[25.799,46.975],[25.768,47.018],[25.769,47.036],[25.741,47.054],[25.736,47.074],[25.66,47.092],[25.638,47.115],[25.601,47.132],[25.6,47.115],[25.588,47.108],[25.559,47.111],[25.532,47.131],[25.508,47.131],[25.474,47.154],[25.447,47.153],[25.44,47.161],[25.427,47.169],[25.422,47.182],[25.359,47.177],[25.298,47.16],[25.187,47.21],[25.174,47.229],[25.113,47.239],[25.032,47.285],[25.049,47.304],[25.079,47.314],[25.073,47.334],[25.096,47.36],[25.185,47.37],[25.184,47.385],[25.195,47.408],[25.184,47.418],[25.181,47.439],[25.152,47.458],[25.141,47.483],[25.158,47.499],[25.165,47.519],[25.183,47.531],[25.168,47.55],[25.157,47.551],[25.155,47.56],[25.126,47.572],[25.076,47.575],[25.064,47.562],[25.045,47.56],[24.998,47.575],[24.963,47.596],[24.899,47.603],[24.859,47.592],[24.822,47.594],[24.808,47.566],[24.789,47.577],[24.76,47.569],[24.723,47.575],[24.694,47.559],[24.655,47.555],[24.653,47.569],[24.625,47.576],[24.56,47.564],[24.557,47.573],[24.387,47.604],[24.355,47.573],[24.326,47.567],[24.302,47.576],[24.302,47.558],[24.279,47.545],[24.277,47.527],[24.267,47.517],[24.215,47.55],[24.178,47.561],[24.176,47.58],[24.154,47.614],[24.095,47.615],[24.101,47.634],[24.068,47.639],[24.055,47.654],[24.032,47.658],[24.026,47.673],[23.986,47.666],[23.981,47.659],[23.908,47.659],[23.9,47.676],[23.864,47.694],[23.847,47.684],[23.846,47.665],[23.824,47.65],[23.813,47.629],[23.759,47.585],[23.738,47.579],[23.697,47.591],[23.683,47.573],[23.628,47.587],[23.622,47.572],[23.584,47.579],[23.57,47.589],[23.575,47.594],[23.563,47.592],[23.572,47.596],[23.55,47.609],[23.541,47.604],[23.533,47.614],[23.507,47.622],[23.507,47.617],[23.487,47.619],[23.493,47.636],[23.509,47.642],[23.511,47.67],[23.472,47.654],[23.417,47.648],[23.4,47.629],[23.377,47.625],[23.373,47.621],[23.399,47.614],[23.397,47.608],[23.382,47.611],[23.401,47.602],[23.377,47.569],[23.363,47.575],[23.365,47.565],[23.351,47.572],[23.357,47.572],[23.354,47.581],[23.345,47.575],[23.349,47.567],[23.332,47.574],[23.291,47.571],[23.288,47.602],[23.269,47.612],[23.148,47.627],[23.065,47.571],[23.052,47.555],[23.044,47.517],[23.047,47.489],[22.998,47.481],[22.945,47.49],[22.905,47.444],[22.856,47.45],[22.841,47.445],[22.813,47.453],[22.789,47.439],[22.776,47.417],[22.674,47.376],[22.652,47.394],[22.647,47.426],[22.653,47.446],[22.643,47.459],[22.695,47.468],[22.722,47.457],[22.737,47.461],[22.759,47.487],[22.8,47.495],[22.805,47.554],[22.775,47.556],[22.75,47.571],[22.763,47.579],[22.758,47.588],[22.728,47.594],[22.685,47.585],[22.683,47.598],[22.661,47.603],[22.629,47.597],[22.638,47.605],[22.625,47.621],[22.595,47.619],[22.59,47.608],[22.531,47.605],[22.513,47.592],[22.502,47.593],[22.499,47.579],[22.483,47.584],[22.448,47.559],[22.451,47.549],[22.423,47.542],[22.398,47.508],[22.383,47.515],[22.368,47.506],[22.368,47.492],[22.341,47.49],[22.339,47.472]]]}},{"type":"Feature","properties":{"NAME":"United States of the Ionian Islands","ADMIN_LEVEL":2,"OHM_RELATION_ID":2827696,"START_DATE":"1815-11-20","END_DATE":"1864-05-28"},"geometry":{"type":"MultiPolygon","coordinates":[[[[23.032,36.431],[23.028,36.49],[23.019,36.508],[22.929,36.526],[22.893,36.523],[22.876,36.5],[22.873,36.461],[22.885,36.439],[22.919,36.42],[22.88,36.404],[22.837,36.319],[22.847,36.295],[22.861,36.283],[22.861,36.265],[22.848,36.23],[22.862,36.18],[22.902,36.13],[22.944,36.109],[22.944,36.083],[22.958,36.062],[22.993,36.048],[23.033,36.058],[23.053,36.087],[23.094,36.11],[23.111,36.145],[23.101,36.176],[23.15,36.188],[23.172,36.23],[23.161,36.263],[23.115,36.308],[23.033,36.346],[22.993,36.412],[23.032,36.431]]],[[[23.308,35.936],[23.291,35.945],[23.304,35.966],[23.301,35.994],[23.27,36.018],[23.221,36.016],[23.192,35.991],[23.195,35.954],[23.223,35.932],[23.218,35.89],[23.245,35.829],[23.298,35.786],[23.341,35.781],[23.37,35.798],[23.38,35.816],[23.377,35.868],[23.352,35.915],[23.308,35.936]]],[[[19.621,39.927],[19.588,39.939],[19.538,39.929],[19.519,39.904],[19.518,39.886],[19.533,39.852],[19.579,39.835],[19.63,39.848],[19.649,39.879],[19.649,39.895],[19.641,39.912],[19.621,39.927]]],[[[19.397,39.908],[19.35,39.902],[19.328,39.881],[19.321,39.858],[19.334,39.818],[19.377,39.796],[19.437,39.804],[19.485,39.855],[19.482,39.879],[19.465,39.897],[19.435,39.907],[19.397,39.908]]],[[[20.811,37.607],[20.832,37.603],[20.874,37.612],[20.901,37.63],[20.922,37.666],[20.987,37.655],[21.024,37.667],[21.043,37.689],[21.045,37.736],[21.029,37.759],[20.991,37.774],[20.956,37.801],[20.953,37.821],[20.93,37.841],[20.84,37.878],[20.785,37.888],[20.739,37.963],[20.705,37.975],[20.675,37.971],[20.61,37.931],[20.589,37.909],[20.566,37.871],[20.564,37.815],[20.57,37.8],[20.618,37.762],[20.678,37.693],[20.713,37.678],[20.766,37.626],[20.811,37.607]]],[[[20.703,38.893],[20.665,38.89],[20.616,38.866],[20.555,38.802],[20.526,38.725],[20.506,38.695],[20.506,38.636],[20.49,38.589],[20.491,38.549],[20.512,38.527],[20.534,38.521],[20.534,38.515],[20.508,38.507],[20.486,38.481],[20.486,38.418],[20.474,38.395],[20.392,38.399],[20.353,38.376],[20.334,38.297],[20.307,38.271],[20.302,38.232],[20.286,38.211],[20.285,38.186],[20.298,38.153],[20.352,38.115],[20.402,38.094],[20.446,38.095],[20.493,38.062],[20.575,38.048],[20.618,38.068],[20.685,38.029],[20.793,38.016],[20.825,38.029],[20.843,38.047],[20.868,38.11],[20.861,38.135],[20.768,38.237],[20.753,38.266],[20.808,38.291],[20.821,38.315],[20.806,38.349],[20.804,38.384],[20.759,38.423],[20.761,38.443],[20.804,38.433],[20.844,38.441],[20.871,38.464],[20.877,38.496],[20.836,38.628],[20.772,38.731],[20.728,38.785],[20.726,38.834],[20.703,38.893]]],[[[20.182,39.389],[20.149,39.464],[20.066,39.555],[20.046,39.592],[19.934,39.683],[19.932,39.692],[19.958,39.728],[19.978,39.791],[19.958,39.825],[19.921,39.834],[19.893,39.854],[19.842,39.863],[19.823,39.859],[19.793,39.838],[19.666,39.839],[19.637,39.827],[19.62,39.81],[19.565,39.807],[19.525,39.825],[19.493,39.824],[19.457,39.798],[19.456,39.77],[19.483,39.732],[19.513,39.717],[19.567,39.728],[19.58,39.724],[19.589,39.702],[19.62,39.679],[19.635,39.652],[19.676,39.632],[19.696,39.603],[19.743,39.569],[19.779,39.557],[19.791,39.539],[19.799,39.488],[19.82,39.44],[19.884,39.395],[19.943,39.385],[19.973,39.364],[20.104,39.32],[20.151,39.333],[20.182,39.389]]],[[[20.147,39.145],[20.19,39.111],[20.248,39.096],[20.288,39.11],[20.305,39.137],[20.297,39.163],[20.23,39.237],[20.166,39.275],[20.117,39.281],[20.092,39.269],[20.074,39.248],[20.075,39.213],[20.096,39.178],[20.147,39.145]]],[[[21.031,37.297],[20.983,37.302],[20.966,37.296],[20.947,37.274],[20.951,37.233],[20.979,37.205],[21.025,37.2],[21.049,37.208],[21.07,37.226],[21.07,37.264],[21.031,37.297]]]]}}],"metadata":{"generatedBy":"scripts/build-fief-flat.ts","input":"data/sovereign_fiefs_1815.geojson","year":1815,"cutPolicy":"keep-smaller","containmentCoverageThreshold":0.9,"minOverlapAreaM2":1000,"sliverAreaLimitM2":1000000000,"resolutions":[{"kind":"sliver","cutName":"Kingdom of Hungary","keptName":"Transylvania","overlapKm2":25.18,"coverageOfSmaller":0.0004},{"kind":"sliver","cutName":"Principality of Wallachia","keptName":"Principality of Moldavia","overlapKm2":1.75,"coverageOfSmaller":0},{"kind":"sliver","cutName":"Principality of Wallachia","keptName":"Transylvania","overlapKm2":16.38,"coverageOfSmaller":0.0003},{"kind":"sliver","cutName":"Transylvania","keptName":"Principality of Moldavia","overlapKm2":8.01,"coverageOfSmaller":0.0002}],"source":"OpenHistoricalMap","sourceUrl":"https://www.openhistoricalmap.org/","license":"CC0-1.0","borderPrecision":"史料に基づく復元（概略。測量された境界ではない）"}}