{"type":"FeatureCollection","features":[{"type":"Feature","properties":{"NAME":"Andorra","ADMIN_LEVEL":2,"OHM_RELATION_ID":2739874,"START_DATE":"1278","END_DATE":null},"geometry":{"type":"MultiPolygon","coordinates":[[[[1.787,42.574],[1.731,42.588],[1.728,42.601],[1.736,42.618],[1.715,42.615],[1.683,42.625],[1.66,42.621],[1.637,42.63],[1.6,42.626],[1.549,42.656],[1.516,42.646],[1.48,42.651],[1.468,42.631],[1.473,42.61],[1.445,42.604],[1.427,42.586],[1.444,42.569],[1.423,42.556],[1.414,42.537],[1.451,42.54],[1.465,42.508],[1.42,42.485],[1.439,42.477],[1.448,42.46],[1.443,42.444],[1.452,42.437],[1.517,42.429],[1.552,42.433],[1.56,42.458],[1.579,42.45],[1.599,42.467],[1.655,42.467],[1.667,42.5],[1.711,42.492],[1.726,42.505],[1.74,42.557],[1.787,42.574]]]]}},{"type":"Feature","properties":{"NAME":"Kingdom of Hungary","ADMIN_LEVEL":3,"OHM_RELATION_ID":2829140,"START_DATE":"1779-04-23","END_DATE":"1848-04-10"},"geometry":{"type":"Polygon","coordinates":[[[15.986,46.827],[15.998,46.811],[15.987,46.749],[16.002,46.719],[16.025,46.711],[16.042,46.686],[16.034,46.652],[16.105,46.612],[16.104,46.606],[16.152,46.601],[16.266,46.541],[16.238,46.511],[16.241,46.486],[16.259,46.47],[16.273,46.415],[16.308,46.397],[16.302,46.378],[16.363,46.319],[16.383,46.314],[16.405,46.319],[16.415,46.334],[16.424,46.328],[16.435,46.332],[16.454,46.317],[16.466,46.325],[16.511,46.31],[16.535,46.312],[16.566,46.329],[16.61,46.308],[16.639,46.309],[16.649,46.32],[16.66,46.312],[16.665,46.321],[16.692,46.324],[16.716,46.308],[16.718,46.321],[16.732,46.313],[16.743,46.323],[16.738,46.31],[16.761,46.304],[16.765,46.315],[16.772,46.305],[16.805,46.308],[16.814,46.289],[16.835,46.307],[16.841,46.301],[16.831,46.289],[16.842,46.283],[16.865,46.279],[16.88,46.289],[16.892,46.278],[16.87,46.272],[16.871,46.25],[16.888,46.256],[16.898,46.25],[16.89,46.24],[16.875,46.242],[16.878,46.237],[16.926,46.241],[16.938,46.254],[16.955,46.239],[16.973,46.243],[16.973,46.225],[17.006,46.223],[17.051,46.204],[17.066,46.21],[17.068,46.195],[17.082,46.186],[17.122,46.18],[17.126,46.169],[17.159,46.169],[17.159,46.156],[17.181,46.149],[17.185,46.133],[17.175,46.128],[17.182,46.121],[17.177,46.108],[17.209,46.108],[17.213,46.114],[17.218,46.11],[17.212,46.102],[17.224,46.099],[17.217,46.083],[17.2,46.079],[17.239,46.077],[17.239,46.068],[17.252,46.066],[17.23,46.065],[17.238,46.058],[17.27,46.057],[17.257,46.046],[17.26,46.033],[17.293,46.032],[17.294,46.023],[17.272,46.022],[17.258,46.012],[17.279,46.002],[17.301,46.004],[17.307,46],[17.296,45.993],[17.298,45.984],[17.318,45.992],[17.325,45.986],[17.309,45.972],[17.311,45.967],[17.334,45.977],[17.336,45.984],[17.327,45.989],[17.331,45.995],[17.357,45.974],[17.363,45.991],[17.375,45.988],[17.368,45.978],[17.375,45.972],[17.361,45.969],[17.362,45.961],[17.386,45.966],[17.392,45.961],[17.354,45.953],[17.346,45.961],[17.347,45.941],[17.377,45.948],[17.389,45.934],[17.411,45.94],[17.415,45.93],[17.429,45.927],[17.434,45.928],[17.426,45.945],[17.432,45.949],[17.467,45.947],[17.483,45.958],[17.477,45.949],[17.496,45.941],[17.498,45.962],[17.505,45.96],[17.503,45.933],[17.52,45.933],[17.513,45.949],[17.518,45.951],[17.546,45.917],[17.553,45.925],[17.547,45.936],[17.571,45.936],[17.585,45.927],[17.59,45.903],[17.61,45.914],[17.636,45.888],[17.65,45.891],[17.632,45.864],[17.659,45.859],[17.662,45.854],[17.648,45.846],[17.648,45.84],[17.663,45.843],[17.65,45.833],[17.653,45.826],[17.677,45.84],[17.685,45.833],[17.682,45.822],[17.695,45.819],[17.703,45.827],[17.694,45.834],[17.702,45.838],[17.716,45.811],[17.728,45.832],[17.753,45.814],[17.765,45.834],[17.774,45.835],[17.784,45.805],[17.815,45.812],[17.844,45.79],[17.856,45.801],[17.855,45.786],[17.848,45.784],[17.864,45.772],[17.9,45.794],[17.926,45.78],[17.921,45.802],[17.944,45.787],[17.944,45.798],[17.954,45.804],[17.965,45.801],[17.97,45.79],[17.995,45.798],[18.029,45.78],[18.036,45.786],[18.037,45.803],[18.047,45.808],[18.058,45.793],[18.057,45.771],[18.085,45.786],[18.083,45.8],[18.089,45.8],[18.102,45.783],[18.098,45.771],[18.132,45.785],[18.142,45.783],[18.136,45.772],[18.145,45.763],[18.175,45.777],[18.168,45.79],[18.183,45.778],[18.203,45.788],[18.242,45.766],[18.239,45.752],[18.269,45.748],[18.258,45.735],[18.273,45.742],[18.274,45.757],[18.299,45.757],[18.304,45.747],[18.294,45.739],[18.298,45.735],[18.309,45.736],[18.322,45.752],[18.335,45.752],[18.33,45.719],[18.368,45.717],[18.364,45.713],[18.41,45.696],[18.424,45.71],[18.431,45.706],[18.416,45.692],[18.428,45.689],[18.44,45.69],[18.439,45.707],[18.455,45.71],[18.462,45.699],[18.457,45.692],[18.466,45.687],[18.471,45.712],[18.485,45.714],[18.491,45.709],[18.475,45.695],[18.49,45.68],[18.499,45.683],[18.489,45.673],[18.49,45.658],[18.513,45.655],[18.53,45.665],[18.532,45.658],[18.517,45.651],[18.521,45.639],[18.531,45.642],[18.537,45.663],[18.546,45.664],[18.548,45.648],[18.536,45.641],[18.549,45.639],[18.549,45.632],[18.572,45.632],[18.547,45.623],[18.557,45.616],[18.571,45.623],[18.578,45.615],[18.574,45.6],[18.597,45.606],[18.587,45.595],[18.609,45.602],[18.621,45.593],[18.633,45.597],[18.619,45.582],[18.611,45.588],[18.6,45.58],[18.61,45.573],[18.657,45.577],[18.68,45.564],[18.736,45.564],[18.766,45.543],[18.825,45.55],[18.836,45.558],[18.828,45.539],[18.845,45.533],[18.861,45.536],[18.859,45.552],[18.87,45.552],[18.883,45.518],[18.906,45.529],[18.902,45.539],[18.883,45.541],[18.885,45.55],[18.95,45.537],[19.014,45.554],[19.034,45.534],[19.064,45.532],[19.096,45.519],[19.101,45.504],[19.087,45.489],[19.053,45.485],[19.002,45.495],[18.992,45.482],[18.99,45.451],[19.028,45.421],[19.029,45.409],[18.982,45.397],[18.97,45.38],[19.026,45.344],[19.093,45.335],[19.109,45.297],[19.145,45.28],[19.195,45.265],[19.22,45.265],[19.269,45.28],[19.275,45.271],[19.259,45.246],[19.34,45.232],[19.453,45.234],[19.529,45.252],[19.544,45.248],[19.571,45.217],[19.585,45.212],[19.703,45.228],[19.782,45.222],[19.849,45.235],[19.861,45.244],[19.859,45.277],[19.878,45.296],[19.864,45.31],[19.881,45.333],[19.948,45.378],[19.953,45.386],[19.941,45.393],[19.977,45.454],[19.887,45.482],[19.883,45.545],[19.909,45.534],[19.936,45.543],[19.953,45.516],[19.985,45.499],[20.061,45.516],[20.054,45.477],[20.09,45.493],[20.087,45.522],[20.11,45.522],[20.133,45.495],[20.171,45.473],[20.169,45.461],[20.188,45.46],[20.185,45.447],[20.172,45.446],[20.172,45.44],[20.212,45.448],[20.22,45.441],[20.219,45.408],[20.234,45.415],[20.234,45.41],[20.205,45.39],[20.206,45.383],[20.229,45.377],[20.213,45.367],[20.229,45.357],[20.209,45.337],[20.225,45.333],[20.247,45.349],[20.265,45.34],[20.268,45.333],[20.252,45.322],[20.269,45.314],[20.24,45.313],[20.229,45.306],[20.238,45.303],[20.24,45.285],[20.277,45.267],[20.308,45.231],[20.356,45.258],[20.38,45.285],[20.491,45.269],[20.537,45.3],[20.515,45.322],[20.535,45.349],[20.601,45.374],[20.67,45.337],[20.647,45.323],[20.648,45.313],[20.664,45.311],[20.645,45.31],[20.644,45.302],[20.758,45.273],[20.816,45.278],[21.104,45.146],[21.115,45.085],[21.133,45.059],[21.164,45.066],[21.196,45.049],[21.217,45.035],[21.217,45.015],[21.253,44.997],[21.286,45.003],[21.326,44.978],[21.333,44.959],[21.347,44.95],[21.368,44.948],[21.401,44.98],[21.437,44.962],[21.507,44.944],[21.527,44.927],[21.579,44.931],[21.631,44.888],[21.627,44.87],[21.641,44.851],[21.633,44.847],[21.662,44.827],[21.647,44.811],[21.652,44.794],[21.672,44.785],[21.674,44.772],[21.661,44.756],[21.658,44.725],[21.705,44.716],[21.702,44.706],[21.715,44.702],[21.729,44.712],[21.722,44.716],[21.758,44.732],[21.759,44.738],[21.75,44.741],[21.759,44.746],[21.76,44.769],[21.774,44.774],[21.779,44.798],[21.805,44.813],[21.804,44.829],[21.818,44.828],[21.821,44.852],[21.8,44.894],[21.827,44.911],[21.836,44.943],[21.874,44.979],[21.884,44.972],[21.899,44.983],[21.904,45.005],[21.918,45.018],[21.918,45.033],[21.907,45.046],[21.908,45.067],[21.938,45.064],[21.945,45.098],[21.976,45.123],[22.011,45.111],[22.049,45.178],[22.072,45.181],[22.072,45.194],[22.058,45.201],[22.06,45.212],[22.091,45.245],[22.098,45.28],[22.113,45.292],[22.087,45.318],[22.1,45.339],[22.171,45.384],[22.194,45.434],[22.189,45.452],[22.197,45.464],[22.18,45.474],[22.184,45.486],[22.175,45.491],[22.225,45.511],[22.243,45.583],[22.268,45.588],[22.291,45.608],[22.307,45.654],[22.373,45.667],[22.418,45.664],[22.427,45.675],[22.469,45.694],[22.466,45.723],[22.469,45.728],[22.469,45.73],[22.47,45.73],[22.471,45.732],[22.484,45.736],[22.511,45.747],[22.551,45.777],[22.534,45.801],[22.499,45.785],[22.481,45.787],[22.481,45.789],[22.479,45.789],[22.472,45.801],[22.47,45.802],[22.47,45.805],[22.475,45.835],[22.475,45.838],[22.463,45.837],[22.46,45.837],[22.46,45.848],[22.437,45.855],[22.411,45.855],[22.405,45.86],[22.402,45.861],[22.384,45.88],[22.375,45.888],[22.403,45.903],[22.406,45.905],[22.426,45.933],[22.419,45.941],[22.419,45.942],[22.418,45.944],[22.428,45.96],[22.421,45.981],[22.44,46.026],[22.427,46.034],[22.434,46.048],[22.431,46.079],[22.418,46.081],[22.414,46.086],[22.409,46.088],[22.409,46.091],[22.406,46.095],[22.412,46.109],[22.433,46.106],[22.454,46.129],[22.466,46.146],[22.463,46.153],[22.453,46.163],[22.454,46.17],[22.436,46.208],[22.462,46.222],[22.439,46.228],[22.443,46.239],[22.435,46.246],[22.399,46.252],[22.388,46.259],[22.387,46.277],[22.37,46.283],[22.379,46.305],[22.409,46.313],[22.408,46.331],[22.441,46.33],[22.436,46.348],[22.424,46.351],[22.436,46.391],[22.514,46.388],[22.573,46.398],[22.64,46.392],[22.675,46.409],[22.72,46.431],[22.687,46.442],[22.691,46.455],[22.69,46.456],[22.678,46.469],[22.675,46.483],[22.673,46.487],[22.674,46.488],[22.674,46.49],[22.676,46.523],[22.691,46.519],[22.726,46.546],[22.813,46.556],[22.812,46.569],[22.815,46.569],[22.816,46.577],[22.812,46.589],[22.808,46.592],[22.803,46.614],[22.802,46.618],[22.802,46.62],[22.812,46.636],[22.792,46.628],[22.792,46.63],[22.788,46.629],[22.793,46.64],[22.773,46.651],[22.774,46.678],[22.811,46.705],[22.788,46.717],[22.74,46.716],[22.709,46.738],[22.712,46.764],[22.672,46.768],[22.649,46.782],[22.654,46.792],[22.634,46.798],[22.704,46.806],[22.727,46.816],[22.754,46.876],[22.778,46.898],[22.776,46.909],[22.789,46.929],[22.782,46.952],[22.795,46.977],[22.756,47.002],[22.711,47.01],[22.69,47.033],[22.685,47.051],[22.631,47.056],[22.615,47.061],[22.593,47.064],[22.515,47.109],[22.532,47.142],[22.511,47.157],[22.511,47.158],[22.506,47.161],[22.494,47.187],[22.512,47.195],[22.507,47.205],[22.521,47.225],[22.518,47.235],[22.52,47.235],[22.52,47.237],[22.541,47.234],[22.566,47.254],[22.56,47.277],[22.555,47.291],[22.543,47.298],[22.525,47.308],[22.488,47.308],[22.488,47.309],[22.486,47.309],[22.488,47.314],[22.488,47.357],[22.465,47.371],[22.412,47.374],[22.399,47.397],[22.362,47.412],[22.363,47.426],[22.352,47.434],[22.339,47.472],[22.337,47.478],[22.341,47.49],[22.366,47.493],[22.368,47.499],[22.368,47.506],[22.371,47.508],[22.372,47.51],[22.374,47.51],[22.383,47.515],[22.398,47.508],[22.423,47.542],[22.451,47.549],[22.448,47.559],[22.467,47.578],[22.475,47.579],[22.483,47.584],[22.494,47.58],[22.501,47.59],[22.502,47.593],[22.503,47.593],[22.504,47.594],[22.513,47.592],[22.531,47.605],[22.59,47.608],[22.595,47.619],[22.625,47.621],[22.638,47.605],[22.631,47.599],[22.632,47.597],[22.661,47.603],[22.664,47.602],[22.667,47.603],[22.665,47.602],[22.683,47.598],[22.685,47.585],[22.726,47.594],[22.728,47.594],[22.758,47.588],[22.762,47.587],[22.763,47.579],[22.75,47.571],[22.763,47.563],[22.788,47.555],[22.805,47.554],[22.805,47.55],[22.81,47.548],[22.806,47.533],[22.812,47.529],[22.802,47.524],[22.801,47.51],[22.804,47.499],[22.8,47.498],[22.8,47.495],[22.759,47.487],[22.737,47.461],[22.722,47.457],[22.696,47.466],[22.643,47.459],[22.653,47.446],[22.647,47.426],[22.652,47.394],[22.671,47.38],[22.776,47.417],[22.789,47.439],[22.813,47.453],[22.84,47.445],[22.852,47.449],[22.856,47.45],[22.857,47.45],[22.861,47.451],[22.907,47.446],[22.911,47.451],[22.921,47.474],[22.936,47.48],[22.941,47.485],[22.94,47.489],[22.944,47.488],[22.945,47.49],[22.998,47.481],[23.045,47.489],[23.046,47.498],[23.044,47.517],[23.052,47.555],[23.065,47.571],[23.148,47.627],[23.279,47.613],[23.284,47.604],[23.288,47.602],[23.289,47.595],[23.289,47.594],[23.291,47.573],[23.332,47.574],[23.349,47.567],[23.345,47.575],[23.354,47.581],[23.357,47.572],[23.351,47.572],[23.362,47.567],[23.361,47.573],[23.364,47.571],[23.363,47.575],[23.373,47.571],[23.374,47.576],[23.384,47.579],[23.39,47.588],[23.389,47.594],[23.397,47.596],[23.399,47.6],[23.385,47.608],[23.385,47.61],[23.382,47.611],[23.384,47.614],[23.397,47.611],[23.394,47.615],[23.379,47.619],[23.377,47.619],[23.377,47.62],[23.373,47.621],[23.377,47.625],[23.4,47.629],[23.413,47.647],[23.416,47.647],[23.417,47.648],[23.472,47.654],[23.506,47.672],[23.51,47.67],[23.511,47.67],[23.511,47.669],[23.513,47.668],[23.511,47.664],[23.509,47.642],[23.493,47.636],[23.487,47.619],[23.501,47.618],[23.505,47.624],[23.503,47.619],[23.507,47.621],[23.507,47.622],[23.509,47.622],[23.51,47.621],[23.533,47.614],[23.536,47.61],[23.55,47.609],[23.572,47.596],[23.576,47.596],[23.572,47.588],[23.575,47.585],[23.595,47.577],[23.616,47.573],[23.623,47.574],[23.628,47.587],[23.683,47.573],[23.697,47.591],[23.699,47.59],[23.7,47.591],[23.738,47.579],[23.759,47.585],[23.793,47.612],[23.811,47.628],[23.821,47.644],[23.824,47.65],[23.825,47.651],[23.827,47.654],[23.836,47.658],[23.842,47.662],[23.847,47.684],[23.864,47.694],[23.9,47.676],[23.908,47.659],[23.973,47.659],[23.983,47.662],[23.986,47.666],[24.026,47.673],[24.032,47.658],[24.055,47.654],[24.068,47.639],[24.101,47.634],[24.095,47.615],[24.154,47.614],[24.176,47.58],[24.178,47.561],[24.215,47.55],[24.267,47.517],[24.277,47.527],[24.279,47.545],[24.302,47.558],[24.302,47.576],[24.326,47.567],[24.355,47.573],[24.387,47.604],[24.557,47.573],[24.56,47.564],[24.625,47.576],[24.653,47.569],[24.655,47.555],[24.694,47.559],[24.723,47.575],[24.76,47.569],[24.789,47.577],[24.808,47.566],[24.822,47.594],[24.859,47.592],[24.899,47.603],[24.963,47.596],[24.998,47.575],[25.045,47.56],[25.067,47.566],[25.073,47.572],[25.073,47.609],[25.056,47.634],[25.053,47.657],[25.024,47.666],[24.945,47.718],[24.924,47.724],[24.923,47.734],[24.886,47.731],[24.878,47.753],[24.836,47.78],[24.834,47.797],[24.822,47.806],[24.822,47.821],[24.787,47.825],[24.767,47.839],[24.753,47.83],[24.734,47.844],[24.708,47.84],[24.704,47.851],[24.671,47.865],[24.666,47.875],[24.674,47.896],[24.635,47.925],[24.628,47.948],[24.596,47.947],[24.579,47.967],[24.563,47.969],[24.577,48.018],[24.627,48.047],[24.595,48.091],[24.56,48.105],[24.555,48.118],[24.53,48.124],[24.534,48.129],[24.523,48.144],[24.504,48.153],[24.5,48.16],[24.52,48.177],[24.51,48.186],[24.526,48.196],[24.521,48.2],[24.531,48.213],[24.545,48.216],[24.523,48.236],[24.486,48.243],[24.488,48.28],[24.445,48.302],[24.441,48.314],[24.432,48.314],[24.417,48.331],[24.358,48.352],[24.351,48.362],[24.357,48.376],[24.35,48.382],[24.306,48.396],[24.288,48.399],[24.281,48.392],[24.289,48.381],[24.259,48.349],[24.24,48.359],[24.178,48.366],[24.182,48.375],[24.155,48.386],[24.152,48.401],[24.141,48.409],[24.146,48.435],[24.132,48.438],[24.127,48.468],[24.141,48.482],[24.115,48.502],[24.13,48.519],[24.126,48.532],[24.089,48.527],[24.077,48.512],[24.067,48.518],[24.032,48.501],[24.003,48.507],[23.974,48.477],[23.981,48.466],[23.963,48.458],[23.925,48.465],[23.908,48.484],[23.919,48.494],[23.916,48.508],[23.925,48.513],[23.914,48.534],[23.929,48.552],[23.907,48.563],[23.892,48.554],[23.862,48.554],[23.833,48.568],[23.835,48.575],[23.805,48.58],[23.791,48.594],[23.796,48.601],[23.788,48.604],[23.797,48.632],[23.779,48.644],[23.744,48.646],[23.733,48.638],[23.706,48.639],[23.637,48.685],[23.638,48.699],[23.626,48.706],[23.597,48.705],[23.592,48.718],[23.515,48.734],[23.469,48.718],[23.467,48.724],[23.41,48.736],[23.396,48.733],[23.38,48.742],[23.361,48.771],[23.325,48.753],[23.286,48.776],[23.268,48.762],[23.201,48.76],[23.153,48.832],[23.134,48.834],[23.131,48.854],[23.098,48.863],[23.06,48.846],[23.047,48.853],[23.02,48.848],[23,48.83],[22.975,48.845],[22.971,48.874],[22.903,48.902],[22.878,48.933],[22.872,48.946],[22.88,48.961],[22.919,48.971],[22.914,48.989],[22.9,49.002],[22.847,49.003],[22.835,49.024],[22.813,49.025],[22.765,49.054],[22.755,49.043],[22.718,49.053],[22.683,49.039],[22.652,49.051],[22.629,49.077],[22.582,49.097],[22.563,49.088],[22.538,49.094],[22.5,49.086],[22.459,49.103],[22.426,49.099],[22.392,49.118],[22.365,49.146],[22.332,49.145],[22.32,49.136],[22.227,49.153],[22.235,49.174],[22.223,49.184],[22.188,49.174],[22.147,49.191],[22.143,49.2],[22.062,49.212],[22.031,49.225],[22.041,49.254],[22.034,49.261],[22.035,49.277],[21.985,49.309],[21.965,49.346],[21.905,49.352],[21.875,49.374],[21.859,49.369],[21.839,49.392],[21.803,49.382],[21.788,49.367],[21.789,49.357],[21.778,49.356],[21.764,49.382],[21.725,49.4],[21.724,49.411],[21.697,49.418],[21.682,49.411],[21.661,49.416],[21.632,49.446],[21.591,49.434],[21.564,49.441],[21.549,49.433],[21.533,49.436],[21.517,49.418],[21.493,49.429],[21.472,49.414],[21.434,49.412],[21.4,49.434],[21.374,49.433],[21.342,49.451],[21.304,49.449],[21.273,49.46],[21.266,49.447],[21.224,49.426],[21.227,49.417],[21.209,49.404],[21.182,49.402],[21.151,49.428],[21.124,49.436],[21.114,49.425],[21.092,49.429],[21.05,49.42],[21.053,49.407],[21.1,49.379],[21.095,49.367],[21.075,49.359],[21.045,49.365],[20.989,49.328],[20.994,49.313],[20.986,49.307],[20.966,49.309],[20.927,49.296],[20.903,49.316],[20.904,49.323],[20.875,49.32],[20.882,49.333],[20.867,49.346],[20.857,49.348],[20.837,49.334],[20.811,49.348],[20.797,49.344],[20.8,49.357],[20.811,49.355],[20.807,49.361],[20.782,49.362],[20.784,49.375],[20.759,49.373],[20.762,49.383],[20.748,49.39],[20.758,49.4],[20.743,49.404],[20.74,49.416],[20.695,49.42],[20.648,49.401],[20.616,49.418],[20.613,49.403],[20.599,49.388],[20.575,49.376],[20.512,49.393],[20.507,49.402],[20.467,49.416],[20.435,49.418],[20.429,49.411],[20.434,49.397],[20.419,49.405],[20.408,49.393],[20.383,49.39],[20.38,49.406],[20.369,49.408],[20.361,49.395],[20.338,49.401],[20.306,49.434],[20.26,49.439],[20.226,49.461],[20.184,49.45],[20.143,49.462],[20.114,49.458],[20.097,49.427],[20.116,49.414],[20.112,49.388],[20.133,49.338],[20.15,49.323],[20.132,49.298],[20.127,49.274],[20.101,49.249],[20.102,49.225],[20.076,49.209],[20.063,49.185],[20.021,49.202],[20.005,49.22],[19.984,49.23],[19.934,49.235],[19.907,49.231],[19.899,49.212],[19.865,49.196],[19.805,49.205],[19.785,49.199],[19.759,49.214],[19.767,49.233],[19.79,49.254],[19.795,49.269],[19.821,49.276],[19.81,49.295],[19.793,49.302],[19.804,49.325],[19.795,49.345],[19.803,49.368],[19.792,49.382],[19.79,49.407],[19.803,49.478],[19.799,49.486],[19.81,49.503],[19.851,49.523],[19.843,49.541],[19.797,49.559],[19.757,49.556],[19.751,49.571],[19.729,49.576],[19.678,49.575],[19.619,49.624],[19.59,49.623],[19.587,49.613],[19.596,49.602],[19.587,49.59],[19.524,49.572],[19.481,49.587],[19.468,49.613],[19.45,49.613],[19.441,49.598],[19.409,49.591],[19.4,49.574],[19.373,49.568],[19.36,49.536],[19.261,49.531],[19.234,49.511],[19.236,49.496],[19.22,49.471],[19.228,49.464],[19.224,49.454],[19.198,49.448],[19.188,49.436],[19.197,49.414],[19.151,49.404],[19.14,49.41],[19.107,49.404],[19.073,49.418],[19.055,49.415],[19.035,49.396],[18.98,49.395],[18.969,49.41],[18.987,49.429],[18.974,49.452],[18.963,49.454],[18.963,49.486],[18.972,49.5],[18.942,49.519],[18.812,49.516],[18.745,49.489],[18.68,49.507],[18.618,49.495],[18.601,49.498],[18.598,49.509],[18.553,49.503],[18.535,49.49],[18.546,49.466],[18.492,49.435],[18.478,49.412],[18.445,49.393],[18.404,49.396],[18.415,49.37],[18.374,49.329],[18.296,49.304],[18.187,49.287],[18.181,49.268],[18.147,49.248],[18.146,49.233],[18.155,49.23],[18.149,49.205],[18.131,49.188],[18.135,49.164],[18.108,49.136],[18.12,49.121],[18.112,49.115],[18.115,49.089],[18.093,49.058],[18.07,49.037],[18.024,49.021],[17.991,49.028],[17.922,49.018],[17.914,49.011],[17.914,48.996],[17.904,48.984],[17.886,48.929],[17.871,48.923],[17.785,48.925],[17.781,48.915],[17.702,48.86],[17.631,48.854],[17.621,48.843],[17.599,48.839],[17.59,48.826],[17.524,48.812],[17.478,48.841],[17.452,48.846],[17.396,48.813],[17.36,48.814],[17.322,48.844],[17.302,48.845],[17.277,48.861],[17.195,48.875],[17.152,48.849],[17.146,48.837],[17.116,48.841],[17.088,48.787],[17.047,48.769],[17.025,48.738],[16.998,48.723],[17.005,48.699],[16.995,48.699],[16.998,48.69],[16.983,48.69],[16.976,48.682],[16.976,48.672],[16.968,48.668],[16.974,48.648],[16.959,48.64],[16.964,48.631],[16.932,48.602],[16.941,48.593],[16.935,48.59],[16.944,48.589],[16.933,48.565],[16.953,48.545],[16.934,48.529],[16.945,48.522],[16.911,48.514],[16.918,48.497],[16.89,48.492],[16.896,48.486],[16.889,48.476],[16.881,48.478],[16.849,48.447],[16.852,48.433],[16.846,48.432],[16.863,48.42],[16.852,48.417],[16.847,48.402],[16.856,48.398],[16.855,48.386],[16.834,48.382],[16.846,48.349],[16.874,48.349],[16.872,48.338],[16.908,48.326],[16.9,48.317],[16.907,48.314],[16.896,48.311],[16.891,48.3],[16.902,48.301],[16.897,48.295],[16.92,48.274],[16.952,48.274],[16.946,48.236],[16.96,48.222],[16.976,48.182],[16.964,48.17],[17.013,48.149],[17.026,48.129],[17.038,48.136],[17.055,48.132],[17.057,48.142],[17.066,48.119],[17.042,48.102],[17.036,48.084],[17.002,48.093],[17.025,48.098],[17.024,48.103],[17.005,48.099],[16.986,48.112],[16.976,48.106],[16.969,48.096],[17.016,48.075],[16.979,48.023],[16.969,48.028],[16.975,48.035],[16.968,48.041],[16.923,48.051],[16.915,48.057],[16.917,48.068],[16.874,48.072],[16.831,48.042],[16.837,48.033],[16.83,48.029],[16.798,48.028],[16.736,48.01],[16.703,48.012],[16.701,47.988],[16.696,47.988],[16.7,47.967],[16.659,47.961],[16.652,47.949],[16.634,47.946],[16.632,47.93],[16.581,47.888],[16.574,47.886],[16.519,47.944],[16.467,47.94],[16.421,47.913],[16.412,47.881],[16.348,47.868],[16.388,47.843],[16.348,47.816],[16.344,47.801],[16.332,47.801],[16.317,47.785],[16.308,47.791],[16.315,47.805],[16.278,47.81],[16.269,47.795],[16.303,47.781],[16.296,47.77],[16.295,47.724],[16.313,47.689],[16.349,47.68],[16.367,47.648],[16.37,47.623],[16.35,47.617],[16.311,47.546],[16.339,47.523],[16.333,47.505],[16.311,47.489],[16.316,47.485],[16.297,47.479],[16.306,47.474],[16.302,47.467],[16.257,47.451],[16.224,47.427],[16.101,47.413],[16.105,47.397],[16.093,47.39],[16.082,47.398],[16.097,47.407],[16.072,47.404],[16.063,47.385],[16.031,47.379],[16.034,47.372],[16.016,47.368],[16.044,47.34],[16.057,47.315],[16.086,47.245],[16.083,47.225],[16.113,47.161],[16.114,47.143],[16.107,47.119],[16.096,47.112],[16.09,47.075],[16.121,47.044],[16.115,47.03],[16.152,46.993],[16.123,46.99],[16.095,46.954],[16.095,46.935],[16.073,46.936],[16.062,46.913],[16.014,46.885],[16.005,46.845],[15.986,46.827]],[[18.603,45.602],[18.606,45.615],[18.62,45.615],[18.62,45.608],[18.609,45.603],[18.603,45.602]]]}},{"type":"Feature","properties":{"NAME":"Liechtenstein","ADMIN_LEVEL":4,"OHM_RELATION_ID":2806824,"START_DATE":"1719-01-23","END_DATE":"1806-07-25"},"geometry":{"type":"MultiPolygon","coordinates":[[[[9.623,47.108],[9.632,47.125],[9.626,47.146],[9.607,47.148],[9.579,47.171],[9.569,47.17],[9.581,47.207],[9.556,47.223],[9.564,47.246],[9.534,47.268],[9.486,47.184],[9.512,47.132],[9.519,47.097],[9.513,47.085],[9.475,47.067],[9.476,47.052],[9.541,47.064],[9.56,47.049],[9.606,47.061],[9.611,47.083],[9.625,47.09],[9.623,47.108]]]]}},{"type":"Feature","properties":{"NAME":"Ligurian Republic","ADMIN_LEVEL":4,"OHM_RELATION_ID":2750805,"START_DATE":"1797-06-14","END_DATE":"1805-06-09"},"geometry":{"type":"MultiPolygon","coordinates":[[[[8.091,44.173],[8.067,44.145],[8.043,44.143],[8.014,44.156],[7.98,44.138],[8.013,44.12],[8.003,44.117],[8.012,44.111],[8.007,44.102],[7.971,44.113],[7.943,44.101],[7.926,44.112],[7.884,44.106],[7.882,44.114],[7.815,44.124],[7.765,44.144],[7.726,44.126],[7.715,44.107],[7.733,44.084],[7.755,44.085],[7.736,44.076],[7.728,44.06],[7.712,44.061],[7.703,44.043],[7.665,44.031],[7.662,44.022],[7.67,43.998],[7.752,43.958],[7.759,43.943],[7.743,43.91],[7.728,43.904],[7.735,43.876],[7.71,43.855],[7.714,43.839],[7.687,43.833],[7.652,43.845],[7.614,43.839],[7.604,43.862],[7.585,43.873],[7.579,43.891],[7.559,43.897],[7.51,43.882],[7.495,43.858],[7.518,43.807],[7.509,43.79],[7.539,43.746],[7.589,43.753],[7.69,43.743],[7.72,43.759],[7.752,43.761],[7.789,43.779],[7.841,43.781],[7.884,43.8],[7.966,43.813],[8.101,43.862],[8.126,43.887],[8.213,43.933],[8.224,43.953],[8.214,43.98],[8.265,44.021],[8.276,44.041],[8.279,44.08],[8.319,44.122],[8.446,44.159],[8.474,44.189],[8.472,44.209],[8.5,44.24],[8.505,44.268],[8.549,44.3],[8.752,44.387],[9.097,44.333],[9.096,44.315],[9.116,44.293],[9.206,44.264],[9.237,44.266],[9.273,44.292],[9.332,44.268],[9.347,44.245],[9.372,44.225],[9.465,44.199],[9.52,44.173],[9.599,44.11],[9.632,44.099],[9.657,44.103],[9.711,44.062],[9.791,44.028],[9.826,44.001],[9.876,44.005],[9.899,44.03],[9.945,44.004],[9.991,44.001],[10.032,44.064],[10.071,44.093],[10.058,44.108],[10.028,44.119],[10.005,44.111],[9.993,44.093],[9.984,44.099],[9.994,44.105],[9.995,44.119],[9.975,44.138],[9.981,44.143],[9.974,44.167],[9.892,44.167],[9.933,44.196],[9.915,44.199],[9.909,44.208],[9.891,44.208],[9.866,44.183],[9.852,44.197],[9.825,44.198],[9.821,44.225],[9.802,44.206],[9.763,44.206],[9.765,44.212],[9.754,44.22],[9.759,44.234],[9.748,44.254],[9.781,44.294],[9.756,44.321],[9.729,44.328],[9.719,44.355],[9.699,44.366],[9.675,44.364],[9.655,44.412],[9.638,44.415],[9.606,44.435],[9.585,44.429],[9.558,44.439],[9.541,44.426],[9.495,44.424],[9.479,44.409],[9.464,44.425],[9.443,44.417],[9.439,44.429],[9.458,44.442],[9.471,44.469],[9.469,44.481],[9.496,44.483],[9.505,44.529],[9.48,44.563],[9.409,44.56],[9.421,44.574],[9.417,44.596],[9.396,44.61],[9.404,44.642],[9.366,44.69],[9.26,44.68],[9.236,44.715],[9.232,44.702],[9.243,44.687],[9.2,44.686],[9.166,44.693],[9.128,44.728],[9.078,44.722],[9.029,44.75],[9.008,44.75],[9.004,44.743],[9.021,44.729],[9.019,44.716],[9.004,44.709],[8.988,44.715],[8.948,44.701],[8.944,44.708],[8.898,44.698],[8.872,44.705],[8.846,44.695],[8.827,44.716],[8.825,44.731],[8.847,44.761],[8.847,44.798],[8.83,44.804],[8.798,44.783],[8.766,44.785],[8.759,44.8],[8.744,44.807],[8.731,44.805],[8.722,44.793],[8.76,44.746],[8.793,44.723],[8.788,44.714],[8.771,44.716],[8.763,44.691],[8.781,44.683],[8.789,44.664],[8.82,44.64],[8.794,44.618],[8.807,44.597],[8.804,44.58],[8.818,44.571],[8.826,44.559],[8.822,44.548],[8.828,44.546],[8.798,44.525],[8.8,44.502],[8.786,44.488],[8.771,44.489],[8.765,44.53],[8.752,44.526],[8.749,44.55],[8.739,44.55],[8.725,44.579],[8.697,44.58],[8.673,44.597],[8.685,44.611],[8.672,44.621],[8.675,44.64],[8.663,44.656],[8.618,44.651],[8.603,44.643],[8.601,44.632],[8.618,44.608],[8.613,44.602],[8.623,44.597],[8.619,44.577],[8.597,44.555],[8.612,44.548],[8.587,44.525],[8.572,44.524],[8.576,44.509],[8.55,44.504],[8.536,44.512],[8.474,44.511],[8.471,44.522],[8.459,44.518],[8.448,44.499],[8.461,44.493],[8.464,44.469],[8.444,44.439],[8.377,44.408],[8.344,44.351],[8.355,44.332],[8.339,44.32],[8.338,44.299],[8.313,44.262],[8.305,44.257],[8.272,44.272],[8.248,44.273],[8.271,44.302],[8.272,44.318],[8.316,44.327],[8.318,44.343],[8.289,44.367],[8.267,44.352],[8.255,44.3],[8.232,44.295],[8.235,44.306],[8.223,44.323],[8.212,44.325],[8.156,44.272],[8.102,44.281],[8.063,44.253],[8.077,44.235],[8.068,44.227],[8.076,44.204],[8.148,44.206],[8.17,44.214],[8.179,44.202],[8.177,44.189],[8.188,44.184],[8.151,44.165],[8.091,44.173]]]]}},{"type":"Feature","properties":{"NAME":"Montenegro","ADMIN_LEVEL":2,"OHM_RELATION_ID":2857706,"START_DATE":"1789","END_DATE":"1852-03-13"},"geometry":{"type":"MultiPolygon","coordinates":[[[[18.52,42.618],[18.553,42.584],[18.597,42.595],[18.604,42.621],[18.642,42.62],[18.679,42.635],[18.706,42.627],[18.722,42.581],[18.746,42.576],[18.75,42.565],[18.74,42.556],[18.78,42.515],[18.778,42.475],[18.79,42.414],[18.784,42.398],[18.772,42.395],[18.779,42.381],[18.834,42.341],[18.902,42.325],[18.929,42.311],[18.942,42.296],[18.937,42.283],[18.955,42.249],[18.988,42.211],[19.006,42.205],[19.012,42.187],[19.053,42.163],[19.08,42.158],[19.113,42.12],[19.172,42.116],[19.121,42.269],[19.159,42.322],[19.157,42.35],[19.169,42.36],[19.197,42.418],[19.184,42.456],[19.147,42.477],[19.196,42.521],[19.265,42.468],[19.306,42.477],[19.402,42.566],[19.553,42.569],[19.715,42.66],[19.836,42.78],[19.817,42.776],[19.646,42.869],[19.615,42.865],[19.576,42.802],[19.549,42.794],[19.512,42.805],[19.51,42.821],[19.482,42.844],[19.411,42.86],[19.345,42.936],[19.255,43.013],[19.15,43.005],[19.023,42.955],[19.009,42.898],[19.038,42.77],[19.015,42.711],[18.729,42.815],[18.567,42.81],[18.52,42.774],[18.52,42.747],[18.569,42.742],[18.57,42.72],[18.548,42.687],[18.549,42.672],[18.574,42.646],[18.537,42.637],[18.52,42.618]]]]}},{"type":"Feature","properties":{"NAME":"Principality of Wallachia","ADMIN_LEVEL":4,"OHM_RELATION_ID":2929116,"START_DATE":"1538","END_DATE":"1829-09-14"},"geometry":{"type":"MultiPolygon","coordinates":[[[[22.422,44.795],[22.429,44.761],[22.464,44.744],[22.472,44.724],[22.468,44.714],[22.602,44.622],[22.702,44.608],[22.757,44.562],[22.763,44.539],[22.695,44.518],[22.635,44.55],[22.588,44.552],[22.563,44.534],[22.557,44.499],[22.539,44.48],[22.474,44.482],[22.457,44.477],[22.456,44.468],[22.499,44.411],[22.509,44.372],[22.529,44.337],[22.558,44.31],[22.612,44.293],[22.661,44.288],[22.681,44.278],[22.683,44.249],[22.672,44.222],[22.688,44.208],[22.758,44.193],[22.789,44.166],[22.864,44.137],[22.924,44.1],[22.993,44.098],[23.03,44.087],[23.043,44.075],[23.042,44.053],[23.006,44.011],[22.944,44.007],[22.88,43.983],[22.836,43.876],[22.869,43.837],[22.9,43.826],[23.065,43.796],[23.138,43.805],[23.268,43.846],[23.414,43.853],[23.495,43.834],[23.554,43.804],[23.607,43.792],[23.702,43.806],[23.778,43.8],[23.818,43.771],[23.852,43.759],[23.979,43.743],[24.058,43.719],[24.087,43.703],[24.175,43.681],[24.294,43.698],[24.35,43.697],[24.501,43.762],[24.611,43.745],[24.724,43.707],[24.778,43.706],[24.846,43.709],[24.827,43.746],[24.858,43.759],[24.907,43.759],[24.918,43.738],[24.966,43.722],[25.008,43.725],[25.021,43.71],[25.09,43.687],[25.112,43.684],[25.18,43.698],[25.243,43.686],[25.343,43.63],[25.394,43.618],[25.492,43.649],[25.561,43.648],[25.667,43.69],[25.73,43.69],[25.78,43.709],[25.809,43.748],[25.839,43.767],[25.864,43.769],[25.865,43.782],[25.888,43.793],[25.954,43.859],[25.925,43.883],[25.933,43.912],[25.964,43.925],[26.03,43.918],[26.073,43.926],[26.107,43.97],[26.144,43.983],[26.197,43.985],[26.336,44.033],[26.601,44.052],[26.702,44.078],[26.763,44.078],[26.917,44.138],[26.992,44.134],[27.066,44.149],[27.23,44.115],[27.315,44.14],[27.36,44.127],[27.394,44.132],[27.452,44.124],[27.525,44.169],[27.596,44.197],[27.637,44.206],[27.723,44.196],[27.776,44.232],[27.848,44.258],[27.914,44.247],[27.935,44.25],[28.009,44.32],[28.028,44.37],[28.076,44.416],[28.11,44.435],[28.088,44.491],[28.053,44.51],[28.036,44.549],[28.014,44.572],[28.014,44.583],[28.035,44.612],[28.018,44.647],[27.973,44.676],[27.942,44.679],[27.89,44.703],[27.871,44.725],[27.882,44.765],[27.874,44.774],[27.82,44.786],[27.828,44.829],[27.854,44.867],[27.873,44.877],[27.893,44.926],[27.74,44.943],[27.763,44.989],[27.412,45.075],[27.466,45.203],[27.636,45.286],[27.757,45.359],[27.631,45.431],[26.66,45.497],[26.416,45.497],[26.24,45.366],[26.134,45.567],[26.117,45.546],[26.096,45.518],[26.094,45.517],[26.093,45.516],[26.066,45.504],[26.065,45.485],[26.047,45.478],[26.044,45.479],[26.041,45.478],[26.014,45.49],[25.995,45.514],[25.969,45.508],[25.949,45.513],[25.938,45.513],[25.931,45.518],[25.922,45.521],[25.89,45.485],[25.896,45.482],[25.895,45.479],[25.897,45.477],[25.889,45.448],[25.867,45.436],[25.868,45.424],[25.86,45.422],[25.823,45.431],[25.826,45.44],[25.81,45.467],[25.802,45.472],[25.783,45.479],[25.766,45.465],[25.726,45.465],[25.7,45.483],[25.699,45.504],[25.675,45.526],[25.644,45.535],[25.648,45.527],[25.638,45.506],[25.625,45.499],[25.596,45.515],[25.536,45.509],[25.526,45.499],[25.511,45.502],[25.515,45.472],[25.512,45.471],[25.512,45.47],[25.411,45.428],[25.405,45.388],[25.368,45.391],[25.322,45.381],[25.311,45.387],[25.31,45.391],[25.309,45.392],[25.309,45.399],[25.308,45.407],[25.31,45.413],[25.31,45.431],[25.308,45.432],[25.29,45.438],[25.283,45.437],[25.273,45.432],[25.273,45.434],[25.272,45.434],[25.272,45.444],[25.257,45.452],[25.238,45.477],[25.239,45.482],[25.234,45.517],[25.212,45.526],[25.192,45.522],[25.19,45.523],[25.189,45.523],[25.105,45.583],[25.086,45.582],[25.082,45.581],[25.078,45.581],[25.053,45.587],[25.032,45.592],[24.998,45.586],[24.991,45.587],[24.988,45.587],[24.958,45.593],[24.955,45.591],[24.945,45.58],[24.939,45.583],[24.938,45.582],[24.917,45.594],[24.84,45.591],[24.838,45.591],[24.83,45.605],[24.829,45.606],[24.794,45.603],[24.771,45.611],[24.77,45.611],[24.74,45.604],[24.696,45.605],[24.673,45.594],[24.626,45.603],[24.598,45.596],[24.571,45.577],[24.556,45.586],[24.522,45.581],[24.511,45.586],[24.481,45.574],[24.446,45.591],[24.433,45.581],[24.385,45.584],[24.287,45.561],[24.257,45.545],[24.255,45.545],[24.253,45.544],[24.234,45.547],[24.232,45.547],[24.206,45.524],[24.203,45.523],[24.167,45.514],[24.087,45.513],[24.083,45.513],[24.011,45.528],[24.001,45.526],[23.986,45.531],[23.986,45.491],[23.983,45.49],[23.981,45.486],[23.976,45.487],[23.939,45.494],[23.937,45.484],[23.938,45.478],[23.934,45.467],[23.932,45.458],[23.914,45.458],[23.879,45.459],[23.872,45.465],[23.856,45.473],[23.847,45.474],[23.822,45.475],[23.749,45.435],[23.742,45.43],[23.702,45.425],[23.693,45.437],[23.691,45.471],[23.706,45.484],[23.708,45.49],[23.709,45.503],[23.705,45.507],[23.688,45.518],[23.681,45.515],[23.666,45.509],[23.665,45.51],[23.662,45.509],[23.658,45.515],[23.641,45.527],[23.626,45.519],[23.631,45.512],[23.615,45.507],[23.578,45.51],[23.576,45.509],[23.596,45.492],[23.598,45.479],[23.598,45.477],[23.597,45.471],[23.595,45.452],[23.594,45.451],[23.594,45.45],[23.575,45.428],[23.594,45.421],[23.591,45.4],[23.602,45.387],[23.586,45.367],[23.589,45.356],[23.494,45.316],[23.493,45.316],[23.49,45.315],[23.457,45.322],[23.431,45.308],[23.43,45.309],[23.427,45.308],[23.413,45.326],[23.404,45.334],[23.356,45.339],[23.349,45.335],[23.333,45.321],[23.331,45.314],[23.312,45.301],[23.289,45.31],[23.27,45.31],[23.251,45.309],[23.248,45.308],[23.231,45.301],[23.191,45.299],[23.174,45.296],[23.144,45.282],[23.097,45.292],[23.087,45.284],[23.001,45.282],[22.973,45.271],[22.913,45.278],[22.875,45.265],[22.845,45.273],[22.843,45.275],[22.84,45.276],[22.834,45.285],[22.777,45.26],[22.776,45.265],[22.772,45.27],[22.739,45.257],[22.734,45.254],[22.733,45.254],[22.73,45.253],[22.704,45.257],[22.697,45.254],[22.673,45.239],[22.603,45.214],[22.56,45.16],[22.577,45.138],[22.65,45.125],[22.656,45.105],[22.593,45.048],[22.569,45.039],[22.531,44.996],[22.502,44.98],[22.509,44.962],[22.485,44.935],[22.494,44.921],[22.482,44.903],[22.486,44.883],[22.422,44.795]]],[[[26.418,45.769],[26.422,45.753],[26.421,45.751],[26.44,45.759],[26.44,45.761],[26.438,45.766],[26.418,45.769]]]]}},{"type":"Feature","properties":{"NAME":"Republic of Ragusa","ADMIN_LEVEL":2,"OHM_RELATION_ID":2830352,"START_DATE":"1699-01-25","END_DATE":"1808-01-30"},"geometry":{"type":"MultiPolygon","coordinates":[[[[18.302,42.475],[18.359,42.445],[18.396,42.411],[18.437,42.402],[18.491,42.363],[18.516,42.355],[18.546,42.357],[18.551,42.388],[18.538,42.409],[18.474,42.464],[18.436,42.483],[18.446,42.507],[18.436,42.524],[18.44,42.543],[18.434,42.565],[18.39,42.589],[18.366,42.616],[18.287,42.617],[18.244,42.603],[18.241,42.616],[18.222,42.623],[18.192,42.654],[18.178,42.661],[18.16,42.657],[18.144,42.679],[18.105,42.686],[18.107,42.709],[18.101,42.715],[18.036,42.749],[18.01,42.753],[17.996,42.776],[17.975,42.78],[17.95,42.799],[17.891,42.81],[17.887,42.815],[17.9,42.832],[17.87,42.847],[17.857,42.868],[17.859,42.885],[17.83,42.909],[17.809,42.917],[17.787,42.892],[17.76,42.91],[17.691,42.926],[17.649,42.889],[17.55,42.936],[17.494,42.945],[17.354,43.027],[17.287,43.048],[17.168,43.064],[17.092,43.061],[17.051,43.077],[16.976,43.078],[16.953,43.064],[16.952,43.014],[16.967,43.006],[17.078,42.977],[17.189,42.966],[17.227,42.948],[17.255,42.913],[17.346,42.876],[17.376,42.873],[17.381,42.85],[17.324,42.837],[17.269,42.799],[17.268,42.775],[17.301,42.741],[17.379,42.717],[17.463,42.709],[17.552,42.685],[17.627,42.678],[17.695,42.653],[17.767,42.651],[17.791,42.663],[17.806,42.691],[17.831,42.689],[17.882,42.665],[17.913,42.641],[17.978,42.635],[18.068,42.606],[18.093,42.588],[18.136,42.583],[18.138,42.569],[18.16,42.543],[18.302,42.475]]],[[[16.512,42.813],[16.471,42.802],[16.443,42.772],[16.435,42.745],[16.45,42.722],[16.484,42.71],[16.505,42.711],[16.557,42.726],[16.584,42.747],[16.589,42.762],[16.582,42.785],[16.549,42.807],[16.512,42.813]]],[[[16.935,42.811],[16.775,42.815],[16.739,42.796],[16.708,42.796],[16.668,42.776],[16.655,42.753],[16.657,42.74],[16.671,42.721],[16.697,42.71],[16.758,42.717],[16.831,42.685],[16.893,42.684],[16.937,42.696],[16.969,42.718],[16.992,42.722],[17.027,42.742],[17.043,42.727],[17.074,42.721],[17.165,42.731],[17.195,42.757],[17.185,42.788],[17.158,42.801],[17.046,42.79],[17.037,42.802],[17.039,42.827],[17.007,42.851],[16.96,42.85],[16.938,42.832],[16.935,42.811]]]]}},{"type":"Feature","properties":{"NAME":"San Marino","ADMIN_LEVEL":2,"OHM_RELATION_ID":2853735,"START_DATE":"1740-02-05","END_DATE":null},"geometry":{"type":"MultiPolygon","coordinates":[[[[12.478,43.897],[12.488,43.898],[12.493,43.917],[12.515,43.939],[12.506,43.958],[12.515,43.99],[12.404,43.949],[12.415,43.929],[12.408,43.921],[12.411,43.901],[12.443,43.906],[12.453,43.895],[12.478,43.897]]]]}},{"type":"Feature","properties":{"NAME":"Transylvania","ADMIN_LEVEL":4,"OHM_RELATION_ID":2878295,"START_DATE":"1765","END_DATE":"1851-05-12"},"geometry":{"type":"Polygon","coordinates":[[[22.339,47.472],[22.352,47.434],[22.363,47.427],[22.362,47.412],[22.399,47.397],[22.412,47.374],[22.465,47.371],[22.489,47.356],[22.492,47.325],[22.486,47.309],[22.525,47.308],[22.555,47.292],[22.568,47.255],[22.541,47.234],[22.52,47.237],[22.521,47.225],[22.507,47.205],[22.512,47.195],[22.494,47.187],[22.511,47.157],[22.532,47.142],[22.515,47.109],[22.592,47.068],[22.631,47.056],[22.685,47.051],[22.69,47.033],[22.711,47.01],[22.756,47.002],[22.795,46.977],[22.782,46.952],[22.789,46.929],[22.776,46.909],[22.778,46.898],[22.754,46.876],[22.727,46.816],[22.704,46.806],[22.634,46.798],[22.654,46.792],[22.649,46.782],[22.672,46.768],[22.712,46.764],[22.709,46.738],[22.74,46.716],[22.788,46.717],[22.811,46.705],[22.774,46.678],[22.773,46.651],[22.793,46.64],[22.788,46.629],[22.814,46.638],[22.802,46.62],[22.808,46.592],[22.817,46.585],[22.813,46.556],[22.73,46.546],[22.691,46.519],[22.676,46.523],[22.674,46.49],[22.678,46.469],[22.691,46.455],[22.687,46.442],[22.72,46.431],[22.675,46.409],[22.634,46.389],[22.573,46.398],[22.514,46.388],[22.436,46.391],[22.424,46.351],[22.436,46.348],[22.441,46.33],[22.408,46.331],[22.409,46.313],[22.379,46.305],[22.37,46.283],[22.387,46.277],[22.388,46.259],[22.399,46.252],[22.435,46.246],[22.443,46.239],[22.439,46.228],[22.462,46.222],[22.436,46.208],[22.455,46.175],[22.453,46.163],[22.469,46.146],[22.433,46.106],[22.412,46.109],[22.409,46.088],[22.431,46.079],[22.436,46.05],[22.429,46.038],[22.44,46.026],[22.433,45.996],[22.421,45.981],[22.428,45.96],[22.418,45.944],[22.426,45.933],[22.406,45.904],[22.375,45.888],[22.411,45.855],[22.437,45.855],[22.46,45.848],[22.46,45.837],[22.475,45.838],[22.478,45.814],[22.47,45.804],[22.479,45.789],[22.499,45.785],[22.534,45.801],[22.551,45.777],[22.505,45.743],[22.471,45.732],[22.466,45.723],[22.469,45.694],[22.427,45.675],[22.427,45.669],[22.457,45.658],[22.453,45.647],[22.495,45.619],[22.506,45.599],[22.544,45.595],[22.546,45.585],[22.532,45.575],[22.535,45.561],[22.521,45.557],[22.502,45.531],[22.517,45.52],[22.531,45.487],[22.561,45.469],[22.588,45.437],[22.618,45.433],[22.638,45.412],[22.668,45.397],[22.668,45.382],[22.657,45.372],[22.684,45.331],[22.696,45.329],[22.697,45.303],[22.677,45.282],[22.689,45.275],[22.682,45.25],[22.706,45.257],[22.734,45.254],[22.764,45.27],[22.774,45.27],[22.777,45.26],[22.834,45.285],[22.845,45.273],[22.875,45.265],[22.918,45.279],[22.973,45.271],[23.001,45.282],[23.085,45.284],[23.095,45.292],[23.144,45.282],[23.174,45.296],[23.251,45.309],[23.289,45.31],[23.312,45.301],[23.353,45.339],[23.406,45.334],[23.427,45.308],[23.455,45.322],[23.49,45.315],[23.588,45.356],[23.586,45.367],[23.602,45.387],[23.591,45.4],[23.594,45.421],[23.573,45.426],[23.595,45.452],[23.598,45.479],[23.596,45.492],[23.575,45.51],[23.615,45.507],[23.631,45.512],[23.626,45.519],[23.641,45.527],[23.666,45.509],[23.691,45.52],[23.712,45.5],[23.705,45.481],[23.691,45.471],[23.693,45.437],[23.702,45.425],[23.742,45.43],[23.815,45.475],[23.855,45.474],[23.883,45.459],[23.93,45.458],[23.938,45.478],[23.935,45.495],[23.976,45.487],[23.986,45.491],[23.986,45.533],[24.083,45.513],[24.167,45.514],[24.206,45.524],[24.232,45.547],[24.253,45.544],[24.288,45.562],[24.385,45.584],[24.433,45.581],[24.446,45.591],[24.481,45.574],[24.511,45.586],[24.522,45.581],[24.556,45.586],[24.571,45.577],[24.598,45.596],[24.626,45.603],[24.673,45.594],[24.696,45.605],[24.773,45.611],[24.792,45.604],[24.813,45.61],[24.832,45.605],[24.84,45.591],[24.917,45.594],[24.945,45.58],[24.957,45.593],[24.988,45.587],[25.031,45.592],[25.082,45.581],[25.104,45.584],[25.189,45.523],[25.211,45.526],[25.234,45.517],[25.24,45.475],[25.272,45.445],[25.272,45.434],[25.292,45.439],[25.314,45.429],[25.308,45.407],[25.311,45.387],[25.322,45.381],[25.368,45.391],[25.405,45.388],[25.411,45.428],[25.512,45.47],[25.511,45.502],[25.526,45.499],[25.536,45.509],[25.596,45.515],[25.625,45.499],[25.638,45.506],[25.648,45.527],[25.644,45.535],[25.675,45.526],[25.699,45.504],[25.7,45.483],[25.726,45.465],[25.766,45.465],[25.783,45.479],[25.809,45.469],[25.826,45.44],[25.823,45.431],[25.86,45.422],[25.868,45.424],[25.867,45.436],[25.889,45.448],[25.897,45.477],[25.89,45.485],[25.92,45.521],[25.969,45.508],[25.995,45.514],[26.014,45.49],[26.047,45.478],[26.065,45.485],[26.066,45.504],[26.093,45.516],[26.134,45.567],[26.102,45.628],[26.421,45.751],[26.422,45.753],[26.418,45.769],[26.425,45.768],[26.424,45.778],[26.443,45.793],[26.444,45.804],[26.442,45.811],[26.423,45.82],[26.422,45.829],[26.381,45.838],[26.443,45.887],[26.456,45.934],[26.457,45.935],[26.46,45.968],[26.457,45.986],[26.462,45.99],[26.477,46.14],[26.448,46.151],[26.435,46.168],[26.398,46.15],[26.407,46.156],[26.404,46.168],[26.418,46.189],[26.392,46.202],[26.341,46.201],[26.324,46.238],[26.259,46.25],[26.254,46.274],[26.274,46.287],[26.272,46.297],[26.275,46.301],[25.942,46.546],[25.967,46.809],[25.727,46.874],[25.68,47.087],[25.66,47.092],[25.638,47.115],[25.601,47.132],[25.6,47.115],[25.588,47.108],[25.559,47.111],[25.532,47.131],[25.508,47.131],[25.474,47.154],[25.451,47.154],[25.441,47.16],[25.336,47.171],[25.298,47.16],[25.256,47.179],[25.017,47.203],[25.094,47.25],[25.032,47.285],[25.049,47.304],[25.079,47.314],[25.073,47.334],[25.096,47.36],[25.185,47.37],[25.184,47.385],[25.195,47.408],[25.184,47.418],[25.181,47.439],[25.152,47.458],[25.141,47.483],[25.158,47.499],[25.165,47.519],[25.183,47.531],[25.168,47.55],[25.157,47.551],[25.155,47.56],[25.126,47.572],[25.076,47.575],[25.064,47.562],[25.045,47.56],[24.998,47.575],[24.963,47.596],[24.899,47.603],[24.859,47.592],[24.822,47.594],[24.808,47.566],[24.789,47.577],[24.76,47.569],[24.723,47.575],[24.694,47.559],[24.655,47.555],[24.653,47.569],[24.625,47.576],[24.56,47.564],[24.557,47.573],[24.387,47.604],[24.355,47.573],[24.326,47.567],[24.302,47.576],[24.302,47.558],[24.279,47.545],[24.277,47.527],[24.267,47.517],[24.215,47.55],[24.178,47.561],[24.176,47.58],[24.154,47.614],[24.095,47.615],[24.101,47.634],[24.068,47.639],[24.055,47.654],[24.032,47.658],[24.026,47.673],[23.986,47.666],[23.981,47.659],[23.908,47.659],[23.9,47.676],[23.864,47.694],[23.847,47.684],[23.846,47.665],[23.824,47.65],[23.813,47.629],[23.759,47.585],[23.738,47.579],[23.697,47.591],[23.683,47.573],[23.628,47.587],[23.622,47.572],[23.584,47.579],[23.57,47.589],[23.575,47.594],[23.563,47.592],[23.572,47.596],[23.55,47.609],[23.541,47.604],[23.533,47.614],[23.507,47.622],[23.507,47.617],[23.487,47.619],[23.493,47.636],[23.509,47.642],[23.511,47.67],[23.472,47.654],[23.417,47.648],[23.4,47.629],[23.377,47.625],[23.373,47.621],[23.399,47.614],[23.397,47.608],[23.382,47.611],[23.401,47.602],[23.377,47.569],[23.363,47.575],[23.365,47.565],[23.351,47.572],[23.357,47.572],[23.354,47.581],[23.345,47.575],[23.349,47.567],[23.332,47.574],[23.291,47.571],[23.288,47.602],[23.269,47.612],[23.148,47.627],[23.065,47.571],[23.052,47.555],[23.044,47.517],[23.047,47.489],[22.998,47.481],[22.945,47.49],[22.905,47.444],[22.856,47.45],[22.841,47.445],[22.813,47.453],[22.789,47.439],[22.776,47.417],[22.674,47.376],[22.652,47.394],[22.647,47.426],[22.653,47.446],[22.643,47.459],[22.695,47.468],[22.722,47.457],[22.737,47.461],[22.759,47.487],[22.8,47.495],[22.805,47.554],[22.775,47.556],[22.75,47.571],[22.763,47.579],[22.758,47.588],[22.728,47.594],[22.685,47.585],[22.683,47.598],[22.661,47.603],[22.629,47.597],[22.638,47.605],[22.625,47.621],[22.595,47.619],[22.59,47.608],[22.531,47.605],[22.513,47.592],[22.502,47.593],[22.499,47.579],[22.483,47.584],[22.448,47.559],[22.451,47.549],[22.423,47.542],[22.398,47.508],[22.383,47.515],[22.368,47.506],[22.368,47.492],[22.341,47.49],[22.339,47.472]]]}}],"metadata":{"generatedBy":"scripts/build-fief-flat.ts","input":"data/sovereign_fiefs_1800.geojson","year":1800,"cutPolicy":"keep-smaller","containmentCoverageThreshold":0.9,"minOverlapAreaM2":1000,"sliverAreaLimitM2":1000000000,"resolutions":[{"kind":"sliver","cutName":"Kingdom of Hungary","keptName":"Transylvania","overlapKm2":25.18,"coverageOfSmaller":0.0004},{"kind":"sliver","cutName":"Principality of Wallachia","keptName":"Transylvania","overlapKm2":16.38,"coverageOfSmaller":0.0003}],"externalInputs":["data/hre_fiefs_flat_1800.geojson","data/cliopatria_fiefs_flat_1800.geojson"],"externalRemovals":[{"cutName":"Principality of Wallachia","externalName":"Principality of Moldavia","overlapKm2":2528.79},{"cutName":"Transylvania","externalName":"Principality of Moldavia","overlapKm2":1071.78}],"source":"OpenHistoricalMap","sourceUrl":"https://www.openhistoricalmap.org/","license":"CC0-1.0","borderPrecision":"史料に基づく復元（概略。測量された境界ではない）"}}