{"type":"FeatureCollection","features":[{"type":"Feature","properties":{"NAME":"Andorra","ADMIN_LEVEL":2,"OHM_RELATION_ID":2739874,"START_DATE":"1278","END_DATE":null},"geometry":{"type":"MultiPolygon","coordinates":[[[[1.787,42.574],[1.731,42.588],[1.728,42.601],[1.736,42.618],[1.715,42.615],[1.683,42.625],[1.66,42.621],[1.637,42.63],[1.6,42.626],[1.549,42.656],[1.516,42.646],[1.48,42.651],[1.468,42.631],[1.473,42.61],[1.445,42.604],[1.427,42.586],[1.444,42.569],[1.423,42.556],[1.414,42.537],[1.451,42.54],[1.465,42.508],[1.42,42.485],[1.439,42.477],[1.448,42.46],[1.443,42.444],[1.452,42.437],[1.517,42.429],[1.552,42.433],[1.56,42.458],[1.579,42.45],[1.599,42.467],[1.655,42.467],[1.667,42.5],[1.711,42.492],[1.726,42.505],[1.74,42.557],[1.787,42.574]]]]}},{"type":"Feature","properties":{"NAME":"Grand Duchy of Finland","ADMIN_LEVEL":3,"OHM_RELATION_ID":2696816,"START_DATE":"1809","END_DATE":"1917-12-06"},"geometry":{"type":"MultiPolygon","coordinates":[[[[29.988,60.105],[29.98,60.121],[30.011,60.152],[30.005,60.159],[29.922,60.186],[29.912,60.197],[29.866,60.196],[29.852,60.211],[29.86,60.232],[29.849,60.247],[29.862,60.256],[29.933,60.242],[29.948,60.255],[29.947,60.265],[30,60.271],[29.996,60.275],[30.03,60.285],[30.056,60.283],[30.038,60.3],[30.041,60.317],[30.003,60.34],[29.997,60.351],[30.005,60.357],[30.048,60.347],[30.063,60.353],[30.057,60.355],[30.107,60.396],[30.097,60.401],[30.102,60.414],[30.085,60.438],[30.085,60.446],[30.092,60.447],[30.044,60.478],[30.057,60.495],[30.117,60.491],[30.19,60.458],[30.214,60.458],[30.245,60.477],[30.281,60.469],[30.304,60.452],[30.331,60.453],[30.36,60.442],[30.44,60.445],[30.45,60.424],[30.482,60.432],[30.493,60.449],[30.522,60.467],[30.523,60.451],[30.545,60.444],[30.618,60.479],[30.678,60.486],[30.703,60.518],[32.592,61.189],[32.651,61.401],[32.665,62.196],[32.682,62.274],[32.578,62.339],[32.371,62.45],[32.297,62.555],[32.305,62.606],[32.102,62.826],[31.896,62.881],[31.587,62.909],[31.502,62.996],[31.449,63.006],[31.463,63.024],[31.425,63.043],[31.39,63.048],[31.364,63.071],[31.272,63.108],[31.255,63.142],[31.255,63.179],[31.24,63.191],[31.24,63.219],[31.165,63.244],[31.138,63.265],[31.1,63.272],[31.021,63.303],[30.984,63.306],[30.944,63.337],[30.934,63.355],[30.853,63.368],[30.788,63.405],[30.484,63.467],[30.385,63.546],[30.261,63.583],[30.244,63.607],[30.077,63.694],[30.059,63.711],[29.972,63.757],[30.26,63.822],[30.321,63.91],[30.447,63.983],[30.492,64.017],[30.528,64.049],[30.554,64.102],[30.553,64.132],[30.516,64.155],[30.466,64.204],[30.51,64.222],[30.482,64.262],[30.388,64.269],[30.361,64.281],[30.367,64.3],[30.21,64.35],[30.11,64.365],[30.045,64.402],[30.057,64.434],[30.05,64.442],[30.058,64.451],[30.046,64.472],[30.024,64.483],[30.03,64.501],[30.015,64.504],[29.987,64.534],[29.997,64.577],[29.989,64.588],[30.054,64.615],[30.119,64.626],[30.13,64.635],[30.136,64.649],[30.054,64.713],[30.041,64.741],[30.091,64.765],[30.087,64.774],[30.043,64.793],[29.74,64.79],[29.688,64.819],[29.7,64.837],[29.645,64.866],[29.611,64.927],[29.619,64.96],[29.599,64.995],[29.614,65.013],[29.627,65.061],[29.733,65.091],[29.831,65.092],[29.897,65.105],[29.853,65.127],[29.863,65.131],[29.819,65.144],[29.894,65.193],[29.886,65.206],[29.764,65.229],[29.634,65.232],[29.602,65.26],[29.609,65.276],[29.646,65.289],[29.747,65.347],[29.731,65.374],[29.727,65.4],[29.733,65.473],[29.749,65.483],[29.755,65.497],[29.864,65.56],[29.754,65.609],[29.722,65.637],[30.016,65.696],[30.138,65.669],[30.119,65.752],[30.068,65.895],[30.024,65.967],[29.997,65.979],[29.989,66.02],[29.974,66.041],[29.981,66.044],[29.972,66.046],[29.923,66.127],[29.709,66.268],[29.695,66.271],[29.706,66.273],[29.52,66.496],[29.472,66.544],[29.413,66.582],[29.418,66.59],[29.376,66.604],[29.384,66.606],[29.361,66.623],[29.36,66.638],[29.149,66.78],[29.106,66.79],[29.115,66.805],[29.061,66.853],[29.033,66.926],[29.041,66.962],[29.072,66.994],[29.516,67.281],[29.508,67.285],[29.524,67.31],[29.569,67.311],[29.58,67.315],[29.565,67.319],[29.582,67.329],[29.613,67.327],[29.642,67.336],[29.644,67.34],[29.619,67.344],[29.621,67.349],[29.709,67.389],[29.84,67.479],[29.93,67.523],[30.016,67.671],[29.659,67.803],[29.327,68.075],[28.646,68.196],[28.434,68.54],[28.706,68.732],[28.929,69.052],[28.855,69.077],[28.805,69.111],[28.83,69.172],[28.832,69.224],[29.219,69.398],[29.336,69.478],[29.171,69.639],[29.134,69.695],[28.404,69.818],[28.33,69.849],[28.345,69.881],[28.161,69.921],[27.984,70.014],[27.977,70.054],[27.956,70.092],[27.798,70.077],[27.746,70.064],[27.69,70.077],[27.609,70.074],[27.554,70.059],[27.526,70.023],[27.431,70.02],[27.36,69.992],[27.312,69.99],[27.275,69.977],[27.304,69.961],[27.297,69.954],[27.133,69.933],[27.102,69.918],[27.042,69.911],[26.971,69.938],[26.878,69.933],[26.859,69.942],[26.853,69.96],[26.782,69.958],[26.718,69.945],[26.676,69.965],[26.468,69.94],[26.455,69.919],[26.408,69.902],[26.417,69.891],[26.413,69.88],[26.382,69.853],[26.242,69.816],[26.248,69.797],[26.191,69.776],[26.183,69.77],[26.183,69.76],[26.153,69.757],[26.132,69.737],[26.049,69.72],[26.007,69.723],[25.953,69.697],[25.944,69.685],[25.893,69.666],[25.901,69.658],[25.955,69.647],[25.963,69.633],[25.959,69.622],[25.974,69.608],[25.936,69.572],[25.875,69.554],[25.844,69.552],[25.84,69.543],[25.876,69.526],[25.847,69.493],[25.863,69.478],[25.834,69.467],[25.824,69.448],[25.806,69.434],[25.809,69.426],[25.793,69.421],[25.821,69.416],[25.812,69.407],[25.829,69.407],[25.846,69.395],[25.815,69.377],[25.814,69.359],[25.787,69.356],[25.778,69.344],[25.76,69.341],[25.757,69.326],[25.739,69.314],[25.748,69.302],[25.737,69.299],[25.747,69.288],[25.739,69.275],[25.728,69.271],[25.729,69.262],[25.701,69.25],[25.707,69.242],[25.701,69.231],[25.711,69.227],[25.711,69.213],[25.693,69.199],[25.742,69.145],[25.721,69.112],[25.73,69.101],[25.726,69.092],[25.731,69.083],[25.725,69.081],[25.75,69.06],[25.745,69.04],[25.772,69.026],[25.774,69.013],[25.713,68.981],[25.709,68.962],[25.654,68.908],[25.627,68.893],[25.591,68.884],[25.543,68.886],[25.484,68.905],[25.4,68.891],[25.249,68.844],[25.227,68.824],[25.157,68.8],[25.124,68.753],[25.123,68.723],[25.131,68.716],[25.114,68.704],[25.108,68.681],[25.115,68.639],[25.09,68.634],[25.079,68.623],[25.024,68.624],[25.014,68.615],[24.959,68.617],[24.921,68.606],[24.907,68.582],[24.903,68.555],[24.857,68.562],[24.783,68.636],[24.608,68.682],[24.251,68.727],[24.208,68.745],[24.153,68.754],[24.159,68.79],[24.076,68.78],[23.983,68.827],[23.871,68.837],[23.775,68.819],[23.731,68.751],[23.674,68.706],[23.441,68.692],[23.168,68.629],[23.046,68.689],[22.801,68.688],[22.535,68.745],[22.375,68.717],[22.341,68.827],[22.192,68.919],[22.176,68.956],[21.984,69.073],[21.723,69.214],[21.627,69.277],[21.279,69.312],[21.096,69.261],[21.003,69.222],[20.988,69.192],[21.047,69.14],[21.056,69.122],[21.109,69.104],[21.058,69.036],[20.717,69.12],[20.552,69.06],[20.675,69.018],[20.795,69.011],[20.864,68.986],[20.911,68.981],[20.935,68.967],[20.934,68.949],[20.918,68.933],[20.888,68.927],[20.885,68.907],[20.906,68.895],[21.072,68.869],[21.217,68.817],[21.305,68.756],[21.406,68.749],[21.464,68.687],[21.496,68.675],[21.572,68.667],[21.717,68.619],[21.737,68.588],[21.919,68.568],[22.036,68.507],[22.037,68.493],[22.072,68.477],[22.303,68.476],[22.371,68.468],[22.374,68.456],[22.457,68.452],[22.608,68.425],[22.662,68.427],[22.749,68.385],[22.808,68.395],[22.904,68.337],[23.067,68.29],[23.082,68.265],[23.14,68.234],[23.155,68.217],[23.149,68.194],[23.16,68.179],[23.149,68.139],[23.166,68.122],[23.272,68.145],[23.307,68.146],[23.331,68.128],[23.383,68.051],[23.485,68.016],[23.574,67.973],[23.643,67.963],[23.662,67.95],[23.661,67.933],[23.636,67.913],[23.533,67.893],[23.499,67.882],[23.481,67.865],[23.477,67.841],[23.485,67.737],[23.519,67.653],[23.55,67.611],[23.554,67.587],[23.473,67.555],[23.485,67.543],[23.431,67.486],[23.444,67.461],[23.477,67.444],[23.595,67.454],[23.765,67.42],[23.751,67.346],[23.786,67.338],[23.763,67.306],[23.735,67.29],[23.603,67.26],[23.591,67.225],[23.615,67.214],[23.574,67.173],[23.581,67.153],[23.667,67.098],[23.677,67.058],[23.72,67.017],[23.744,67.001],[23.817,66.975],[23.874,66.925],[23.933,66.889],[24.004,66.805],[23.999,66.796],[23.984,66.793],[23.939,66.791],[23.892,66.751],[23.903,66.686],[23.882,66.632],[23.893,66.596],[23.882,66.564],[23.808,66.539],[23.806,66.528],[23.786,66.518],[23.731,66.503],[23.731,66.487],[23.677,66.474],[23.652,66.459],[23.642,66.436],[23.666,66.406],[23.677,66.364],[23.664,66.326],[23.666,66.305],[23.724,66.207],[23.751,66.192],[23.889,66.161],[23.911,66.149],[23.975,66.073],[24.02,66.049],[24.055,65.985],[24.055,65.948],[24.15,65.864],[24.122,65.858],[24.154,65.818],[24.134,65.797],[24.128,65.778],[24.173,65.725],[24.165,65.695],[24.178,65.661],[24.14,65.543],[24.256,65.545],[24.367,65.566],[24.421,65.589],[24.449,65.57],[24.496,65.556],[24.6,65.551],[24.649,65.54],[24.679,65.517],[24.689,65.483],[24.708,65.465],[24.678,65.447],[24.664,65.43],[24.667,65.361],[24.693,65.329],[24.747,65.299],[24.713,65.268],[24.712,65.224],[24.74,65.194],[24.813,65.172],[24.816,65.164],[24.567,65.14],[24.486,65.111],[24.427,65.078],[24.41,65.061],[24.405,65.042],[24.407,65.022],[24.43,64.984],[24.508,64.929],[24.573,64.908],[24.412,64.85],[24.392,64.827],[24.399,64.793],[24.393,64.782],[24.296,64.766],[24.225,64.735],[24.203,64.706],[24.225,64.659],[24.216,64.645],[24.209,64.601],[24.142,64.58],[24.112,64.56],[24.098,64.54],[24.058,64.515],[23.962,64.487],[23.878,64.436],[23.852,64.406],[23.784,64.381],[23.762,64.351],[23.686,64.302],[23.677,64.302],[23.665,64.333],[23.637,64.354],[23.499,64.394],[23.394,64.395],[23.314,64.367],[23.292,64.337],[23.306,64.305],[23.344,64.282],[23.454,64.249],[23.407,64.216],[23.391,64.189],[23.393,64.163],[23.308,64.146],[23.26,64.121],[23.227,64.063],[23.224,64.036],[23.103,64.037],[23.059,64.026],[23.027,64.008],[22.996,64.004],[22.922,64.022],[22.844,64.02],[22.723,64],[22.623,63.973],[22.494,63.876],[22.457,63.825],[22.397,63.771],[22.389,63.755],[22.392,63.737],[22.424,63.711],[22.322,63.691],[22.268,63.67],[22.198,63.617],[22.184,63.589],[22.108,63.582],[22.046,63.559],[22.023,63.538],[22.02,63.514],[21.935,63.513],[21.855,63.529],[21.708,63.532],[21.637,63.514],[21.578,63.477],[21.518,63.486],[21.463,63.483],[21.41,63.468],[21.378,63.442],[21.365,63.441],[21.292,63.458],[21.247,63.488],[21.19,63.503],[21.057,63.503],[20.976,63.488],[20.94,63.47],[20.915,63.446],[20.907,63.419],[20.91,63.401],[20.889,63.373],[20.883,63.327],[20.895,63.304],[20.932,63.283],[20.948,63.254],[20.986,63.217],[20.908,63.219],[20.843,63.203],[20.783,63.212],[20.729,63.209],[20.616,63.185],[20.573,63.163],[20.559,63.141],[20.561,63.117],[20.592,63.091],[20.607,63.05],[20.649,63.027],[20.617,63.008],[20.604,62.986],[20.614,62.948],[20.628,62.932],[20.684,62.908],[20.754,62.902],[20.816,62.88],[20.882,62.877],[20.956,62.834],[20.954,62.812],[20.967,62.793],[20.94,62.779],[20.918,62.754],[20.913,62.736],[20.925,62.692],[20.905,62.672],[20.897,62.648],[20.918,62.603],[20.906,62.575],[20.919,62.532],[20.94,62.502],[20.968,62.484],[20.978,62.46],[20.961,62.424],[20.968,62.4],[21.022,62.367],[21.05,62.333],[21.053,62.311],[21.067,62.294],[21.112,62.272],[21.153,62.239],[21.153,62.218],[21.169,62.195],[21.148,62.121],[21.153,62.081],[21.117,62.035],[21.113,62.011],[21.143,61.979],[21.151,61.96],[21.142,61.935],[21.146,61.916],[21.179,61.888],[21.169,61.868],[21.173,61.839],[21.212,61.796],[21.264,61.772],[21.269,61.751],[21.227,61.693],[21.197,61.671],[21.189,61.641],[21.247,61.579],[21.301,61.555],[21.298,61.542],[21.23,61.52],[21.204,61.491],[21.208,61.46],[21.192,61.434],[21.192,61.415],[21.212,61.387],[21.246,61.366],[21.244,61.336],[21.255,61.317],[21.221,61.289],[21.214,61.258],[21.193,61.232],[21.201,61.19],[21.174,61.168],[21.146,61.113],[21.103,61.099],[21.075,61.077],[21.067,61.059],[21.069,61.041],[21.022,61.022],[21.002,61.005],[20.994,60.985],[20.947,60.97],[20.919,60.948],[20.91,60.913],[20.876,60.873],[20.867,60.848],[20.879,60.823],[20.934,60.782],[20.891,60.761],[20.872,60.731],[20.812,60.707],[20.74,60.695],[20.692,60.665],[20.597,60.649],[20.549,60.618],[20.512,60.606],[20.481,60.587],[20.398,60.574],[20.347,60.554],[20.316,60.582],[20.274,60.598],[20.17,60.603],[20.095,60.579],[20.071,60.556],[20.064,60.526],[20.049,60.523],[19.96,60.536],[19.823,60.535],[19.754,60.515],[19.681,60.506],[19.632,60.488],[19.543,60.489],[19.475,60.469],[19.412,60.471],[19.351,60.459],[19.304,60.429],[19.281,60.376],[19.251,60.336],[19.174,60.32],[19.132,60.287],[19.129,60.262],[19.15,60.233],[19.148,60.211],[19.169,60.17],[19.17,60.143],[19.185,60.125],[19.229,60.102],[19.29,60.093],[19.387,60.103],[19.431,60.115],[19.538,60.068],[19.592,60.058],[19.725,60.016],[19.799,59.974],[19.831,59.931],[19.862,59.91],[19.754,59.871],[19.731,59.855],[19.718,59.83],[19.721,59.81],[19.736,59.792],[19.791,59.765],[19.867,59.759],[19.988,59.773],[20.063,59.799],[20.09,59.834],[20.21,59.846],[20.234,59.817],[20.271,59.799],[20.37,59.791],[20.414,59.768],[20.462,59.759],[20.641,59.757],[20.688,59.768],[20.722,59.785],[20.809,59.799],[20.838,59.761],[20.954,59.706],[21.031,59.697],[21.094,59.706],[21.187,59.702],[21.244,59.71],[21.297,59.7],[21.359,59.673],[21.371,59.648],[21.401,59.627],[21.444,59.613],[21.495,59.609],[21.578,59.625],[21.611,59.646],[21.624,59.671],[21.651,59.677],[21.755,59.666],[21.825,59.682],[21.952,59.686],[22.011,59.701],[22.168,59.685],[22.217,59.693],[22.257,59.711],[22.338,59.667],[22.422,59.653],[22.558,59.661],[22.6,59.676],[22.628,59.698],[22.707,59.691],[22.85,59.706],[22.913,59.687],[22.976,59.683],[23.036,59.695],[23.08,59.721],[23.192,59.721],[23.243,59.73],[23.302,59.701],[23.39,59.695],[23.501,59.726],[23.556,59.72],[23.628,59.728],[23.702,59.758],[23.734,59.791],[23.79,59.805],[23.853,59.807],[23.916,59.83],[23.966,59.83],[24.022,59.844],[24.109,59.835],[24.178,59.846],[24.204,59.825],[24.244,59.809],[24.332,59.803],[24.39,59.818],[24.427,59.843],[24.568,59.898],[24.709,59.936],[24.742,59.956],[24.754,59.976],[24.866,60.018],[24.913,60.026],[24.985,60.012],[25.049,60.011],[25.103,60.024],[25.166,60.026],[25.279,60.054],[25.344,60.039],[25.458,60.04],[25.515,60.055],[25.549,60.077],[25.648,60.061],[25.7,60.062],[25.747,60.072],[25.785,60.093],[25.899,60.104],[25.962,60.126],[26.052,60.13],[26.107,60.115],[26.166,60.114],[26.223,60.097],[26.287,60.097],[26.344,60.111],[26.377,60.132],[26.391,60.163],[26.38,60.188],[26.438,60.19],[26.488,60.201],[26.564,60.184],[26.628,60.187],[26.673,60.199],[26.714,60.231],[26.756,60.245],[26.832,60.241],[26.894,60.253],[26.894,60.221],[26.915,60.198],[26.964,60.178],[27.027,60.171],[27.155,60.195],[27.315,60.201],[27.502,60.253],[27.528,60.247],[27.506,60.224],[27.501,60.205],[27.509,60.186],[27.526,60.169],[27.587,60.145],[27.678,60.14],[27.769,60.16],[27.811,60.193],[27.815,60.218],[27.793,60.248],[27.755,60.266],[27.706,60.276],[27.746,60.301],[27.76,60.334],[27.823,60.362],[27.859,60.345],[27.907,60.336],[27.971,60.339],[28.04,60.359],[28.09,60.342],[28.153,60.338],[28.233,60.358],[28.256,60.374],[28.27,60.398],[28.293,60.39],[28.285,60.355],[28.311,60.322],[28.432,60.248],[28.571,60.205],[28.634,60.195],[28.721,60.198],[28.797,60.22],[28.849,60.205],[28.887,60.162],[28.932,60.134],[29.097,60.1],[29.467,60.096],[29.601,60.128],[29.662,60.124],[29.835,60.055],[29.976,60.06],[29.994,60.084],[29.988,60.105]]],[[[28.091,60.242],[28.085,60.268],[28.051,60.295],[28.004,60.31],[27.951,60.314],[27.9,60.308],[27.858,60.294],[27.83,60.271],[27.82,60.242],[27.832,60.216],[27.862,60.195],[27.906,60.182],[27.957,60.177],[28.011,60.183],[28.053,60.198],[28.081,60.22],[28.091,60.242]]],[[[27.292,59.787],[27.347,59.818],[27.359,59.837],[27.361,59.856],[27.337,59.891],[27.27,59.924],[27.195,59.934],[27.111,59.921],[27.059,59.892],[27.042,59.847],[26.976,59.879],[27.018,59.913],[27.02,59.946],[27.064,59.952],[27.119,59.971],[27.149,59.993],[27.163,60.018],[27.16,60.045],[27.144,60.07],[27.08,60.136],[27.029,60.162],[26.982,60.171],[26.927,60.17],[26.88,60.16],[26.837,60.138],[26.817,60.121],[26.809,60.095],[26.831,60.032],[26.845,60.015],[26.764,59.992],[26.729,59.955],[26.731,59.929],[26.745,59.911],[26.819,59.871],[26.778,59.846],[26.763,59.813],[26.783,59.774],[26.832,59.749],[26.967,59.732],[27.047,59.752],[27.07,59.768],[27.084,59.793],[27.133,59.774],[27.183,59.767],[27.234,59.77],[27.292,59.787]]],[[[28.229,59.96],[28.347,59.933],[28.424,59.934],[28.469,59.946],[28.515,59.972],[28.531,59.989],[28.535,60.015],[28.513,60.058],[28.484,60.079],[28.424,60.099],[28.356,60.104],[28.241,60.09],[28.202,60.073],[28.179,60.049],[28.144,60.07],[28.043,60.101],[27.982,60.103],[27.921,60.091],[27.844,60.104],[27.79,60.104],[27.743,60.093],[27.701,60.072],[27.676,60.053],[27.663,60.028],[27.663,59.99],[27.68,59.965],[27.73,59.923],[27.795,59.903],[27.89,59.907],[27.964,59.927],[28.01,59.953],[28.115,59.957],[28.18,59.988],[28.229,59.96]]]]}},{"type":"Feature","properties":{"NAME":"Liechtenstein","ADMIN_LEVEL":2,"OHM_RELATION_ID":2746467,"START_DATE":"1806-07-12","END_DATE":"1960-03-17"},"geometry":{"type":"MultiPolygon","coordinates":[[[[9.623,47.108],[9.632,47.125],[9.626,47.146],[9.607,47.148],[9.579,47.171],[9.569,47.17],[9.581,47.207],[9.556,47.223],[9.564,47.246],[9.534,47.268],[9.486,47.184],[9.512,47.132],[9.519,47.097],[9.513,47.085],[9.475,47.067],[9.476,47.052],[9.541,47.064],[9.56,47.049],[9.606,47.061],[9.611,47.083],[9.625,47.09],[9.623,47.108]]]]}},{"type":"Feature","properties":{"NAME":"Monaco","ADMIN_LEVEL":2,"OHM_RELATION_ID":2693418,"START_DATE":"1861-02-02","END_DATE":null},"geometry":{"type":"MultiPolygon","coordinates":[[[[7.437,43.752],[7.409,43.73],[7.419,43.725],[7.433,43.689],[7.439,43.689],[7.467,43.705],[7.453,43.742],[7.437,43.752]]]]}},{"type":"Feature","properties":{"NAME":"San Marino","ADMIN_LEVEL":2,"OHM_RELATION_ID":2853735,"START_DATE":"1740-02-05","END_DATE":null},"geometry":{"type":"MultiPolygon","coordinates":[[[[12.478,43.897],[12.488,43.898],[12.493,43.917],[12.515,43.939],[12.506,43.958],[12.515,43.99],[12.404,43.949],[12.415,43.929],[12.408,43.921],[12.411,43.901],[12.443,43.906],[12.453,43.895],[12.478,43.897]]]]}}],"metadata":{"source":"OpenHistoricalMap","sourceUrl":"https://www.openhistoricalmap.org/","license":"CC0-1.0","year":1914,"featureCount":5,"missingWays":{},"unclosedRings":{},"droppedInnerRings":{},"tagDrift":{},"relationsWithoutGeometry":[],"borderPrecision":"史料に基づく復元（概略。測量された境界ではない）"}}